{"type":"FeatureCollection","features":[{"type":"Feature","geometry":{"type":"Point","coordinates":[-58.75177,-38.54563]},"properties":{"nombre":"Pozo N°1","tipo":"Pozos de explotación de agua","direccion":"Av.59 n º3821 esq calle 80"}},{"type":"Feature","geometry":{"type":"Point","coordinates":[-58.754387,-38.554737]},"properties":{"nombre":"Pozo N°2","tipo":"Pozos de explotación de agua","direccion":"Av.74 y Av.75"}},{"type":"Feature","geometry":{"type":"Point","coordinates":[-58.745769,-38.537867]},"properties":{"nombre":"Pozo N°3","tipo":"Pozos de explotación de agua","direccion":"calle 43 y calle 86"}},{"type":"Feature","geometry":{"type":"Point","coordinates":[-58.775731,-38.550283]},"properties":{"nombre":"Pozo N°4","tipo":"Pozos de explotación de agua","direccion":"calle 102 y calle 91"}},{"type":"Feature","geometry":{"type":"Point","coordinates":[-58.754442,-38.545656]},"properties":{"nombre":"Pozo N°5","tipo":"Pozos de explotación de agua","direccion":"calle 63 y calle 86"}},{"type":"Feature","geometry":{"type":"Point","coordinates":[-58.730179,-38.561299]},"properties":{"nombre":"Pozo N°6","tipo":"Pozos de explotación de agua","direccion":"Av.59 y calle 38"}},{"type":"Feature","geometry":{"type":"Point","coordinates":[-58.739141,-38.566345]},"properties":{"nombre":"Pozo N°7","tipo":"Pozos de explotación de agua","direccion":"calle 42 y Av.75"}},{"type":"Feature","geometry":{"type":"Point","coordinates":[-58.754466,-38.54289]},"properties":{"nombre":"Pozo N°8","tipo":"Pozos de explotación de agua","direccion":"Av.59 e/88 y 90"}},{"type":"Feature","geometry":{"type":"Point","coordinates":[-58.758331,-38.539842]},"properties":{"nombre":"Pozo N°9","tipo":"Pozos de explotación de agua","direccion":"Av.59 y Av.98"}},{"type":"Feature","geometry":{"type":"Point","coordinates":[-58.723409,-38.566729]},"properties":{"nombre":"Pozo N°10","tipo":"Pozos de explotación de agua","direccion":"Av.59 y calle 26"}},{"type":"Feature","geometry":{"type":"Point","coordinates":[-58.753292,-38.544722]},"properties":{"nombre":"Pozo N°11","tipo":"Pozos de explotación de agua","direccion":"Av.59 y calle 86"}},{"type":"Feature","geometry":{"type":"Point","coordinates":[-58.738142,-38.553596]},"properties":{"nombre":"Pozo N°12","tipo":"Pozos de explotación de agua","direccion":"Av.58 y calle 57"}},{"type":"Feature","geometry":{"type":"Point","coordinates":[-58.733519,-38.546623]},"properties":{"nombre":"Pozo N°13","tipo":"Pozos de explotación de agua","direccion":"Av.43 y calle 62"}},{"type":"Feature","geometry":{"type":"Point","coordinates":[-58.735721,-38.580083]},"properties":{"nombre":"Pozo N°14","tipo":"Pozos de explotación de agua","direccion":"Av.10 y calle 89"}},{"type":"Feature","geometry":{"type":"Point","coordinates":[-58.769447,-38.546433]},"properties":{"nombre":"Pozo N°15","tipo":"Pozos de explotación de agua","direccion":"Av.79 y calle 100"}},{"type":"Feature","geometry":{"type":"Point","coordinates":[-58.728176,-38.567168]},"properties":{"nombre":"Pozo N°16","tipo":"Pozos de explotación de agua","direccion":"Calle 30 y calle 63"}},{"type":"Feature","geometry":{"type":"Point","coordinates":[-58.7269,-38.564188]},"properties":{"nombre":"Pozo N°17","tipo":"Pozos de explotación de agua","direccion":"Av.59 y calle 32"}},{"type":"Feature","geometry":{"type":"Point","coordinates":[-58.734985,-38.572881]},"properties":{"nombre":"Pozo N°18","tipo":"Pozos de explotación de agua","direccion":"Calle 79 y calle 30"}},{"type":"Feature","geometry":{"type":"Point","coordinates":[-58.708992,-38.558583]},"properties":{"nombre":"Pozo N°19","tipo":"Pozos de explotación de agua","direccion":"Atepán Quequén"}},{"type":"Feature","geometry":{"type":"Point","coordinates":[-58.703096,-38.567503]},"properties":{"nombre":"Pozo N°20","tipo":"Pozos de explotación de agua","direccion":"Alte. Brown e/528 y 530"}},{"type":"Feature","geometry":{"type":"Point","coordinates":[-58.761271,-38.541299]},"properties":{"nombre":"Pozo N°21","tipo":"Pozos de explotación de agua","direccion":"Av.98 y calle 65"}},{"type":"Feature","geometry":{"type":"Point","coordinates":[-58.766424,-38.538856]},"properties":{"nombre":"Pozo N°22","tipo":"Pozos de explotación de agua","direccion":"calle 106 y calle 65"}},{"type":"Feature","geometry":{"type":"Point","coordinates":[-58.763028,-38.536803]},"properties":{"nombre":"Pozo N°23","tipo":"Pozos de explotación de agua","direccion":"calle 106 y Av.59"}},{"type":"Feature","geometry":{"type":"Point","coordinates":[-58.769694,-38.542818]},"properties":{"nombre":"Pozo N°24","tipo":"Pozos de explotación de agua","direccion":"calle 106 y Av. 75"}},{"type":"Feature","geometry":{"type":"Point","coordinates":[-58.774271,-38.539192]},"properties":{"nombre":"Pozo N°25","tipo":"Pozos de explotación de agua","direccion":"calle 114 y Av.75"}},{"type":"Feature","geometry":{"type":"Point","coordinates":[-58.771273,-38.536021]},"properties":{"nombre":"Pozo N°26","tipo":"Pozos de explotación de agua","direccion":"calle 116 y calle 67"}},{"type":"Feature","geometry":{"type":"Point","coordinates":[-58.692917,-38.520053]},"properties":{"nombre":"Pozo N°27","tipo":"Pozos de explotación de agua","direccion":"calle 599 y Av.Lobería"}},{"type":"Feature","geometry":{"type":"Point","coordinates":[-58.688696,-38.523495]},"properties":{"nombre":"Pozo N°28","tipo":"Pozos de explotación de agua","direccion":"calle 599 y calle 572"}},{"type":"Feature","geometry":{"type":"Point","coordinates":[-58.707822,-38.53691]},"properties":{"nombre":"Pozo N°29","tipo":"Pozos de explotación de agua","direccion":"572 e/ 561 y 563"}},{"type":"Feature","geometry":{"type":"Point","coordinates":[-58.720739,-38.574808]},"properties":{"nombre":"Pozo N°30","tipo":"Pozos de explotación de agua","direccion":"Av.10 y calle 67"}},{"type":"Feature","geometry":{"type":"Point","coordinates":[-58.747684,-38.561314]},"properties":{"nombre":"Pozo N°31","tipo":"Pozos de explotación de agua","direccion":"Av.58 nº 3700"}},{"type":"Feature","geometry":{"type":"Point","coordinates":[-58.739458,-38.542688]},"properties":{"nombre":"Pozo N°32","tipo":"Pozos de explotación de agua","direccion":"Av.43 y Av.74"}},{"type":"Feature","geometry":{"type":"Point","coordinates":[-58.724998,-38.57311]},"properties":{"nombre":"Pozo N°33","tipo":"Pozos de explotación de agua","direccion":"calle 69 e/18 y 20"}},{"type":"Feature","geometry":{"type":"Point","coordinates":[-58.703859,-38.558509]},"properties":{"nombre":"Pozo N°34","tipo":"Pozos de explotación de agua","direccion":"calle 529 y calle 542"}},{"type":"Feature","geometry":{"type":"Point","coordinates":[-58.763858,-38.556327]},"properties":{"nombre":"Pozo N°35","tipo":"Pozos de explotación de agua","direccion":"calle 87 y calle 82"}},{"type":"Feature","geometry":{"type":"Point","coordinates":[-58.734394,-38.583438]},"properties":{"nombre":"Pozo N°36","tipo":"Pozos de explotación de agua","direccion":"Av.91 y calle 4"}},{"type":"Feature","geometry":{"type":"Point","coordinates":[-58.696876,-38.5635]},"properties":{"nombre":"Pozo N°37","tipo":"Pozos de explotación de agua","direccion":"calle 528 y calle 529"}},{"type":"Feature","geometry":{"type":"Point","coordinates":[-58.718293,-38.574735]},"properties":{"nombre":"Pozo N°38","tipo":"Pozos de explotación de agua","direccion":"calle 63 y calle 8"}},{"type":"Feature","geometry":{"type":"Point","coordinates":[-58.746687,-38.573154]},"properties":{"nombre":"Pozo N°39","tipo":"Pozos de explotación de agua","direccion":"Av. 42 y Av.91"}},{"type":"Feature","geometry":{"type":"Point","coordinates":[-58.760997,-38.551909]},"properties":{"nombre":"Pozo N°40","tipo":"Pozos de explotación de agua","direccion":"calle 84 y calle 77"}},{"type":"Feature","geometry":{"type":"Point","coordinates":[-58.750984,-38.53789]},"properties":{"nombre":"Pozo N°41","tipo":"Pozos de explotación de agua","direccion":"calle 92 y calle 49"}},{"type":"Feature","geometry":{"type":"Point","coordinates":[-58.689556,-38.572871]},"properties":{"nombre":"Pozo N°42","tipo":"Pozos de explotación de agua","direccion":"Av.531 y calle 510"}},{"type":"Feature","geometry":{"type":"Point","coordinates":[-58.706504,-38.569843]},"properties":{"nombre":"Pozo N°43","tipo":"Pozos de explotación de agua","direccion":"calle 530 y 511"}},{"type":"Feature","geometry":{"type":"Point","coordinates":[-58.754764,-38.53642]},"properties":{"nombre":"Pozo N°44","tipo":"Pozos de explotación de agua","direccion":"calle 98 y 51"}},{"type":"Feature","geometry":{"type":"Point","coordinates":[-58.775128,-38.544605]},"properties":{"nombre":"Pozo N°45","tipo":"Pozos de explotación de agua","direccion":"calle 106 y Av. 75"}},{"type":"Feature","geometry":{"type":"Point","coordinates":[-58.748659,-38.578818]},"properties":{"nombre":"Pozo N°46","tipo":"Pozos de explotación de agua","direccion":"calle 103 y 36"}},{"type":"Feature","geometry":{"type":"Point","coordinates":[-58.73359,-38.550027]},"properties":{"nombre":"Pozo N°47","tipo":"Pozos de explotación de agua","direccion":"calle 58 y 47"}},{"type":"Feature","geometry":{"type":"Point","coordinates":[-58.754372,-38.566794]},"properties":{"nombre":"Pozo N°48","tipo":"Pozos de explotación de agua","direccion":"Av. 58 y Av. 91"}},{"type":"Feature","geometry":{"type":"Point","coordinates":[-58.720332,-38.580041]},"properties":{"nombre":"Bomba N°1","tipo":"Cámaras de bombeo","direccion":"Av 2 3451 e/ 69 y 71"}},{"type":"Feature","geometry":{"type":"Point","coordinates":[-58.724008,-38.561518]},"properties":{"nombre":"Bomba N°2","tipo":"Cámaras de bombeo","direccion":"53-1318 e/ 32 y 34"}},{"type":"Feature","geometry":{"type":"Point","coordinates":[-58.729871,-38.583432]},"properties":{"nombre":"Bomba N°3","tipo":"Cámaras de bombeo","direccion":"Av 2-4189"}},{"type":"Feature","geometry":{"type":"Point","coordinates":[-58.719163,-38.553946]},"properties":{"nombre":"Bomba N°4","tipo":"Cámaras de bombeo","direccion":"519-3102 y 564"}},{"type":"Feature","geometry":{"type":"Point","coordinates":[-58.719934,-38.567552]},"properties":{"nombre":"Bomba N°5","tipo":"Cámaras de bombeo","direccion":"57-715 Planta cloacal"}},{"type":"Feature","geometry":{"type":"Point","coordinates":[-58.746554,-38.581692]},"properties":{"nombre":"Bomba N°6","tipo":"Cámaras de bombeo","direccion":"30-5108 e/ 103 y 105 (Plaza)"}},{"type":"Feature","geometry":{"type":"Point","coordinates":[-58.732715,-38.549266]},"properties":{"nombre":"Bomba N°7","tipo":"Cámaras de bombeo","direccion":"58-2123 (Terminal)"}},{"type":"Feature","geometry":{"type":"Point","coordinates":[-58.718777,-38.56408]},"properties":{"nombre":"Bomba N°8","tipo":"Cámaras de bombeo","direccion":"24-2502"}},{"type":"Feature","geometry":{"type":"Point","coordinates":[-58.729682,-38.552801]},"properties":{"nombre":"Bomba N°9","tipo":"Cámaras de bombeo","direccion":"50 2308 y 47"}},{"type":"Feature","geometry":{"type":"Point","coordinates":[-58.725284,-38.541929]},"properties":{"nombre":"Bomba N°10","tipo":"Cámaras de bombeo","direccion":"586 y 529"}},{"type":"Feature","geometry":{"type":"Point","coordinates":[-58.750801,-38.5332]},"properties":{"nombre":"Bomba N°11","tipo":"Cámaras de bombeo","direccion":"43-4590"}}]}
