{"type":"FeatureCollection","features":[{"type":"Feature","properties":{"communication:radio":"fm","man_made":"mast","name":"FM La Radio 93.5","tower:type":"communication","osm":"node/3849186081"},"geometry":{"type":"Point","coordinates":[-58.74889,-38.55726]}},{"type":"Feature","properties":{"man_made":"mast","osm":"node/5869827519"},"geometry":{"type":"Point","coordinates":[-59.18908,-38.27879]}},{"type":"Feature","properties":{"man_made":"mast","osm":"node/5871881593"},"geometry":{"type":"Point","coordinates":[-59.20163,-38.28004]}},{"type":"Feature","properties":{"communication:mobile_phone":"yes","man_made":"mast","tower:type":"communication","osm":"node/6559261710"},"geometry":{"type":"Point","coordinates":[-59.26141,-38.01173]}},{"type":"Feature","properties":{"communication:mobile_phone":"yes","man_made":"mast","tower:type":"communication","osm":"node/6594476928"},"geometry":{"type":"Point","coordinates":[-59.28781,-37.89099]}},{"type":"Feature","properties":{"communication:mobile_phone":"yes","man_made":"antenna","osm":"node/9641768488"},"geometry":{"type":"Point","coordinates":[-59.19504,-38.29153]}},{"type":"Feature","properties":{"communication:mobile_phone":"yes","man_made":"antenna","osm":"node/9641999507"},"geometry":{"type":"Point","coordinates":[-59.33089,-38.44809]}},{"type":"Feature","properties":{"man_made":"mast","tower:type":"communication","osm":"node/10059219818"},"geometry":{"type":"Point","coordinates":[-59.32677,-38.44883]}},{"type":"Feature","properties":{"communication:mobile_phone":"yes","man_made":"mast","tower:type":"communication","osm":"node/10067275231"},"geometry":{"type":"Point","coordinates":[-59.26752,-38.00752]}},{"type":"Feature","properties":{"man_made":"antenna","osm":"node/13113190751"},"geometry":{"type":"Point","coordinates":[-59.33049,-38.44958]}},{"type":"Feature","properties":{"man_made":"antenna","osm":"node/13113190752"},"geometry":{"type":"Point","coordinates":[-59.33091,-38.44811]}},{"type":"Feature","properties":{"communication:mobile_phone":"yes","man_made":"mast","tower:type":"communication","osm":"node/13879085495"},"geometry":{"type":"Point","coordinates":[-59.18942,-38.28092]}}]}
