{"type":"FeatureCollection","features":[{"type":"Feature","properties":{"id_renabap":629,"nombre":"Los Malvones","localidad":"Necochea","clasificacion":"Asentamiento","familias":154,"viviendas":140,"decada":"Década 1970","energia":"Conexión irregular a la red","cloacas":"Desagüe sólo a pozo negro/ciego u hoyo","agua":"Conexión formal a la red de agua con factura","cocina":"Gas en garrafa","calefaccion":"Sin Datos","titulo":"NO","superficie_m2":128773},"geometry":{"type":"MultiPolygon","coordinates":[[[[-58.77121,-38.53617],[-58.76937,-38.53753],[-58.76655,-38.53967],[-58.76692,-38.54],[-58.76746,-38.54046],[-58.76839,-38.54117],[-58.773,-38.53761],[-58.77121,-38.53617]]]]}},{"type":"Feature","properties":{"id_renabap":724,"nombre":"Los Álamos","localidad":"Necochea","clasificacion":"Asentamiento","familias":88,"viviendas":80,"decada":"Década 1990","energia":"Conexión formal a la red con medidor domiciliario con factura","cloacas":"Desagüe sólo a pozo negro/ciego u hoyo","agua":"Conexión irregular a la red de agua","cocina":"Gas en garrafa","calefaccion":"Sin Datos","titulo":"NO","superficie_m2":56434},"geometry":{"type":"MultiPolygon","coordinates":[[[[-58.74245,-38.53256],[-58.74051,-38.53409],[-58.73863,-38.53254],[-58.74055,-38.53104],[-58.74245,-38.53256]]]]}},{"type":"Feature","properties":{"id_renabap":424,"nombre":"La Terminal","localidad":"Necochea","clasificacion":"Asentamiento","familias":55,"viviendas":50,"decada":"Década 2010","energia":"Conexión irregular a la red","cloacas":"Desagüe sólo a pozo negro/ciego u hoyo","agua":"Conexión irregular a la red de agua","cocina":"Gas en garrafa","calefaccion":"Leña o carbón","titulo":"NO","superficie_m2":53579},"geometry":{"type":"MultiPolygon","coordinates":[[[[-58.73211,-38.5479],[-58.73117,-38.54714],[-58.73166,-38.54654],[-58.73179,-38.54613],[-58.73125,-38.54527],[-58.73196,-38.54479],[-58.73179,-38.54461],[-58.73378,-38.54313],[-58.73411,-38.54344],[-58.73236,-38.54477],[-58.73228,-38.54492],[-58.73256,-38.54504],[-58.73329,-38.54587],[-58.73357,-38.54675],[-58.73211,-38.5479]]]]}},{"type":"Feature","properties":{"id_renabap":6514,"nombre":"San Martín","localidad":"Necochea","clasificacion":"Asentamiento","familias":55,"viviendas":50,"decada":"Década 2000","energia":"Conexión irregular a la red","cloacas":"Conexión irregular a la red cloacal","agua":"Conexión irregular a la red de agua","cocina":"Gas en garrafa","calefaccion":"Gas en garrafa","titulo":"NO","superficie_m2":58876},"geometry":{"type":"MultiPolygon","coordinates":[[[[-58.76238,-38.55772],[-58.76046,-38.55925],[-58.7585,-38.55771],[-58.76054,-38.55615],[-58.76242,-38.55768],[-58.76238,-38.55772]]]]}},{"type":"Feature","properties":{"id_renabap":663,"nombre":"Los Carritos","localidad":"Necochea","clasificacion":"Asentamiento","familias":44,"viviendas":40,"decada":"Década 2000","energia":"Conexión irregular a la red","cloacas":"Desagüe sólo a pozo negro/ciego u hoyo","agua":"Conexión irregular a la red de agua","cocina":"Gas en garrafa","calefaccion":"Leña o carbón","titulo":"NO","superficie_m2":58386},"geometry":{"type":"MultiPolygon","coordinates":[[[[-58.76334,-38.55849],[-58.7639,-38.55892],[-58.76435,-38.55928],[-58.76631,-38.55776],[-58.76435,-38.55621],[-58.76238,-38.55772],[-58.76334,-38.55849]]]]}},{"type":"Feature","properties":{"id_renabap":558,"nombre":"Tiro Federal","localidad":"Necochea","clasificacion":"Asentamiento","familias":22,"viviendas":20,"decada":"Década 2000","energia":"Conexión irregular a la red","cloacas":"Desagüe sólo a pozo negro/ciego u hoyo","agua":"Conexión formal a la red de agua con factura","cocina":"Gas en garrafa","calefaccion":"Sin Datos","titulo":"NO","superficie_m2":11994},"geometry":{"type":"MultiPolygon","coordinates":[[[[-58.75678,-38.53491],[-58.75587,-38.53426],[-58.75498,-38.5349],[-58.75584,-38.53563],[-58.75678,-38.53491]]]]}},{"type":"Feature","properties":{"id_renabap":130,"nombre":"88 Entre 47 y 49","localidad":"Necochea","clasificacion":"Asentamiento","familias":20,"viviendas":18,"decada":"Década 1990","energia":"Conexión formal a la red con medidor domiciliario con factura","cloacas":"Desagüe sólo a pozo negro/ciego u hoyo","agua":"Conexión irregular a la red de agua","cocina":"Gas en garrafa","calefaccion":"Sin Datos","titulo":"NO","superficie_m2":4709},"geometry":{"type":"MultiPolygon","coordinates":[[[[-58.74814,-38.53874],[-58.74778,-38.53902],[-58.74809,-38.53928],[-58.74802,-38.53932],[-58.74819,-38.53949],[-58.74827,-38.53942],[-58.74858,-38.53968],[-58.74894,-38.5394],[-58.74814,-38.53874]]]]}},{"type":"Feature","properties":{"id_renabap":479,"nombre":"Estación Quequén","localidad":"Quequén","clasificacion":"Asentamiento","familias":11,"viviendas":10,"decada":"Década 1990","energia":"Conexión irregular a la red","cloacas":"Desagüe sólo a pozo negro/ciego u hoyo","agua":"Conexión irregular a la red de agua","cocina":"Gas en garrafa","calefaccion":"Sin Datos","titulo":"NO","superficie_m2":7114},"geometry":{"type":"MultiPolygon","coordinates":[[[[-58.71285,-38.53652],[-58.71352,-38.53602],[-58.71284,-38.53545],[-58.71214,-38.53596],[-58.71285,-38.53652]]]]}},{"type":"Feature","properties":{"id_renabap":1433,"nombre":"Puerto","localidad":"Necochea","clasificacion":"Asentamiento","familias":11,"viviendas":10,"decada":"Década 1960","energia":"Conexión irregular a la red","cloacas":"Desagüe sólo a pozo negro/ciego u hoyo","agua":"Conexión formal a la red de agua con factura","cocina":"Gas en garrafa","calefaccion":"Sin Datos","titulo":"NO","superficie_m2":11325},"geometry":{"type":"MultiPolygon","coordinates":[[[[-58.71746,-38.56606],[-58.71731,-38.56592],[-58.71644,-38.56661],[-58.71662,-38.56677],[-58.71746,-38.56606]]],[[[-58.71599,-38.56632],[-58.71555,-38.56666],[-58.71642,-38.56735],[-58.71685,-38.56703],[-58.71599,-38.56632]]],[[[-58.71691,-38.56553],[-58.71664,-38.56529],[-58.71627,-38.56556],[-58.71656,-38.56578],[-58.71691,-38.56553]]],[[[-58.7192,-38.56437],[-58.71943,-38.56456],[-58.71992,-38.56416],[-58.71967,-38.56398],[-58.7192,-38.56437]]]]}}]}
