{"type":"FeatureCollection","features":[{"type":"Feature","properties":{"localidad":"Necochea - Quequén","localidad_enacom":"Necochea - Quequén","categoria":"Con fibra óptica","accesos":31305,"tecnologias":[["Fibra óptica",24823],["Cable módem",2396],["Inalámbrico",1503],["Satelital",1340],["ADSL",1004],["Telefónico (dial up)",130],["Otras",106],["Celular",3]],"fibra":24823,"punto":"Punto de la localidad en la capa del IGN (BAHRA)."},"geometry":{"type":"Point","coordinates":[-58.73924,-38.55446]}},{"type":"Feature","properties":{"localidad":"Nicanor Olivera","localidad_enacom":"Nicanor Olivera  (Est. La Dulce)","categoria":"Sin fibra o con fibra mínima","accesos":1005,"tecnologias":[["Inalámbrico",743],["Satelital",254],["Fibra óptica",6],["Telefónico (dial up)",2]],"fibra":6,"punto":"Punto de la localidad en la capa del IGN (BAHRA)."},"geometry":{"type":"Point","coordinates":[-59.20274,-38.28305]}},{"type":"Feature","properties":{"localidad":"Juan N. Fernández","localidad_enacom":"Juan N. Fernández","categoria":"Sin fibra o con fibra mínima","accesos":853,"tecnologias":[["ADSL",525],["Satelital",208],["Inalámbrico",120]],"fibra":0,"punto":"Punto de la localidad en la capa del IGN (BAHRA)."},"geometry":{"type":"Point","coordinates":[-59.26392,-38.00552]}},{"type":"Feature","properties":{"localidad":"Claraz","localidad_enacom":"Claraz","categoria":"Sin fibra o con fibra mínima","accesos":238,"tecnologias":[["Inalámbrico",169],["Satelital",69]],"fibra":0,"punto":"Punto de la localidad en la capa del IGN (BAHRA)."},"geometry":{"type":"Point","coordinates":[-59.29107,-37.89343]}},{"type":"Feature","properties":{"localidad":"Costa Bonita","localidad_enacom":"Costa Bonita","categoria":"Solo satelital","accesos":135,"tecnologias":[["Satelital",135]],"fibra":0,"punto":"Punto central del límite de Costa Bonita en OpenStreetMap (relation/21212013)."},"geometry":{"type":"Point","coordinates":[-58.62895,-38.56113]}},{"type":"Feature","properties":{"localidad":"Energía","localidad_enacom":"Energía","categoria":"Sin fibra o con fibra mínima","accesos":60,"tecnologias":[["Satelital",35],["Inalámbrico",25]],"fibra":0,"punto":"Punto de la localidad en la capa del IGN (BAHRA)."},"geometry":{"type":"Point","coordinates":[-59.34081,-38.55794]}},{"type":"Feature","properties":{"localidad":"Ramón Santamarina","localidad_enacom":"Ramón Santamarina","categoria":"Solo satelital","accesos":30,"tecnologias":[["Satelital",30]],"fibra":0,"punto":"Punto de la localidad en la capa del IGN (BAHRA)."},"geometry":{"type":"Point","coordinates":[-59.33051,-38.44913]}}]}
