{"type":"FeatureCollection","features":[{"type":"Feature","properties":{"nombre":"Río Quequén Grande","sistema":"Interserrano Bonaerense","region":"Atlántica Pampeana","area_km2":9788,"partidos":{"Benito Juárez":39.5,"Necochea":23.9,"Lobería":22.0,"Adolfo Gonzales Chaves":5.9,"Tandil":4.7,"San Cayetano":2.8,"Azul":0.9}},"geometry":{"type":"Polygon","coordinates":[[[-59.08309,-37.50489],[-59.07474,-37.50905],[-59.06209,-37.5225],[-59.06643,-37.53943],[-59.05772,-37.53955],[-59.04859,-37.5437],[-59.03864,-37.55854],[-59.0495,-37.57677],[-59.05471,-37.60803],[-59.05037,-37.62757],[-59.05575,-37.64912],[-59.03818,-37.65728],[-59.03316,-37.66418],[-59.04508,-37.67736],[-59.03002,-37.69179],[-59.00178,-37.68489],[-58.98593,-37.70753],[-58.95682,-37.71313],[-58.93439,-37.73159],[-58.91182,-37.76349],[-58.87009,-37.77919],[-58.84163,-37.79932],[-58.83623,-37.83024],[-58.83083,-37.85331],[-58.81758,-37.86902],[-58.79892,-37.85969],[-58.77581,-37.84778],[-58.73176,-37.82756],[-58.70264,-37.82166],[-58.67269,-37.83206],[-58.64088,-37.82435],[-58.63066,-37.8338],[-58.62544,-37.84304],[-58.6162,-37.84906],[-58.60937,-37.85629],[-58.59411,-37.86593],[-58.57979,-37.872],[-58.58059,-37.88508],[-58.58893,-37.90426],[-58.6031,-37.92177],[-58.61603,-37.93136],[-58.63938,-37.95096],[-58.65523,-37.99307],[-58.66273,-38.04352],[-58.65398,-38.0723],[-58.65773,-38.12483],[-58.65731,-38.16152],[-58.66482,-38.20864],[-58.66023,-38.29704],[-58.66565,-38.35958],[-58.66273,-38.40211],[-58.67191,-38.47258],[-58.69192,-38.54596],[-58.70072,-38.57727],[-58.70167,-38.58119],[-58.70172,-38.58115],[-58.70173,-38.58115],[-58.70176,-38.58114],[-58.70178,-38.58113],[-58.70187,-38.5811],[-58.70191,-38.58109],[-58.70193,-38.58109],[-58.70198,-38.58108],[-58.702,-38.58108],[-58.70201,-38.58107],[-58.70203,-38.58105],[-58.70205,-38.58104],[-58.70211,-38.58101],[-58.70216,-38.58099],[-58.70219,-38.58098],[-58.70224,-38.58098],[-58.70226,-38.58098],[-58.70232,-38.581],[-58.7024,-38.58102],[-58.70252,-38.58105],[-58.70262,-38.58108],[-58.70266,-38.58109],[-58.70276,-38.5811],[-58.70283,-38.58112],[-58.70297,-38.58112],[-58.70308,-38.58112],[-58.70315,-38.58113],[-58.7032,-38.58114],[-58.70322,-38.58114],[-58.70332,-38.58116],[-58.7034,-38.58117],[-58.70348,-38.58118],[-58.70357,-38.58119],[-58.70358,-38.58119],[-58.70366,-38.58122],[-58.70374,-38.58124],[-58.70382,-38.58126],[-58.7039,-38.58128],[-58.70396,-38.5813],[-58.70396,-38.5813],[-58.70404,-38.58131],[-58.70412,-38.58133],[-58.70413,-38.58133],[-58.70422,-38.58134],[-58.7043,-38.58135],[-58.70437,-38.58137],[-58.70447,-38.58138],[-58.70455,-38.58138],[-58.70455,-38.58138],[-58.70462,-38.58138],[-58.7047,-38.5814],[-58.70477,-38.58141],[-58.70486,-38.58142],[-58.70492,-38.58144],[-58.70502,-38.58146],[-58.70502,-38.58147],[-58.70514,-38.58149],[-58.70515,-38.58149],[-58.70522,-38.5815],[-58.70533,-38.58151],[-58.7054,-38.58151],[-58.70546,-38.58151],[-58.70547,-38.58151],[-58.70553,-38.58151],[-58.70559,-38.58152],[-58.70565,-38.58152],[-58.70571,-38.58154],[-58.70574,-38.58155],[-58.70578,-38.58157],[-58.70581,-38.58158],[-58.70583,-38.58158],[-58.70594,-38.58158],[-58.70594,-38.58158],[-58.70605,-38.58159],[-58.70607,-38.5816],[-58.70615,-38.58161],[-58.70616,-38.58162],[-58.70627,-38.58164],[-58.70628,-38.58164],[-58.70637,-38.58166],[-58.70645,-38.58166],[-58.70652,-38.58166],[-58.70661,-38.58166],[-58.7067,-38.58166],[-58.70676,-38.58166],[-58.7068,-38.58166],[-58.70689,-38.58166],[-58.7069,-38.58166],[-58.70696,-38.58166],[-58.70702,-38.58166],[-58.70702,-38.58166],[-58.7071,-38.58166],[-58.7072,-38.58167],[-58.70724,-38.58168],[-58.70732,-38.58169],[-58.70732,-38.58169],[-58.70736,-38.58169],[-58.7074,-38.58169],[-58.70746,-38.58169],[-58.70747,-38.58169],[-58.70754,-38.58169],[-58.70755,-38.58169],[-58.70756,-38.58169],[-58.70765,-38.58168],[-58.70766,-38.58168],[-58.70771,-38.58169],[-58.70775,-38.5817],[-58.70781,-38.58171],[-58.70785,-38.58171],[-58.70788,-38.58171],[-58.70789,-38.58171],[-58.70791,-38.58171],[-58.70798,-38.58171],[-58.70799,-38.58171],[-58.70805,-38.58171],[-58.70808,-38.58171],[-58.70812,-38.58172],[-58.70819,-38.58174],[-58.7082,-38.58174],[-58.70827,-38.58175],[-58.70834,-38.58177],[-58.70835,-38.58178],[-58.7084,-38.58178],[-58.70846,-38.5818],[-58.70851,-38.58181],[-58.70862,-38.58182],[-58.7087,-38.58182],[-58.70879,-38.58184],[-58.70887,-38.58185],[-58.70893,-38.58187],[-58.70894,-38.58187],[-58.70901,-38.58187],[-58.70902,-38.58187],[-58.7091,-38.58187],[-58.70918,-38.58187],[-58.70919,-38.58187],[-58.70925,-38.58187],[-58.70926,-38.58187],[-58.70931,-38.58187],[-58.70939,-38.58187],[-58.70949,-38.58188],[-58.70955,-38.58189],[-58.70962,-38.58192],[-58.70967,-38.58193],[-58.70974,-38.58194],[-58.70982,-38.58194],[-58.7099,-38.58195],[-58.70997,-38.58195],[-58.71,-38.58195],[-58.71005,-38.58197],[-58.71011,-38.58199],[-58.71017,-38.582],[-58.71021,-38.58201],[-58.71028,-38.58202],[-58.71034,-38.58202],[-58.71043,-38.58204],[-58.71051,-38.58204],[-58.71057,-38.58204],[-58.71062,-38.58204],[-58.71068,-38.58204],[-58.71078,-38.58206],[-58.71085,-38.58208],[-58.71093,-38.58211],[-58.71098,-38.58212],[-58.71105,-38.58214],[-58.71106,-38.58215],[-58.71111,-38.58215],[-58.71114,-38.58216],[-58.7112,-38.58217],[-58.71127,-38.58218],[-58.71133,-38.58218],[-58.71134,-38.58218],[-58.7114,-38.58218],[-58.71141,-38.58218],[-58.71151,-38.58218],[-58.71152,-38.58218],[-58.71157,-38.58218],[-58.71158,-38.58218],[-58.71165,-38.58218],[-58.71169,-38.58218],[-58.71173,-38.58218],[-58.71179,-38.58219],[-58.71184,-38.58221],[-58.71189,-38.58221],[-58.71191,-38.58222],[-58.71196,-38.58223],[-58.712,-38.58224],[-58.71206,-38.58226],[-58.7121,-38.58227],[-58.71211,-38.58228],[-58.71217,-38.5823],[-58.71225,-38.58232],[-58.71231,-38.58234],[-58.71241,-38.58236],[-58.71253,-38.58238],[-58.71254,-38.58238],[-58.71271,-38.5824],[-58.71278,-38.5824],[-58.71281,-38.58241],[-58.71285,-38.58241],[-58.71286,-38.58242],[-58.71292,-38.58243],[-58.71301,-38.58247],[-58.71302,-38.58247],[-58.71307,-38.58248],[-58.71316,-38.58249],[-58.71318,-38.58249],[-58.71321,-38.5825],[-58.71337,-38.58254],[-58.71338,-38.58254],[-58.7136,-38.58254],[-58.71371,-38.58256],[-58.71378,-38.58257],[-58.71385,-38.5826],[-58.71396,-38.58262],[-58.71408,-38.58266],[-58.71417,-38.58267],[-58.71422,-38.58268],[-58.71431,-38.58268],[-58.71442,-38.58268],[-58.71444,-38.58268],[-58.7532,-38.56439],[-58.78073,-38.53528],[-58.79705,-38.45281],[-58.82883,-38.37893],[-58.86147,-38.33857],[-58.87662,-38.32498],[-58.89056,-38.31998],[-58.90974,-38.31474],[-58.92631,-38.31068],[-58.94168,-38.30461],[-58.95491,-38.29531],[-58.96313,-38.29675],[-58.97207,-38.27529],[-58.9835,-38.26779],[-59.00853,-38.26028],[-59.02426,-38.26028],[-59.0407,-38.26636],[-59.04785,-38.27422],[-59.06358,-38.27637],[-59.07394,-38.26636],[-59.08181,-38.27315],[-59.08869,-38.28092],[-59.09348,-38.28171],[-59.10255,-38.28209],[-59.11574,-38.2896],[-59.13615,-38.28959],[-59.14508,-38.28995],[-59.15545,-38.29818],[-59.16868,-38.29674],[-59.17308,-38.29348],[-59.1845,-38.30021],[-59.19477,-38.29674],[-59.20371,-38.27923],[-59.21265,-38.26564],[-59.23195,-38.25456],[-59.24803,-38.25576],[-59.25906,-38.26474],[-59.26481,-38.26448],[-59.26871,-38.25801],[-59.27702,-38.25005],[-59.28238,-38.24064],[-59.2938,-38.21933],[-59.29699,-38.21744],[-59.31063,-38.22109],[-59.32465,-38.21785],[-59.3354,-38.21429],[-59.34141,-38.21132],[-59.34554,-38.21071],[-59.35037,-38.20999],[-59.36618,-38.19783],[-59.37027,-38.19363],[-59.3764,-38.18958],[-59.38886,-38.19101],[-59.39709,-38.18742],[-59.40385,-38.18051],[-59.4136,-38.18146],[-59.42565,-38.18243],[-59.43427,-38.18232],[-59.4448,-38.18146],[-59.46057,-38.17156],[-59.47039,-38.1633],[-59.47175,-38.15998],[-59.47064,-38.15544],[-59.4764,-38.15214],[-59.48353,-38.15235],[-59.49985,-38.1509],[-59.50732,-38.14953],[-59.53156,-38.14204],[-59.55689,-38.13118],[-59.56647,-38.12499],[-59.57831,-38.11722],[-59.58478,-38.11407],[-59.59819,-38.12234],[-59.60594,-38.13501],[-59.61237,-38.13166],[-59.61385,-38.11874],[-59.61588,-38.11157],[-59.61516,-38.09298],[-59.62427,-38.08172],[-59.63041,-38.08003],[-59.66166,-38.08518],[-59.69345,-38.07547],[-59.70132,-38.06581],[-59.70346,-38.05688],[-59.72362,-38.05248],[-59.72689,-38.03478],[-59.73118,-38.02665],[-59.75101,-38.02399],[-59.76709,-38.02506],[-59.79533,-38.03042],[-59.81035,-38.03433],[-59.82225,-38.02739],[-59.83546,-38.02428],[-59.84863,-38.03473],[-59.85655,-38.03335],[-59.86274,-38.02257],[-59.87154,-38.01945],[-59.88869,-38.0219],[-59.89398,-38.01773],[-59.90586,-38.01426],[-59.91774,-38.01114],[-59.9283,-38.00941],[-59.93489,-38.0108],[-59.95073,-38.01081],[-59.95864,-38.01012],[-59.96744,-38.00072],[-59.95735,-37.96627],[-59.96658,-37.96175],[-59.97406,-37.95165],[-59.98531,-37.94974],[-60.00085,-37.93717],[-60.00977,-37.93085],[-60.02379,-37.92504],[-60.02528,-37.91966],[-60.02571,-37.91764],[-60.02698,-37.91562],[-60.03059,-37.91276],[-60.03396,-37.91201],[-60.03685,-37.90846],[-60.04248,-37.90669],[-60.04628,-37.90316],[-60.05776,-37.88311],[-60.06219,-37.86728],[-60.07549,-37.86348],[-60.10208,-37.86095],[-60.10967,-37.84639],[-60.12652,-37.84752],[-60.13557,-37.84607],[-60.14956,-37.84575],[-60.16091,-37.84222],[-60.16604,-37.84604],[-60.17781,-37.84554],[-60.18712,-37.83021],[-60.18882,-37.82295],[-60.1934,-37.80844],[-60.19911,-37.8046],[-60.20972,-37.79763],[-60.21657,-37.79285],[-60.22167,-37.7859],[-60.23461,-37.77798],[-60.24239,-37.76193],[-60.2529,-37.73014],[-60.24314,-37.71313],[-60.22823,-37.69921],[-60.21805,-37.68747],[-60.21934,-37.684],[-60.22491,-37.67416],[-60.21924,-37.65172],[-60.22501,-37.63995],[-60.22112,-37.62161],[-60.23903,-37.58878],[-60.26057,-37.57037],[-60.24711,-37.55469],[-60.25302,-37.54135],[-60.24628,-37.52773],[-60.24066,-37.51589],[-60.24585,-37.51144],[-60.24433,-37.499],[-60.24726,-37.48625],[-60.24819,-37.4802],[-60.21833,-37.47286],[-60.21156,-37.47628],[-60.2084,-37.46868],[-60.20207,-37.46338],[-60.20206,-37.45876],[-60.20186,-37.44954],[-60.19515,-37.44305],[-60.18638,-37.42999],[-60.18268,-37.42356],[-60.17869,-37.41773],[-60.18196,-37.39673],[-60.17808,-37.39497],[-60.16508,-37.38905],[-60.16192,-37.38878],[-60.14965,-37.38711],[-60.14175,-37.37845],[-60.13333,-37.37427],[-60.1242,-37.36407],[-60.11369,-37.36506],[-60.10231,-37.36521],[-60.09132,-37.36766],[-60.08707,-37.3662],[-60.07614,-37.36332],[-60.05379,-37.34872],[-60.03055,-37.33478],[-60.01411,-37.31726],[-59.97318,-37.32901],[-59.93641,-37.34003],[-59.92009,-37.36731],[-59.87755,-37.38825],[-59.86162,-37.40167],[-59.85511,-37.40453],[-59.84282,-37.40952],[-59.83382,-37.40712],[-59.82905,-37.40526],[-59.82825,-37.39905],[-59.81966,-37.39773],[-59.81721,-37.39458],[-59.81052,-37.39435],[-59.80343,-37.39434],[-59.7988,-37.39269],[-59.79854,-37.38595],[-59.79623,-37.38518],[-59.78832,-37.38604],[-59.77707,-37.38171],[-59.76938,-37.38228],[-59.76144,-37.3886],[-59.75623,-37.38814],[-59.74957,-37.38869],[-59.74234,-37.38889],[-59.73853,-37.38736],[-59.73608,-37.38517],[-59.72925,-37.38679],[-59.72436,-37.3821],[-59.71318,-37.3824],[-59.7095,-37.38304],[-59.70294,-37.384],[-59.69381,-37.38289],[-59.67842,-37.37374],[-59.65935,-37.37246],[-59.63286,-37.38033],[-59.60804,-37.39497],[-59.60368,-37.40461],[-59.60801,-37.41532],[-59.61003,-37.41769],[-59.61029,-37.42096],[-59.60548,-37.42382],[-59.60025,-37.42693],[-59.59729,-37.4269],[-59.59296,-37.43127],[-59.58496,-37.43535],[-59.57899,-37.4363],[-59.55175,-37.44273],[-59.53528,-37.45758],[-59.51749,-37.46403],[-59.49714,-37.46613],[-59.46625,-37.46185],[-59.4569,-37.44174],[-59.4449,-37.44055],[-59.42649,-37.44515],[-59.41138,-37.44893],[-59.39839,-37.45717],[-59.38979,-37.45589],[-59.37406,-37.43704],[-59.36784,-37.43247],[-59.36125,-37.43028],[-59.35795,-37.43851],[-59.35832,-37.4429],[-59.3629,-37.45314],[-59.35571,-37.46721],[-59.35027,-37.47729],[-59.356,-37.50693],[-59.33777,-37.52873],[-59.32812,-37.53766],[-59.32813,-37.55196],[-59.3317,-37.56518],[-59.33384,-37.5759],[-59.32098,-37.58161],[-59.31562,-37.58876],[-59.30704,-37.60091],[-59.29916,-37.59788],[-59.29454,-37.59805],[-59.28927,-37.60364],[-59.28221,-37.6026],[-59.27372,-37.59411],[-59.26062,-37.59323],[-59.25486,-37.59718],[-59.23576,-37.5898],[-59.21275,-37.58198],[-59.18974,-37.57156],[-59.16021,-37.56375],[-59.16067,-37.55009],[-59.14675,-37.54855],[-59.13633,-37.52597],[-59.12849,-37.51756],[-59.11892,-37.51245],[-59.10166,-37.50973],[-59.09207,-37.50596],[-59.08309,-37.50489]]]}}]}
