{"type":"FeatureCollection","features":[{"type":"Feature","properties":{"fna":"Escuela de Educación Primaria Nº 39 Pablo Hary","gna":"Escuela de Educación Primaria","nam":"Nº 39 Pablo Hary","fdc":"Mapa Educativo Nacional","sag":"IGN","tipo":"Establecimiento educativo","ign":"puntos_de_ciencia_y_educacion_020601.99073"},"geometry":{"type":"Point","coordinates":[-59.0334,-38.18918]}},{"type":"Feature","properties":{"fna":"Escuela de Educación Primaria Nº 43 Luis Vernet","gna":"Escuela de Educación Primaria","nam":"Nº 43 Luis Vernet","fdc":"Mapa Educativo Nacional","sag":"IGN","tipo":"Establecimiento educativo","ign":"puntos_de_ciencia_y_educacion_020601.99077"},"geometry":{"type":"Point","coordinates":[-58.98706,-38.16776]}},{"type":"Feature","properties":{"fna":"Jardín de Infantes Nº 901 General Mariano Necochea","gna":"Jardín de Infantes","nam":"Nº 901 General Mariano Necochea","fdc":"Mapa Educativo Nacional","sag":"IGN","tipo":"Establecimiento educativo","ign":"puntos_de_ciencia_y_educacion_020601.97652"},"geometry":{"type":"Point","coordinates":[-58.74201,-38.55717]}},{"type":"Feature","properties":{"fna":"Jardín de Infantes Rural Nº 3","gna":"Jardín de Infantes Rural","nam":"Nº 3","fdc":"Mapa Educativo Nacional","sag":"IGN","tipo":"Establecimiento educativo","ign":"puntos_de_ciencia_y_educacion_020601.97704"},"geometry":{"type":"Point","coordinates":[-58.78002,-38.58837]}},{"type":"Feature","properties":{"fna":"Centro Educativo Complementario Nº 3","gna":"Centro Educativo Complementario","nam":"Nº 3","fdc":"Mapa Educativo Nacional","sag":"IGN","tipo":"Establecimiento educativo","ign":"puntos_de_ciencia_y_educacion_020601.97753"},"geometry":{"type":"Point","coordinates":[-58.70315,-38.56857]}},{"type":"Feature","properties":{"fna":"Escuela de Educación Primaria Nº 4 Manuel y José Mariño","gna":"Escuela de Educación Primaria","nam":"Nº 4 Manuel y José Mariño","fdc":"Mapa Educativo Nacional","sag":"IGN","tipo":"Establecimiento educativo","ign":"puntos_de_ciencia_y_educacion_020601.97754"},"geometry":{"type":"Point","coordinates":[-58.74869,-38.55524]}},{"type":"Feature","properties":{"fna":"Escuela de Educación Primaria Nº 6 General Don José de San Martín","gna":"Escuela de Educación Primaria","nam":"Nº 6 General Don José de San Martín","fdc":"Mapa Educativo Nacional","sag":"IGN","tipo":"Establecimiento educativo","ign":"puntos_de_ciencia_y_educacion_020601.97755"},"geometry":{"type":"Point","coordinates":[-58.7383,-38.56334]}},{"type":"Feature","properties":{"fna":"Escuela de Educación Secundaria Nº 1 General José de San Martín","gna":"Escuela de Educación Secundaria","nam":"Nº 1 General José de San Martín","fdc":"Mapa Educativo Nacional","sag":"IGN","tipo":"Establecimiento educativo","ign":"puntos_de_ciencia_y_educacion_020601.97756"},"geometry":{"type":"Point","coordinates":[-58.73718,-38.55376]}},{"type":"Feature","properties":{"fna":"Jardín de Infantes Nº 913 Ribera del Quequen","gna":"Jardín de Infantes","nam":"Nº 913 Ribera del Quequen","fdc":"Mapa Educativo Nacional","sag":"IGN","tipo":"Establecimiento educativo","ign":"puntos_de_ciencia_y_educacion_020601.97757"},"geometry":{"type":"Point","coordinates":[-58.71719,-38.55528]}},{"type":"Feature","properties":{"fna":"Escuela Especial Nº 501 Ángel I. Murga","gna":"Escuela Especial","nam":"Nº 501 Ángel I. Murga","fdc":"Mapa Educativo Nacional","sag":"IGN","tipo":"Establecimiento educativo","ign":"puntos_de_ciencia_y_educacion_020601.97758"},"geometry":{"type":"Point","coordinates":[-58.73671,-38.55446]}},{"type":"Feature","properties":{"fna":"Escuela de Adultos Nº 701 República del Perú","gna":"Escuela de Adultos","nam":"Nº 701 República del Perú","fdc":"Mapa Educativo Nacional","sag":"IGN","tipo":"Establecimiento educativo","ign":"puntos_de_ciencia_y_educacion_020601.97759"},"geometry":{"type":"Point","coordinates":[-58.73738,-38.55396]}},{"type":"Feature","properties":{"fna":"Escuela de Arte Nº 500 Orillas del Quequén","gna":"Escuela de Arte","nam":"Nº 500 Orillas del Quequén","fdc":"Mapa Educativo Nacional","sag":"IGN","tipo":"Establecimiento educativo","ign":"puntos_de_ciencia_y_educacion_020601.97760"},"geometry":{"type":"Point","coordinates":[-58.72836,-38.55285]}},{"type":"Feature","properties":{"fna":"Escuela de Educación Secundaria Nº 2 Florentino Ameghino","gna":"Escuela de Educación Secundaria","nam":"Nº 2 Florentino Ameghino","fdc":"Mapa Educativo Nacional","sag":"IGN","tipo":"Establecimiento educativo","ign":"puntos_de_ciencia_y_educacion_020601.97761"},"geometry":{"type":"Point","coordinates":[-58.71937,-38.57833]}},{"type":"Feature","properties":{"fna":"Escuela de Educación Secundaria Nº 16","gna":"Escuela de Educación Secundaria","nam":"Nº 16","fdc":"Mapa Educativo Nacional","sag":"IGN","tipo":"Establecimiento educativo","ign":"puntos_de_ciencia_y_educacion_020601.97762"},"geometry":{"type":"Point","coordinates":[-58.76304,-38.53816]}},{"type":"Feature","properties":{"fna":"Jardín de Infantes Nº 908 Almirante Guillermo Brown","gna":"Jardín de Infantes","nam":"Nº 908 Almirante Guillermo Brown","fdc":"Mapa Educativo Nacional","sag":"IGN","tipo":"Establecimiento educativo","ign":"puntos_de_ciencia_y_educacion_020601.97795"},"geometry":{"type":"Point","coordinates":[-58.69741,-38.56598]}},{"type":"Feature","properties":{"fna":"Escuela de Educación Primaria Nº 52","gna":"Escuela de Educación Primaria","nam":"Nº 52","fdc":"Mapa Educativo Nacional","sag":"IGN","tipo":"Establecimiento educativo","ign":"puntos_de_ciencia_y_educacion_020601.97918"},"geometry":{"type":"Point","coordinates":[-58.77258,-38.55026]}},{"type":"Feature","properties":{"fna":"Escuela de Educación Primaria Nº 41 Niñas de Ayohuma","gna":"Escuela de Educación Primaria","nam":"Nº 41 Niñas de Ayohuma","fdc":"Mapa Educativo Nacional","sag":"IGN","tipo":"Establecimiento educativo","ign":"puntos_de_ciencia_y_educacion_020601.97929"},"geometry":{"type":"Point","coordinates":[-58.64503,-38.54999]}},{"type":"Feature","properties":{"fna":"Jardín de Infantes Rural Nº 2","gna":"Jardín de Infantes Rural","nam":"Nº 2","fdc":"Mapa Educativo Nacional","sag":"IGN","tipo":"Establecimiento educativo","ign":"puntos_de_ciencia_y_educacion_020601.97972"},"geometry":{"type":"Point","coordinates":[-58.88911,-38.42256]}},{"type":"Feature","properties":{"fna":"Jardín Maternal Barquito de Papel","gna":"Jardin Maternal","nam":"Barquito de Papel","fdc":"Mapa Educativo Nacional","sag":"IGN","tipo":"Establecimiento educativo","ign":"puntos_de_ciencia_y_educacion_020601.97989"},"geometry":{"type":"Point","coordinates":[-58.71232,-38.54897]}},{"type":"Feature","properties":{"fna":"Escuela de Educación Primaria Nº 36 Tierra del Fuego","gna":"Escuela de Educación Primaria","nam":"Nº 36 Tierra del Fuego","fdc":"Mapa Educativo Nacional","sag":"IGN","tipo":"Establecimiento educativo","ign":"puntos_de_ciencia_y_educacion_020601.98103"},"geometry":{"type":"Point","coordinates":[-58.88916,-38.42247]}},{"type":"Feature","properties":{"fna":"Escuela de Educación Primaria Nº 9 Comodoro Martín Rivadavia","gna":"Escuela de Educación Primaria","nam":"Nº 9 Comodoro Martín Rivadavia","fdc":"Mapa Educativo Nacional","sag":"IGN","tipo":"Establecimiento educativo","ign":"puntos_de_ciencia_y_educacion_020601.98195"},"geometry":{"type":"Point","coordinates":[-58.75787,-38.5543]}},{"type":"Feature","properties":{"fna":"Jardín de Infantes Nº 911","gna":"Jardín de Infantes","nam":"Nº 911","fdc":"Mapa Educativo Nacional","sag":"IGN","tipo":"Establecimiento educativo","ign":"puntos_de_ciencia_y_educacion_020601.98196"},"geometry":{"type":"Point","coordinates":[-58.73208,-38.56432]}},{"type":"Feature","properties":{"fna":"Escuela de Educación Primaria Nº 3 República de Nicaragua","gna":"Escuela de Educación Primaria","nam":"Nº 3 República de Nicaragua","fdc":"Mapa Educativo Nacional","sag":"IGN","tipo":"Establecimiento educativo","ign":"puntos_de_ciencia_y_educacion_020601.98389"},"geometry":{"type":"Point","coordinates":[-58.73326,-38.55716]}},{"type":"Feature","properties":{"fna":"Jardín de Infantes Nº 915","gna":"Jardín de Infantes","nam":"Nº 915","fdc":"Mapa Educativo Nacional","sag":"IGN","tipo":"Establecimiento educativo","ign":"puntos_de_ciencia_y_educacion_020601.98390"},"geometry":{"type":"Point","coordinates":[-58.72013,-38.54319]}},{"type":"Feature","properties":{"fna":"Centro de Adultos Nº 705/03","gna":"Centro de Adultos","nam":"Nº 705/03","fdc":"Mapa Educativo Nacional","sag":"IGN","tipo":"Establecimiento educativo","ign":"puntos_de_ciencia_y_educacion_020601.98391"},"geometry":{"type":"Point","coordinates":[-58.7384,-38.56329]}},{"type":"Feature","properties":{"fna":"Escuela de Educación Secundaria Nº 14","gna":"Escuela de Educación Secundaria","nam":"Nº 14","fdc":"Mapa Educativo Nacional","sag":"IGN","tipo":"Establecimiento educativo","ign":"puntos_de_ciencia_y_educacion_020601.98578"},"geometry":{"type":"Point","coordinates":[-58.72119,-38.57769]}},{"type":"Feature","properties":{"fna":"Escuela de Educación Primaria Nº 12 Nuestra Señora del Carmen","gna":"Escuela de Educación Primaria","nam":"Nº 12 Nuestra Señora del Carmen","fdc":"Mapa Educativo Nacional","sag":"IGN","tipo":"Establecimiento educativo","ign":"puntos_de_ciencia_y_educacion_020601.98601"},"geometry":{"type":"Point","coordinates":[-58.7369,-38.5511]}},{"type":"Feature","properties":{"fna":"Escuela de Educación Media Nº 4","gna":"Escuela de Educación Media","nam":"Nº 4","fdc":"Mapa Educativo Nacional","sag":"IGN","tipo":"Establecimiento educativo","ign":"puntos_de_ciencia_y_educacion_020601.98602"},"geometry":{"type":"Point","coordinates":[-58.73718,-38.55376]}},{"type":"Feature","properties":{"fna":"Escuela de Educación Secundaria Nº 7","gna":"Escuela de Educación Secundaria","nam":"Nº 7","fdc":"Mapa Educativo Nacional","sag":"IGN","tipo":"Establecimiento educativo","ign":"puntos_de_ciencia_y_educacion_020601.98603"},"geometry":{"type":"Point","coordinates":[-58.73715,-38.55359]}},{"type":"Feature","properties":{"fna":"Jardín de Infantes Nº 916 José Manuel Estrada","gna":"Jardín de Infantes","nam":"Nº 916 José Manuel Estrada","fdc":"Mapa Educativo Nacional","sag":"IGN","tipo":"Establecimiento educativo","ign":"puntos_de_ciencia_y_educacion_020601.98604"},"geometry":{"type":"Point","coordinates":[-58.73844,-38.55318]}},{"type":"Feature","properties":{"fna":"Jardín de Infantes Nº 918 Rio Quequén","gna":"Jardín de Infantes","nam":"Nº 918 Rio Quequén","fdc":"Mapa Educativo Nacional","sag":"IGN","tipo":"Establecimiento educativo","ign":"puntos_de_ciencia_y_educacion_020601.98605"},"geometry":{"type":"Point","coordinates":[-58.74419,-38.53729]}},{"type":"Feature","properties":{"fna":"Instituto de Formación Docente Nº 31","gna":"Instituto de Formación Docente","nam":"Nº 31","fdc":"Mapa Educativo Nacional","sag":"IGN","tipo":"Establecimiento educativo","ign":"puntos_de_ciencia_y_educacion_020601.98606"},"geometry":{"type":"Point","coordinates":[-58.72812,-38.55297]}},{"type":"Feature","properties":{"fna":"Escuela de Educación Primaria Nº 50","gna":"Escuela de Educación Primaria","nam":"Nº 50","fdc":"Mapa Educativo Nacional","sag":"IGN","tipo":"Establecimiento educativo","ign":"puntos_de_ciencia_y_educacion_020601.98607"},"geometry":{"type":"Point","coordinates":[-58.72122,-38.57793]}},{"type":"Feature","properties":{"fna":"Jardín Municipal CMO Lassalle","gna":"Jardín Municipal","nam":"CMO Lassalle","fdc":"Mapa Educativo Nacional","sag":"IGN","tipo":"Establecimiento educativo","ign":"puntos_de_ciencia_y_educacion_020601.98608"},"geometry":{"type":"Point","coordinates":[-58.73992,-38.5506]}},{"type":"Feature","properties":{"fna":"Centro de Formación Profesional Nº 403","gna":"Centro de Formación Profesional","nam":"Nº 403","fdc":"Mapa Educativo Nacional","sag":"IGN","tipo":"Establecimiento educativo","ign":"puntos_de_ciencia_y_educacion_020601.98745"},"geometry":{"type":"Point","coordinates":[-58.72847,-38.55273]}},{"type":"Feature","properties":{"fna":"Escuela de Educación Primaria Nº 10 Dolores L Rom","gna":"Escuela de Educación Primaria","nam":"Nº 10 Dolores L Rom","fdc":"Mapa Educativo Nacional","sag":"IGN","tipo":"Establecimiento educativo","ign":"puntos_de_ciencia_y_educacion_020601.98742"},"geometry":{"type":"Point","coordinates":[-58.75326,-38.54464]}},{"type":"Feature","properties":{"fna":"Escuela de Educación Primaria Nº 51 José Manuel Estrada","gna":"Escuela de Educación Primaria","nam":"Nº 51 José Manuel Estrada","fdc":"Mapa Educativo Nacional","sag":"IGN","tipo":"Establecimiento educativo","ign":"puntos_de_ciencia_y_educacion_020601.98743"},"geometry":{"type":"Point","coordinates":[-58.73886,-38.5528]}},{"type":"Feature","properties":{"fna":"Centro de Adultos Nº 711/03","gna":"Centro de Adultos","nam":"Nº 711/03","fdc":"Mapa Educativo Nacional","sag":"IGN","tipo":"Establecimiento educativo","ign":"puntos_de_ciencia_y_educacion_020601.98744"},"geometry":{"type":"Point","coordinates":[-58.7683,-38.5474]}},{"type":"Feature","properties":{"fna":"Escuela de Educación Primaria Nº 25 General José de San Martín","gna":"Escuela de Educación Primaria","nam":"Nº 25 General José de San Martín","fdc":"Mapa Educativo Nacional","sag":"IGN","tipo":"Establecimiento educativo","ign":"puntos_de_ciencia_y_educacion_020601.98826"},"geometry":{"type":"Point","coordinates":[-58.71647,-38.55436]}},{"type":"Feature","properties":{"fna":"Instituto de Formación Docente Nº 163 J. M. Estrada","gna":"Instituto de Formación Docente","nam":"Nº 163 J. M. Estrada","fdc":"Mapa Educativo Nacional","sag":"IGN","tipo":"Establecimiento educativo","ign":"puntos_de_ciencia_y_educacion_020601.98827"},"geometry":{"type":"Point","coordinates":[-58.73857,-38.55289]}},{"type":"Feature","properties":{"fna":"Centro de Estimulación y Aprendizaje Temprano Nº 2","gna":"Centro de Estimulación y Aprendizaje Temprano","nam":"Nº 2","fdc":"Mapa Educativo Nacional","sag":"IGN","tipo":"Establecimiento educativo","ign":"puntos_de_ciencia_y_educacion_020601.98828"},"geometry":{"type":"Point","coordinates":[-58.76159,-38.53995]}},{"type":"Feature","properties":{"fna":"Centro Educativo de Nivel Secundario Nº 451","gna":"Centro Educativo de Nivel Secundario","nam":"Nº 451","fdc":"Mapa Educativo Nacional","sag":"IGN","tipo":"Establecimiento educativo","ign":"puntos_de_ciencia_y_educacion_020601.98874"},"geometry":{"type":"Point","coordinates":[-58.73584,-38.55518]}},{"type":"Feature","properties":{"fna":"Escuela de Educación Primaria Nº 35 Ciudad de Necochea","gna":"Escuela de Educación Primaria","nam":"Nº 35 Ciudad de Necochea","fdc":"Mapa Educativo Nacional","sag":"IGN","tipo":"Establecimiento educativo","ign":"puntos_de_ciencia_y_educacion_020601.98905"},"geometry":{"type":"Point","coordinates":[-58.71852,-38.56985]}},{"type":"Feature","properties":{"fna":"Escuela de Educación Secundaria Nº 5 9 de Julio","gna":"Escuela de Educación Secundaria","nam":"Nº 5 9 de Julio","fdc":"Mapa Educativo Nacional","sag":"IGN","tipo":"Establecimiento educativo","ign":"puntos_de_ciencia_y_educacion_020601.98906"},"geometry":{"type":"Point","coordinates":[-58.76983,-38.54596]}},{"type":"Feature","properties":{"fna":"Jardín de Infantes Nº 902","gna":"Jardín de Infantes","nam":"Nº 902","fdc":"Mapa Educativo Nacional","sag":"IGN","tipo":"Establecimiento educativo","ign":"puntos_de_ciencia_y_educacion_020601.98907"},"geometry":{"type":"Point","coordinates":[-58.76662,-38.55226]}},{"type":"Feature","properties":{"fna":"Centro de Formación Profesional Nº 401 Suboficial Omar Santiago Cisneros","gna":"Centro de Formación Profesional","nam":"Nº 401 Suboficial Omar Santiago Cisneros","fdc":"Mapa Educativo Nacional","sag":"IGN","tipo":"Establecimiento educativo","ign":"puntos_de_ciencia_y_educacion_020601.98908"},"geometry":{"type":"Point","coordinates":[-58.71587,-38.55425]}},{"type":"Feature","properties":{"fna":"Escuela de Educación Primaria Nº 11 Pedro Luis Boffi","gna":"Escuela de Educación Primaria","nam":"Nº 11 Pedro Luis Boffi","fdc":"Mapa Educativo Nacional","sag":"IGN","tipo":"Establecimiento educativo","ign":"puntos_de_ciencia_y_educacion_020601.98997"},"geometry":{"type":"Point","coordinates":[-58.85556,-38.58926]}},{"type":"Feature","properties":{"fna":"Escuela de Educación Secundaria Nº 8 José Manuel Estrada","gna":"Escuela de Educación Secundaria","nam":"Nº 8 José Manuel Estrada","fdc":"Mapa Educativo Nacional","sag":"IGN","tipo":"Establecimiento educativo","ign":"puntos_de_ciencia_y_educacion_020601.99041"},"geometry":{"type":"Point","coordinates":[-58.73824,-38.55298]}},{"type":"Feature","properties":{"fna":"Centro de Formación Profesional Nº 402","gna":"Centro de Formación Profesional","nam":"Nº 402","fdc":"Mapa Educativo Nacional","sag":"IGN","tipo":"Establecimiento educativo","ign":"puntos_de_ciencia_y_educacion_020601.99042"},"geometry":{"type":"Point","coordinates":[-58.72602,-38.55481]}},{"type":"Feature","properties":{"fna":"Escuela de Educación Secundaria Técnica Nº 3","gna":"Escuela de Educación Secundaria Técnica","nam":"Nº 3","fdc":"Mapa Educativo Nacional","sag":"IGN","tipo":"Establecimiento educativo","ign":"puntos_de_ciencia_y_educacion_020601.99043"},"geometry":{"type":"Point","coordinates":[-58.73382,-38.56815]}},{"type":"Feature","properties":{"fna":"Escuela de Educación Secundaria Nº 9","gna":"Escuela de Educación Secundaria","nam":"Nº 9","fdc":"Mapa Educativo Nacional","sag":"IGN","tipo":"Establecimiento educativo","ign":"puntos_de_ciencia_y_educacion_020601.99044"},"geometry":{"type":"Point","coordinates":[-58.70556,-38.53422]}},{"type":"Feature","properties":{"fna":"Escuela Secundaria Básica Nº 1","gna":"Escuela Secundaria Básica","nam":"Nº 1","fdc":"Mapa Educativo Nacional","sag":"IGN","tipo":"Establecimiento educativo","ign":"puntos_de_ciencia_y_educacion_020601.99045"},"geometry":{"type":"Point","coordinates":[-58.74859,-38.55524]}},{"type":"Feature","properties":{"fna":"Escuela de Educación Primaria Nº 47 Almafuerte","gna":"Escuela de Educación Primaria","nam":"Nº 47 Almafuerte","fdc":"Mapa Educativo Nacional","sag":"IGN","tipo":"Establecimiento educativo","ign":"puntos_de_ciencia_y_educacion_020601.99074"},"geometry":{"type":"Point","coordinates":[-58.78005,-38.5883]}},{"type":"Feature","properties":{"fna":"Escuela de Educación Primaria Nº 2 Domingo Faustino Sarmiento","gna":"Escuela de Educación Primaria","nam":"Nº 2 Domingo Faustino Sarmiento","fdc":"Mapa Educativo Nacional","sag":"IGN","tipo":"Establecimiento educativo","ign":"puntos_de_ciencia_y_educacion_020601.99085"},"geometry":{"type":"Point","coordinates":[-58.73681,-38.55397]}},{"type":"Feature","properties":{"fna":"Jardín Maternal Municipal Evita","gna":"Jardin Maternal Municipal","nam":"Evita","fdc":"Mapa Educativo Nacional","sag":"IGN","tipo":"Establecimiento educativo","ign":"puntos_de_ciencia_y_educacion_020601.99117"},"geometry":{"type":"Point","coordinates":[-58.75844,-38.54066]}},{"type":"Feature","properties":{"fna":"Escuela de Educación Primaria Nº 27 Vicealmirante Julian Irizar","gna":"Escuela de Educación Primaria","nam":"Nº 27 Vicealmirante Julian Irizar","fdc":"Mapa Educativo Nacional","sag":"IGN","tipo":"Establecimiento educativo","ign":"puntos_de_ciencia_y_educacion_020601.99125"},"geometry":{"type":"Point","coordinates":[-58.74205,-38.5385]}},{"type":"Feature","properties":{"fna":"Jardín de Infantes Nº 914 Jardín de La Lomita","gna":"Jardín de Infantes","nam":"Nº 914 Jardín de La Lomita","fdc":"Mapa Educativo Nacional","sag":"IGN","tipo":"Establecimiento educativo","ign":"puntos_de_ciencia_y_educacion_020601.99126"},"geometry":{"type":"Point","coordinates":[-58.73293,-38.57924]}},{"type":"Feature","properties":{"fna":"Jardín de Infantes Nº 903 Enrique Balech","gna":"Jardín de Infantes","nam":"Nº 903 Enrique Balech","fdc":"Mapa Educativo Nacional","sag":"IGN","tipo":"Establecimiento educativo","ign":"puntos_de_ciencia_y_educacion_020601.99127"},"geometry":{"type":"Point","coordinates":[-58.7219,-38.5789]}},{"type":"Feature","properties":{"fna":"Escuela de Adultos Nº 703 Florencio Molina Campos","gna":"Escuela de Adultos","nam":"Nº 703 Florencio Molina Campos","fdc":"Mapa Educativo Nacional","sag":"IGN","tipo":"Establecimiento educativo","ign":"puntos_de_ciencia_y_educacion_020601.99128"},"geometry":{"type":"Point","coordinates":[-58.75336,-38.54474]}},{"type":"Feature","properties":{"fna":"Escuela de Educación Primaria Nº 49","gna":"Escuela de Educación Primaria","nam":"Nº 49","fdc":"Mapa Educativo Nacional","sag":"IGN","tipo":"Establecimiento educativo","ign":"puntos_de_ciencia_y_educacion_020601.99129"},"geometry":{"type":"Point","coordinates":[-58.722,-38.54414]}},{"type":"Feature","properties":{"fna":"Escuela Secundaria Básica Nº 2","gna":"Escuela Secundaria Básica","nam":"Nº 2","fdc":"Mapa Educativo Nacional","sag":"IGN","tipo":"Establecimiento educativo","ign":"puntos_de_ciencia_y_educacion_020601.99130"},"geometry":{"type":"Point","coordinates":[-58.73708,-38.55416]}},{"type":"Feature","properties":{"fna":"Escuela de Educación Secundaria Nº 10","gna":"Escuela de Educación Secundaria","nam":"Nº 10","fdc":"Mapa Educativo Nacional","sag":"IGN","tipo":"Establecimiento educativo","ign":"puntos_de_ciencia_y_educacion_020601.99131"},"geometry":{"type":"Point","coordinates":[-58.75777,-38.5542]}},{"type":"Feature","properties":{"fna":"Escuela de Educación Primaria Nº 1 General Belgrano","gna":"Escuela de Educación Primaria","nam":"Nº 1 General Belgrano","fdc":"Mapa Educativo Nacional","sag":"IGN","tipo":"Establecimiento educativo","ign":"puntos_de_ciencia_y_educacion_020601.99166"},"geometry":{"type":"Point","coordinates":[-58.73975,-38.55841]}},{"type":"Feature","properties":{"fna":"Escuela de Educación Primaria Nº 19 El Tambor de Tacuarí","gna":"Escuela de Educación Primaria","nam":"Nº 19 El Tambor de Tacuarí","fdc":"Mapa Educativo Nacional","sag":"IGN","tipo":"Establecimiento educativo","ign":"puntos_de_ciencia_y_educacion_020601.99167"},"geometry":{"type":"Point","coordinates":[-58.77009,-38.54577]}},{"type":"Feature","properties":{"fna":"Escuela de Educación Secundaria Técnica Nº 1 Ingeniero Mario A. Elpuerto","gna":"Escuela de Educación Secundaria Técnica","nam":"Nº 1 Ingeniero Mario A. Elpuerto","fdc":"Mapa Educativo Nacional","sag":"IGN","tipo":"Establecimiento educativo","ign":"puntos_de_ciencia_y_educacion_020601.99168"},"geometry":{"type":"Point","coordinates":[-58.7341,-38.54884]}},{"type":"Feature","properties":{"fna":"Escuela Especial Nº 503","gna":"Escuela Especial","nam":"Nº 503","fdc":"Mapa Educativo Nacional","sag":"IGN","tipo":"Establecimiento educativo","ign":"puntos_de_ciencia_y_educacion_020601.99169"},"geometry":{"type":"Point","coordinates":[-58.71944,-38.55301]}},{"type":"Feature","properties":{"fna":"Escuela de Educación Primaria Nº 48 Fernando Fader","gna":"Escuela de Educación Primaria","nam":"Nº 48 Fernando Fader","fdc":"Mapa Educativo Nacional","sag":"IGN","tipo":"Establecimiento educativo","ign":"puntos_de_ciencia_y_educacion_020601.99170"},"geometry":{"type":"Point","coordinates":[-58.76314,-38.53816]}},{"type":"Feature","properties":{"fna":"Jardín Maternal Municipal Acuario","gna":"Jardin Maternal Municipal","nam":"Acuario","fdc":"Mapa Educativo Nacional","sag":"IGN","tipo":"Establecimiento educativo","ign":"puntos_de_ciencia_y_educacion_020601.99257"},"geometry":{"type":"Point","coordinates":[-58.72076,-38.57043]}},{"type":"Feature","properties":{"fna":"Escuela de Educación Secundaria Nº 13","gna":"Escuela de Educación Secundaria","nam":"Nº 13","fdc":"Mapa Educativo Nacional","sag":"IGN","tipo":"Establecimiento educativo","ign":"puntos_de_ciencia_y_educacion_020601.99285"},"geometry":{"type":"Point","coordinates":[-58.69799,-38.56549]}},{"type":"Feature","properties":{"fna":"Jardín de Infantes Nº 920","gna":"Jardín de Infantes","nam":"Nº 920","fdc":"Mapa Educativo Nacional","sag":"IGN","tipo":"Establecimiento educativo","ign":"puntos_de_ciencia_y_educacion_020601.99330"},"geometry":{"type":"Point","coordinates":[-58.705,-38.5337]}},{"type":"Feature","properties":{"fna":"Jardín de Infantes Nº 909","gna":"Jardín de Infantes","nam":"Nº 909","fdc":"Mapa Educativo Nacional","sag":"IGN","tipo":"Establecimiento educativo","ign":"puntos_de_ciencia_y_educacion_020601.99549"},"geometry":{"type":"Point","coordinates":[-58.76965,-38.54391]}},{"type":"Feature","properties":{"fna":"Escuela de Educación Primaria Nº 31 Manuel José de Guerrico","gna":"Escuela de Educación Primaria","nam":"Nº 31 Manuel José de Guerrico","fdc":"Mapa Educativo Nacional","sag":"IGN","tipo":"Establecimiento educativo","ign":"puntos_de_ciencia_y_educacion_020601.99376"},"geometry":{"type":"Point","coordinates":[-58.69799,-38.56559]}},{"type":"Feature","properties":{"fna":"Centro de Adultos Nº 707/02","gna":"Centro de Adultos","nam":"Nº 707/02","fdc":"Mapa Educativo Nacional","sag":"IGN","tipo":"Establecimiento educativo","ign":"puntos_de_ciencia_y_educacion_020601.99416"},"geometry":{"type":"Point","coordinates":[-58.7052,-38.5339]}},{"type":"Feature","properties":{"fna":"Escuela de Educación Secundaria Nº 11","gna":"Escuela de Educación Secundaria","nam":"Nº 11","fdc":"Mapa Educativo Nacional","sag":"IGN","tipo":"Establecimiento educativo","ign":"puntos_de_ciencia_y_educacion_020601.99417"},"geometry":{"type":"Point","coordinates":[-58.74195,-38.5384]}},{"type":"Feature","properties":{"fna":"Centro Educativo Complementario Nº 1","gna":"Centro Educativo Complementario","nam":"Nº 1","fdc":"Mapa Educativo Nacional","sag":"IGN","tipo":"Establecimiento educativo","ign":"puntos_de_ciencia_y_educacion_020601.99545"},"geometry":{"type":"Point","coordinates":[-58.7409,-38.5498]}},{"type":"Feature","properties":{"fna":"Escuela de Educación Primaria Nº 28 General Madariaga","gna":"Escuela de Educación Primaria","nam":"Nº 28 General Madariaga","fdc":"Mapa Educativo Nacional","sag":"IGN","tipo":"Establecimiento educativo","ign":"puntos_de_ciencia_y_educacion_020601.99546"},"geometry":{"type":"Point","coordinates":[-58.73122,-38.58092]}},{"type":"Feature","properties":{"fna":"Escuela de Educación Primaria Nº 7 Juan Bautista Alberdi","gna":"Escuela de Educación Primaria","nam":"Nº 7 Juan Bautista Alberdi","fdc":"Mapa Educativo Nacional","sag":"IGN","tipo":"Establecimiento educativo","ign":"puntos_de_ciencia_y_educacion_020601.99547"},"geometry":{"type":"Point","coordinates":[-58.73342,-38.56788]}},{"type":"Feature","properties":{"fna":"Escuela de Educación Secundaria Nº 3 Malvinas Argentinas","gna":"Escuela de Educación Secundaria","nam":"Nº 3 Malvinas Argentinas","fdc":"Mapa Educativo Nacional","sag":"IGN","tipo":"Establecimiento educativo","ign":"puntos_de_ciencia_y_educacion_020601.99548"},"geometry":{"type":"Point","coordinates":[-58.71466,-38.5552]}},{"type":"Feature","properties":{"fna":"Escuela de Educación Secundaria Técnica Nº 2 General Mariano Necochea","gna":"Escuela de Educación Secundaria Técnica","nam":"Nº 2 General Mariano Necochea","fdc":"Mapa Educativo Nacional","sag":"IGN","tipo":"Establecimiento educativo","ign":"puntos_de_ciencia_y_educacion_020601.99550"},"geometry":{"type":"Point","coordinates":[-58.72632,-38.55454]}},{"type":"Feature","properties":{"fna":"Escuela de Educación Secundaria Nº 15","gna":"Escuela de Educación Secundaria","nam":"Nº 15","fdc":"Mapa Educativo Nacional","sag":"IGN","tipo":"Establecimiento educativo","ign":"puntos_de_ciencia_y_educacion_020601.99557"},"geometry":{"type":"Point","coordinates":[-58.75316,-38.54464]}},{"type":"Feature","properties":{"fna":"Escuela de Educación Primaria Nº 40 Nuestra Señora de Las Mercedes","gna":"Escuela de Educación Primaria","nam":"Nº 40 Nuestra Señora de Las Mercedes","fdc":"Mapa Educativo Nacional","sag":"IGN","tipo":"Establecimiento educativo","ign":"puntos_de_ciencia_y_educacion_020601.99629"},"geometry":{"type":"Point","coordinates":[-58.70556,-38.53412]}},{"type":"Feature","properties":{"fna":"Escuela Especial Nº 502","gna":"Escuela Especial","nam":"Nº 502","fdc":"Mapa Educativo Nacional","sag":"IGN","tipo":"Establecimiento educativo","ign":"puntos_de_ciencia_y_educacion_020601.99630"},"geometry":{"type":"Point","coordinates":[-58.73184,-38.56718]}},{"type":"Feature","properties":{"fna":"Centro de Estimulación y Aprendizaje Temprano Nº 1","gna":"Centro de Estimulación y Aprendizaje Temprano","nam":"Nº 1","fdc":"Mapa Educativo Nacional","sag":"IGN","tipo":"Establecimiento educativo","ign":"puntos_de_ciencia_y_educacion_020601.99703"},"geometry":{"type":"Point","coordinates":[-58.7145,-38.546]}},{"type":"Feature","properties":{"fna":"Escuela de Adultos Nº 702 René Favoloro","gna":"Escuela de Adultos","nam":"Nº 702 René Favoloro","fdc":"Mapa Educativo Nacional","sag":"IGN","tipo":"Establecimiento educativo","ign":"puntos_de_ciencia_y_educacion_020601.99704"},"geometry":{"type":"Point","coordinates":[-58.71454,-38.55532]}},{"type":"Feature","properties":{"fna":"Jardín de Infantes Nº 917 Jardín de Los Girasoles","gna":"Jardín de Infantes","nam":"Nº 917 Jardín de Los Girasoles","fdc":"Mapa Educativo Nacional","sag":"IGN","tipo":"Establecimiento educativo","ign":"puntos_de_ciencia_y_educacion_020601.99705"},"geometry":{"type":"Point","coordinates":[-58.73785,-38.54974]}},{"type":"Feature","properties":{"fna":"Escuela de Educación Secundaria Nº 17","gna":"Escuela de Educación Secundaria","nam":"Nº 17","fdc":"Mapa Educativo Nacional","sag":"IGN","tipo":"Establecimiento educativo","ign":"puntos_de_ciencia_y_educacion_020601.99706"},"geometry":{"type":"Point","coordinates":[-58.73965,-38.55831]}},{"type":"Feature","properties":{"fna":"Escuela de Educación Primaria Nº 24 Remedios de Escalada","gna":"Escuela de Educación Primaria","nam":"Nº 24 Remedios de Escalada","fdc":"Mapa Educativo Nacional","sag":"IGN","tipo":"Establecimiento educativo","ign":"puntos_de_ciencia_y_educacion_020601.100036"},"geometry":{"type":"Point","coordinates":[-59.00668,-38.44857]}},{"type":"Feature","properties":{"fna":"Escuela de Educación Primaria Nº 29 Antártida Argentina","gna":"Escuela de Educación Primaria","nam":"Nº 29 Antártida Argentina","fdc":"Mapa Educativo Nacional","sag":"IGN","tipo":"Establecimiento educativo","ign":"puntos_de_ciencia_y_educacion_020601.100039"},"geometry":{"type":"Point","coordinates":[-59.006,-38.66762]}},{"type":"Feature","properties":{"fna":"Jardín de Infantes Rural Nº 1","gna":"Jardín de Infantes Rural","nam":"Nº 1","fdc":"Mapa Educativo Nacional","sag":"IGN","tipo":"Establecimiento educativo","ign":"puntos_de_ciencia_y_educacion_020601.100435"},"geometry":{"type":"Point","coordinates":[-59.0061,-38.66767]}},{"type":"Feature","properties":{"fna":"Escuela Asociación Escolar Alemana de Necochea","gna":"Escuela","nam":"Asociación Escolar Alemana de Necochea","fdc":"Mapa Educativo Nacional","sag":"IGN","tipo":"Establecimiento educativo","ign":"puntos_de_ciencia_y_educacion_020601.100509"},"geometry":{"type":"Point","coordinates":[-58.74413,-38.54571]}},{"type":"Feature","properties":{"fna":"Escuela Nuestra Señora del Rosario","gna":"Escuela","nam":"Nuestra Señora del Rosario","fdc":"Mapa Educativo Nacional","sag":"IGN","tipo":"Establecimiento educativo","ign":"puntos_de_ciencia_y_educacion_020601.100510"},"geometry":{"type":"Point","coordinates":[-58.74108,-38.55401]}},{"type":"Feature","properties":{"fna":"Escuela Pío XII","gna":"Escuela","nam":"Pío XII","fdc":"Mapa Educativo Nacional","sag":"IGN","tipo":"Establecimiento educativo","ign":"puntos_de_ciencia_y_educacion_020601.100511"},"geometry":{"type":"Point","coordinates":[-58.74169,-38.55545]}},{"type":"Feature","properties":{"fna":"Jardín de Infantes Pirín Pin Pon","gna":"Jardín de Infantes","nam":"Pirín Pin Pon","fdc":"Mapa Educativo Nacional","sag":"IGN","tipo":"Establecimiento educativo","ign":"puntos_de_ciencia_y_educacion_020601.100512"},"geometry":{"type":"Point","coordinates":[-58.73163,-38.55182]}},{"type":"Feature","properties":{"fna":"Escuela Modelo Argentina","gna":"Escuela","nam":"Modelo Argentina","fdc":"Mapa Educativo Nacional","sag":"IGN","tipo":"Establecimiento educativo","ign":"puntos_de_ciencia_y_educacion_020601.100513"},"geometry":{"type":"Point","coordinates":[-58.73198,-38.55124]}},{"type":"Feature","properties":{"fna":"Instituto de Estudios Superiores Río Quequén","gna":"Instituto de Estudios Superiores","nam":"Río Quequén","fdc":"Mapa Educativo Nacional","sag":"IGN","tipo":"Establecimiento educativo","ign":"puntos_de_ciencia_y_educacion_020601.100514"},"geometry":{"type":"Point","coordinates":[-58.73469,-38.55127]}},{"type":"Feature","properties":{"fna":"Jardín de Infantes Arenitas","gna":"Jardín de Infantes","nam":"Arenitas","fdc":"Mapa Educativo Nacional","sag":"IGN","tipo":"Establecimiento educativo","ign":"puntos_de_ciencia_y_educacion_020601.100515"},"geometry":{"type":"Point","coordinates":[-58.72845,-38.5669]}},{"type":"Feature","properties":{"fna":"Escuela Argentino Danesa","gna":"Escuela","nam":"Argentino Danesa","fdc":"Mapa Educativo Nacional","sag":"IGN","tipo":"Establecimiento educativo","ign":"puntos_de_ciencia_y_educacion_020601.100516"},"geometry":{"type":"Point","coordinates":[-58.73495,-38.54655]}},{"type":"Feature","properties":{"fna":"Escuela Cavagnaro","gna":"Escuela","nam":"Cavagnaro","fdc":"Mapa Educativo Nacional","sag":"IGN","tipo":"Establecimiento educativo","ign":"puntos_de_ciencia_y_educacion_020601.100517"},"geometry":{"type":"Point","coordinates":[-58.74313,-38.54959]}},{"type":"Feature","properties":{"fna":"Instituto Superior Cavagnaro","gna":"Instituto Superior","nam":"Cavagnaro","fdc":"Mapa Educativo Nacional","sag":"IGN","tipo":"Establecimiento educativo","ign":"puntos_de_ciencia_y_educacion_020601.100518"},"geometry":{"type":"Point","coordinates":[-58.74341,-38.54884]}},{"type":"Feature","properties":{"fna":"Colegio Ikastola","gna":"Colegio","nam":"Ikastola","fdc":"Mapa Educativo Nacional","sag":"IGN","tipo":"Establecimiento educativo","ign":"puntos_de_ciencia_y_educacion_020601.100519"},"geometry":{"type":"Point","coordinates":[-58.74267,-38.53636]}},{"type":"Feature","properties":{"fna":"Jardín de Infantes Una Pequeña Luz","gna":"Jardín de Infantes","nam":"Una Pequeña Luz","fdc":"Mapa Educativo Nacional","sag":"IGN","tipo":"Establecimiento educativo","ign":"puntos_de_ciencia_y_educacion_020601.100520"},"geometry":{"type":"Point","coordinates":[-58.73584,-38.56639]}},{"type":"Feature","properties":{"fna":"Escuela Cristiana Peniel","gna":"Escuela","nam":"Cristiana Peniel","fdc":"Mapa Educativo Nacional","sag":"IGN","tipo":"Establecimiento educativo","ign":"puntos_de_ciencia_y_educacion_020601.100521"},"geometry":{"type":"Point","coordinates":[-58.73738,-38.56622]}},{"type":"Feature","properties":{"fna":"Colegio Nuestra Señora de Pompeya","gna":"Colegio","nam":"Nuestra Señora de Pompeya","fdc":"Mapa Educativo Nacional","sag":"IGN","tipo":"Establecimiento educativo","ign":"puntos_de_ciencia_y_educacion_020601.100522"},"geometry":{"type":"Point","coordinates":[-58.74826,-38.56305]}},{"type":"Feature","properties":{"fna":"Jardín de Infantes Bichito de Luz","gna":"Jardin de Infantes","nam":"Bichito de Luz","fdc":"Mapa Educativo Nacional","sag":"IGN","tipo":"Establecimiento educativo","ign":"puntos_de_ciencia_y_educacion_020601.100523"},"geometry":{"type":"Point","coordinates":[-58.72987,-38.57507]}},{"type":"Feature","properties":{"fna":"Jardín de Infantes Quime Quipán","gna":"Jardin de Infantes","nam":"Quime Quipán","fdc":"Mapa Educativo Nacional","sag":"IGN","tipo":"Establecimiento educativo","ign":"puntos_de_ciencia_y_educacion_020601.100524"},"geometry":{"type":"Point","coordinates":[-58.73127,-38.57314]}},{"type":"Feature","properties":{"fna":"Instituto Humboldt","gna":"Instituto","nam":"Humboldt","fdc":"Mapa Educativo Nacional","sag":"IGN","tipo":"Establecimiento educativo","ign":"puntos_de_ciencia_y_educacion_020601.100525"},"geometry":{"type":"Point","coordinates":[-58.73804,-38.5495]}},{"type":"Feature","properties":{"fna":"Jardín de Infantes Divino Infantes","gna":"Jardín de Infantes","nam":"Divino Infantes","fdc":"Mapa Educativo Nacional","sag":"IGN","tipo":"Establecimiento educativo","ign":"puntos_de_ciencia_y_educacion_020601.100526"},"geometry":{"type":"Point","coordinates":[-58.7492,-38.55191]}},{"type":"Feature","properties":{"fna":"Jardín de Infantes Nuestra Señora de Fátima","gna":"Jardín de Infantes","nam":"Nuestra Señora de Fátima","fdc":"Mapa Educativo Nacional","sag":"IGN","tipo":"Establecimiento educativo","ign":"puntos_de_ciencia_y_educacion_020601.100725"},"geometry":{"type":"Point","coordinates":[-58.70622,-38.53305]}},{"type":"Feature","properties":{"fna":"Instituto Divino Maestro","gna":"Instituto","nam":"Divino Maestro","fdc":"Mapa Educativo Nacional","sag":"IGN","tipo":"Establecimiento educativo","ign":"puntos_de_ciencia_y_educacion_020601.100726"},"geometry":{"type":"Point","coordinates":[-58.71174,-38.56076]}},{"type":"Feature","properties":{"fna":"Escuela Parroquial Nuestra Señora de la Merced","gna":"Escuela Parroquial","nam":"Nuestra Señora de la Merced","fdc":"Mapa Educativo Nacional","sag":"IGN","tipo":"Establecimiento educativo","ign":"puntos_de_ciencia_y_educacion_020601.100727"},"geometry":{"type":"Point","coordinates":[-58.71126,-38.56035]}},{"type":"Feature","properties":{"fna":"Escuela Polimodal Nº 6","gna":"Escuela Polimodal","nam":"Nº 6","fdc":"Mapa Educativo Nacional","sag":"IGN","tipo":"Establecimiento educativo","ign":"puntos_de_ciencia_y_educacion_020601.97671"},"geometry":{"type":"Point","coordinates":[-59.264,-38.0079]}},{"type":"Feature","properties":{"fna":"Escuela de Educación Primaria Nº 14 Hipólito Yrigoyen","gna":"Escuela de Educación Primaria","nam":"Nº 14 Hipólito Yrigoyen","fdc":"Mapa Educativo Nacional","sag":"IGN","tipo":"Establecimiento educativo","ign":"puntos_de_ciencia_y_educacion_020601.98243"},"geometry":{"type":"Point","coordinates":[-59.2588,-38.00943]}},{"type":"Feature","properties":{"fna":"Jardín de Infantes Nº 910","gna":"Jardín de Infantes","nam":"Nº 910","fdc":"Mapa Educativo Nacional","sag":"IGN","tipo":"Establecimiento educativo","ign":"puntos_de_ciencia_y_educacion_020601.98805"},"geometry":{"type":"Point","coordinates":[-59.26011,-38.00199]}},{"type":"Feature","properties":{"fna":"Escuela de Educación Primaria Nº 17 Almirante Guillermo Brown","gna":"Escuela de Educación Primaria","nam":"Nº 17 Almirante Guillermo Brown","fdc":"Mapa Educativo Nacional","sag":"IGN","tipo":"Establecimiento educativo","ign":"puntos_de_ciencia_y_educacion_020601.98806"},"geometry":{"type":"Point","coordinates":[-59.25991,-38.00189]}},{"type":"Feature","properties":{"fna":"Escuela de Educación Primaria Nº 5 Doctor Ricardo Gutiérrez","gna":"Escuela de Educación Primaria","nam":"Nº 5 Doctor Ricardo Gutiérrez","fdc":"Mapa Educativo Nacional","sag":"IGN","tipo":"Establecimiento educativo","ign":"puntos_de_ciencia_y_educacion_020601.97917"},"geometry":{"type":"Point","coordinates":[-59.20555,-38.28411]}},{"type":"Feature","properties":{"fna":"Anexo de Escuela de Educación Secundaria Nº 5","gna":"Anexo de Escuela de Educación Secundaria","nam":"Nº 5","fdc":"Mapa Educativo Nacional","sag":"IGN","tipo":"Establecimiento educativo","ign":"puntos_de_ciencia_y_educacion_020601.98029"},"geometry":{"type":"Point","coordinates":[-59.35439,-38.55849]}},{"type":"Feature","properties":{"fna":"Jardín de Infantes Nº 912 Josefina Angela Soler de Soto","gna":"Jardín de Infantes","nam":"Nº 912 Josefina Angela Soler de Soto","fdc":"Mapa Educativo Nacional","sag":"IGN","tipo":"Establecimiento educativo","ign":"puntos_de_ciencia_y_educacion_020601.98078"},"geometry":{"type":"Point","coordinates":[-59.35463,-38.55852]}},{"type":"Feature","properties":{"fna":"Escuela de Educación Primaria Nº 30 Martín Miguel de Güemes","gna":"Escuela de Educación Primaria","nam":"Nº 30 Martín Miguel de Güemes","fdc":"Mapa Educativo Nacional","sag":"IGN","tipo":"Establecimiento educativo","ign":"puntos_de_ciencia_y_educacion_020601.98092"},"geometry":{"type":"Point","coordinates":[-59.54164,-38.03498]}},{"type":"Feature","properties":{"fna":"Escuela de Educación Primaria Nº 23 Ricardo Güiraldes","gna":"Escuela de Educación Primaria","nam":"Nº 23 Ricardo Güiraldes","fdc":"Mapa Educativo Nacional","sag":"IGN","tipo":"Establecimiento educativo","ign":"puntos_de_ciencia_y_educacion_020601.98104"},"geometry":{"type":"Point","coordinates":[-59.15032,-38.36363]}},{"type":"Feature","properties":{"fna":"Escuela de Educación Primaria Nº 16 José Hernández","gna":"Escuela de Educación Primaria","nam":"Nº 16 José Hernández","fdc":"Mapa Educativo Nacional","sag":"IGN","tipo":"Establecimiento educativo","ign":"puntos_de_ciencia_y_educacion_020601.98121"},"geometry":{"type":"Point","coordinates":[-59.29221,-37.89377]}},{"type":"Feature","properties":{"fna":"Escuela de Educación Primaria Nº 26 Mariano Moreno","gna":"Escuela de Educación Primaria","nam":"Nº 26 Mariano Moreno","fdc":"Mapa Educativo Nacional","sag":"IGN","tipo":"Establecimiento educativo","ign":"puntos_de_ciencia_y_educacion_020601.98185"},"geometry":{"type":"Point","coordinates":[-59.35427,-38.55838]}},{"type":"Feature","properties":{"fna":"Escuela de Educación Secundaria Nº 12","gna":"Escuela de Educación Secundaria","nam":"Nº 12","fdc":"Mapa Educativo Nacional","sag":"IGN","tipo":"Establecimiento educativo","ign":"puntos_de_ciencia_y_educacion_020601.98314"},"geometry":{"type":"Point","coordinates":[-59.29211,-37.89367]}},{"type":"Feature","properties":{"fna":"Escuela de Educación Primaria Nº 18 Bernardino Rivadavia","gna":"Escuela de Educación Primaria","nam":"Nº 18 Bernardino Rivadavia","fdc":"Mapa Educativo Nacional","sag":"IGN","tipo":"Establecimiento educativo","ign":"puntos_de_ciencia_y_educacion_020601.98489"},"geometry":{"type":"Point","coordinates":[-59.32813,-38.45093]}},{"type":"Feature","properties":{"fna":"Escuela de Educación Secundaria N° 19","gna":"Escuela de Educación Secundaria","nam":"N° 19","fdc":"Mapa Educativo Nacional","sag":"IGN","tipo":"Establecimiento educativo","ign":"puntos_de_ciencia_y_educacion_020601.98512"},"geometry":{"type":"Point","coordinates":[-59.26355,-38.00801]}},{"type":"Feature","properties":{"fna":"Jardín de Infantes Nº 906 Narciso M. Ocampo","gna":"Jardín de Infantes","nam":"Nº 906 Narciso M. Ocampo","fdc":"Mapa Educativo Nacional","sag":"IGN","tipo":"Establecimiento educativo","ign":"puntos_de_ciencia_y_educacion_020601.98519"},"geometry":{"type":"Point","coordinates":[-59.28865,-37.89019]}},{"type":"Feature","properties":{"fna":"Escuela de Educación Secundaria Agraria Nº 1","gna":"Escuela de Educación Secundaria Agraria","nam":"Nº 1","fdc":"Mapa Educativo Nacional","sag":"IGN","tipo":"Establecimiento educativo","ign":"puntos_de_ciencia_y_educacion_020601.98547"},"geometry":{"type":"Point","coordinates":[-59.3293,-38.4491]}},{"type":"Feature","properties":{"fna":"Escuela de Educación Primaria Nº 37 Provincia de Santa Cruz","gna":"Escuela de Educación Primaria","nam":"Nº 37 Provincia de Santa Cruz","fdc":"Mapa Educativo Nacional","sag":"IGN","tipo":"Establecimiento educativo","ign":"puntos_de_ciencia_y_educacion_020601.98560"},"geometry":{"type":"Point","coordinates":[-59.28173,-38.60443]}},{"type":"Feature","properties":{"fna":"Escuela de Educación Primaria Nº 21 Constancio C. Vigil","gna":"Escuela de Educación Primaria","nam":"Nº 21 Constancio C. Vigil","fdc":"Mapa Educativo Nacional","sag":"IGN","tipo":"Establecimiento educativo","ign":"puntos_de_ciencia_y_educacion_020601.98673"},"geometry":{"type":"Point","coordinates":[-59.37048,-37.90612]}},{"type":"Feature","properties":{"fna":"Escuela de Educación Primaria Nº 22 José Manuel Estrada","gna":"Escuela de Educación Primaria","nam":"Nº 22 José Manuel Estrada","fdc":"Mapa Educativo Nacional","sag":"IGN","tipo":"Establecimiento educativo","ign":"puntos_de_ciencia_y_educacion_020601.98682"},"geometry":{"type":"Point","coordinates":[-59.15011,-38.11311]}},{"type":"Feature","properties":{"fna":"Escuela de Educación Primaria Nº 42 Chaco","gna":"Escuela de Educación Primaria","nam":"Nº 42 Chaco","fdc":"Mapa Educativo Nacional","sag":"IGN","tipo":"Establecimiento educativo","ign":"puntos_de_ciencia_y_educacion_020601.98800"},"geometry":{"type":"Point","coordinates":[-59.19834,-38.2808]}},{"type":"Feature","properties":{"fna":"Jardín de Infantes Nº 905","gna":"Jardín de Infantes","nam":"Nº 905","fdc":"Mapa Educativo Nacional","sag":"IGN","tipo":"Establecimiento educativo","ign":"puntos_de_ciencia_y_educacion_020601.98878"},"geometry":{"type":"Point","coordinates":[-59.26461,-38.00831]}},{"type":"Feature","properties":{"fna":"Jardín de Infantes Rural Nº 4 Provincia de Santa Cruz","gna":"Jardín de Infantes Rural","nam":"Nº 4 Provincia de Santa Cruz","fdc":"Mapa Educativo Nacional","sag":"IGN","tipo":"Establecimiento educativo","ign":"puntos_de_ciencia_y_educacion_020601.99052"},"geometry":{"type":"Point","coordinates":[-59.28152,-38.60457]}},{"type":"Feature","properties":{"fna":"Centro de Educaciónm de Adultos Nº 710","gna":"Centro de Educaciónm de Adultos","nam":"Nº 710","fdc":"Mapa Educativo Nacional","sag":"IGN","tipo":"Establecimiento educativo","ign":"puntos_de_ciencia_y_educacion_020601.99373"},"geometry":{"type":"Point","coordinates":[-59.26392,-38.00821]}},{"type":"Feature","properties":{"fna":"Jardín de Infantes Nº 904 Antonio Ciancaglini","gna":"Jardín de Infantes","nam":"Nº 904 Antonio Ciancaglini","fdc":"Mapa Educativo Nacional","sag":"IGN","tipo":"Establecimiento educativo","ign":"puntos_de_ciencia_y_educacion_020601.99475"},"geometry":{"type":"Point","coordinates":[-59.19951,-38.27955]}},{"type":"Feature","properties":{"fna":"Escuela de Educación Secundaria Nº 18","gna":"Escuela de Educación Secundaria","nam":"Nº 18","fdc":"Mapa Educativo Nacional","sag":"IGN","tipo":"Establecimiento educativo","ign":"puntos_de_ciencia_y_educacion_020601.99554"},"geometry":{"type":"Point","coordinates":[-59.1961,-38.27766]}},{"type":"Feature","properties":{"fna":"Jardín de Infantes Nº 907 Islas Malvinas","gna":"Jardín de Infantes","nam":"Nº 907 Islas Malvinas","fdc":"Mapa Educativo Nacional","sag":"IGN","tipo":"Establecimiento educativo","ign":"puntos_de_ciencia_y_educacion_020601.99722"},"geometry":{"type":"Point","coordinates":[-59.33031,-38.45043]}},{"type":"Feature","properties":{"fna":"Escuela de Educación Primaria Nº 44 Comandante Tomás Espora","gna":"Escuela de Educación Primaria","nam":"Nº 44 Comandante Tomás Espora","fdc":"Mapa Educativo Nacional","sag":"IGN","tipo":"Establecimiento educativo","ign":"puntos_de_ciencia_y_educacion_020601.100305"},"geometry":{"type":"Point","coordinates":[-59.31333,-38.21652]}},{"type":"Feature","properties":{"fna":"Universidad Nacional del Centro de la Provincia de Buenos Aires Unidad de Enseñanza Universitaria de Quequén","gna":"Universidad Nacional","nam":"del Centro de la Provincia de Buenos Aires Unidad de Enseñanza Universitaria*","fdc":"IDE Buenos Aires","sag":"IGN","tipo":"Universidad","ign":"puntos_de_ciencia_y_educacion_020602.65540"},"geometry":{"type":"Point","coordinates":[-58.66068,-38.56288]}},{"type":"Feature","properties":{"fna":"Universidad Católica de Salta Sede Necochea","gna":"Universidad Católica","nam":"de Salta Sede Necochea","fdc":"Ministerio del Interior","sag":"IGN","tipo":"Universidad","ign":"puntos_de_ciencia_y_educacion_020602.87977"},"geometry":{"type":"Point","coordinates":[-58.72987,-38.56087]}},{"type":"Feature","properties":{"fna":"Universidad Empresarial Siglo 21 Asociación de Estudios Superiores Rio Quequen","gna":"Universidad","nam":"Empresarial Siglo 21 Asociación de Estudios Superiores Rio Quequen","fdc":"Ministerio del Interior","sag":"IGN","tipo":"Universidad","ign":"puntos_de_ciencia_y_educacion_020602.89473"},"geometry":{"type":"Point","coordinates":[-58.73517,-38.55154]}}]}
