{"type":"FeatureCollection","features":[{"type":"Feature","properties":{"fna":"Adolfo Gonzales Chaves - Necochea","nam":"Adolfo Gonzales Chaves - Necochea","fun":6,"ten":6,"sag":"IGN","fdc":"IGN/Secretaría de Gobierno de Energía","tipo":"Línea de transmisión eléctrica","ign":"lineas_de_energia_AT030.1007357"},"geometry":{"type":"MultiLineString","coordinates":[[[-60.07519,-38.04606],[-60.06583,-38.04831],[-60.02658,-38.05775],[-60.01106,-38.06142],[-59.90347,-38.09153],[-59.67472,-38.15536],[-59.62803,-38.16831],[-59.58392,-38.18056],[-59.56511,-38.18575],[-59.55056,-38.18978],[-59.44075,-38.22011],[-59.38225,-38.23614],[-59.32631,-38.25675],[-59.23625,-38.28972],[-59.19147,-38.30614],[-59.11236,-38.335],[-58.96083,-38.39339],[-58.91081,-38.41353],[-58.88839,-38.42256],[-58.87042,-38.42972],[-58.83714,-38.44306],[-58.82611,-38.44767],[-58.76786,-38.472],[-58.71061,-38.51575],[-58.69886,-38.52469],[-58.6795,-38.53956],[-58.70144,-38.55736],[-58.70378,-38.55872],[-58.70981,-38.56358],[-58.71272,-38.56806],[-58.71353,-38.56983],[-58.71336,-38.57119],[-58.71483,-38.57353],[-58.71542,-38.57497],[-58.71442,-38.57756],[-58.71208,-38.57826],[-58.71166,-38.57813]]]}},{"type":"Feature","properties":{"fna":"Mar del Plata - Necochea","nam":"Mar del Plata - Necochea","fun":6,"ten":6,"sag":"IGN","fdc":"IGN/Secretaría de Gobierno de Energía","tipo":"Línea de transmisión eléctrica","ign":"lineas_de_energia_AT030.1007388"},"geometry":{"type":"MultiLineString","coordinates":[[[-58.70378,-38.55872],[-58.70981,-38.56358],[-58.71272,-38.56806],[-58.71353,-38.56983],[-58.71336,-38.57119],[-58.71483,-38.57353],[-58.71542,-38.57497],[-58.71442,-38.57756],[-58.71208,-38.57826],[-58.71185,-38.57853]]]}},{"type":"Feature","properties":{"fna":"Mar del Plata - Necochea","nam":"Mar del Plata - Necochea","fun":6,"ten":6,"sag":"IGN","fdc":"IGN/Secretaría de Gobierno de Energía","tipo":"Línea de transmisión eléctrica","ign":"lineas_de_energia_AT030.1007389"},"geometry":{"type":"MultiLineString","coordinates":[[[-58.70378,-38.55872],[-58.70144,-38.55736],[-58.6795,-38.53956],[-58.66539,-38.52808],[-58.63969,-38.50797],[-58.63728,-38.50672],[-58.60789,-38.49458],[-58.57961,-38.47683],[-58.57731,-38.47553],[-58.53003,-38.45478],[-58.51878,-38.45031],[-58.51611,-38.44925],[-58.48603,-38.43636],[-58.46008,-38.42825],[-58.45775,-38.42683],[-58.45239,-38.42278],[-58.44861,-38.41933],[-58.42958,-38.40369],[-58.42328,-38.39786],[-58.38758,-38.36361],[-58.34803,-38.32967],[-58.34642,-38.32894],[-58.30906,-38.31706],[-58.30617,-38.31636],[-58.29481,-38.31411],[-58.29186,-38.31336],[-58.26778,-38.30531],[-58.18339,-38.27811],[-58.15575,-38.26961],[-58.14817,-38.26742],[-58.14828,-38.26681],[-58.09769,-38.23842],[-58.0885,-38.23086],[-58.08758,-38.23111],[-58.07425,-38.22003],[-58.07222,-38.21853],[-58.06322,-38.21514],[-58.06108,-38.21369],[-58.05186,-38.20708],[-58.04467,-38.20244],[-58.04247,-38.20108],[-58.04064,-38.20061],[-58.02944,-38.20086],[-58.02667,-38.20081],[-58.02431,-38.20008],[-58.02261,-38.19881],[-57.97275,-38.15778],[-57.97103,-38.15642],[-57.96236,-38.14914],[-57.95994,-38.14803],[-57.95714,-38.14728],[-57.955,-38.14561],[-57.9315,-38.12594],[-57.93044,-38.12506],[-57.92181,-38.11775],[-57.91981,-38.11617],[-57.91758,-38.11478],[-57.91569,-38.11333],[-57.90056,-38.10064],[-57.89869,-38.09917],[-57.89633,-38.09797],[-57.87611,-38.08847],[-57.87408,-38.08742],[-57.86033,-38.08036],[-57.86356,-38.07206],[-57.86422,-38.06989],[-57.86703,-38.06225],[-57.85236,-38.05342],[-57.83978,-38.04197],[-57.81831,-38.02381],[-57.8165,-38.02236],[-57.79161,-38.00231],[-57.78008,-38.01106],[-57.76942,-38.00617],[-57.75508,-37.99528],[-57.74942,-37.99147],[-57.74178,-37.98689],[-57.73181,-37.97875],[-57.72989,-37.97719],[-57.72136,-37.97017],[-57.72394,-37.96822],[-57.72392,-37.96725],[-57.69078,-37.93972],[-57.66125,-37.96019],[-57.64072,-37.97886],[-57.6193,-37.99595],[-57.61907,-37.99613]]]}},{"type":"Feature","properties":{"fna":"Mar del Plata - Necochea","nam":"Mar del Plata - Necochea","fun":6,"ten":6,"sag":"IGN","fdc":"IGN/Secretaría de Gobierno de Energía","tipo":"Línea de transmisión eléctrica","ign":"lineas_de_energia_AT030.1007390"},"geometry":{"type":"MultiLineString","coordinates":[[[-58.70411,-38.55862],[-58.70378,-38.55872]]]}},{"type":"Feature","properties":{"fna":"Mar del Plata - Necochea","nam":"Mar del Plata - Necochea","fun":6,"ten":6,"sag":"IGN","fdc":"IGN/Secretaría de Gobierno de Energía","tipo":"Línea de transmisión eléctrica","ign":"lineas_de_energia_AT030.1007391"},"geometry":{"type":"MultiLineString","coordinates":[[[-58.70396,-38.55845],[-58.70378,-38.55872]]]}},{"type":"Feature","properties":{"fna":"Miramar - Necochea","nam":"Miramar - Necochea","fun":6,"ten":6,"sag":"IGN","fdc":"IGN/Secretaría de Gobierno de Energía","tipo":"Línea de transmisión eléctrica","ign":"lineas_de_energia_AT030.1007392"},"geometry":{"type":"MultiLineString","coordinates":[[[-58.71163,-38.57792],[-58.71208,-38.57826],[-58.71442,-38.57756],[-58.71542,-38.57497],[-58.71483,-38.57353],[-58.71336,-38.57119],[-58.71353,-38.56983],[-58.71272,-38.56806],[-58.70981,-38.56358],[-58.70378,-38.55872],[-58.70144,-38.55736],[-58.6795,-38.53956],[-58.59458,-38.49392],[-58.56733,-38.47972],[-58.50775,-38.45378],[-58.44561,-38.42619],[-58.30619,-38.34911],[-58.16033,-38.27708],[-58.04328,-38.22714],[-57.96581,-38.19203],[-57.85319,-38.13697],[-57.82792,-38.22286],[-57.82781,-38.22361],[-57.82644,-38.22836],[-57.82897,-38.24503],[-57.82628,-38.24706],[-57.82554,-38.24745]]]}},{"type":"Feature","properties":{"fna":"Necochea - Tandil","nam":"Necochea - Tandil","fun":6,"ten":6,"sag":"IGN","fdc":"IGN/Secretaría de Gobierno de Energía","tipo":"Línea de transmisión eléctrica","ign":"lineas_de_energia_AT030.1007394"},"geometry":{"type":"MultiLineString","coordinates":[[[-59.13398,-37.29582],[-59.13433,-37.29603],[-59.13181,-37.29733],[-59.102,-37.3205],[-59.09283,-37.32086],[-59.07278,-37.336],[-59.06619,-37.34128],[-59.06556,-37.35219],[-59.07292,-37.36636],[-59.07239,-37.3695],[-58.97886,-37.82911],[-58.95958,-37.87022],[-58.93092,-37.93917],[-58.92675,-37.95247],[-58.92586,-37.95439],[-58.92006,-37.96542],[-58.85544,-38.12008],[-58.80675,-38.23633],[-58.6795,-38.53956],[-58.70144,-38.55736],[-58.70378,-38.55872],[-58.70981,-38.56358],[-58.71272,-38.56806],[-58.71353,-38.56983],[-58.71336,-38.57119],[-58.71483,-38.57353],[-58.71542,-38.57497],[-58.71442,-38.57756],[-58.71208,-38.57826],[-58.71174,-38.57833]]]}},{"type":"Feature","properties":{"fna":"Central Térmica Necochea","gna":"Central Térmica","nam":"Necochea","sag":"IGN","fdc":"IGN/Secretaría de Gobierno de Energía","tipo":"Central eléctrica","ign":"puntos_de_energia_AD010.1529"},"geometry":{"type":"Point","coordinates":[-58.71044,-38.57833]}},{"type":"Feature","properties":{"fna":"Parque Eólico Necochea","gna":"Parque Eólico","nam":"Necochea","sag":"IGN","fdc":"IGN/Secretaría de Gobierno de Energía","tipo":"Central eléctrica","ign":"puntos_de_energia_AD010.1531"},"geometry":{"type":"Point","coordinates":[-58.79041,-38.60425]}},{"type":"Feature","properties":{"fna":"Estación Transformadora Quequén","gna":"Estación Transformadora","nam":"Quequén","sag":"IGN","fdc":"IGN/Secretaría de Gobierno de Energía","tipo":"Planta transformadora","ign":"puntos_de_energia_AD030.1528"},"geometry":{"type":"Point","coordinates":[-58.70442,-38.55831]}},{"type":"Feature","properties":{"fna":"Estación Transformadora Necochea","gna":"Estación Transformadora","nam":"Necochea","sag":"IGN","fdc":"IGN/Secretaría de Gobierno de Energía","tipo":"Planta transformadora","ign":"puntos_de_energia_AD030.1530"},"geometry":{"type":"Point","coordinates":[-58.71175,-38.57858]}}]}
