{"type":"FeatureCollection","features":[{"type":"Feature","properties":{"tipo":"Centro de almacenamiento transitorio de envases vacíos de fitosanitarios","direccion":"Parque Industrial Necochea","capacidad_envases":12000},"geometry":{"type":"Point","coordinates":[-58.74601,-38.52703]}},{"type":"Feature","properties":{"tipo":"Centro de almacenamiento transitorio de envases vacíos de fitosanitarios","direccion":"Parque Industrial Necochea","capacidad_envases":5000},"geometry":{"type":"Point","coordinates":[-58.74625,-38.52411]}}]}
