{"type":"FeatureCollection","features":[{"type":"Feature","properties":{"fna":"Ferrocarril Nacional General Roca Ramal R18","gna":"Ferrocarril Nacional","nam":"General Roca Ramal R18","fdc":"IGN/Ministerio de Transporte de la Nación","sag":"IGN","tipo":"Ferrocarril","ign":"lineas_de_transporte_ferroviario_AN010.2237"},"geometry":{"type":"MultiLineString","coordinates":[[[-58.71452,-38.53678],[-58.71632,-38.53758],[-58.71747,-38.5379],[-58.72047,-38.53813],[-58.72325,-38.53834],[-58.72464,-38.53851],[-58.72597,-38.53903],[-58.72723,-38.53984],[-58.73161,-38.54344],[-58.73207,-38.54392],[-58.73224,-38.54439],[-58.73237,-38.545],[-58.73243,-38.54546],[-58.73249,-38.54582],[-58.73256,-38.54618],[-58.73269,-38.54653],[-58.7329,-38.54683],[-58.73327,-38.54719],[-58.7345,-38.54816]]]}},{"type":"Feature","properties":{"fna":"Ferrocarril Nacional General Roca Ramal R21","gna":"Ferrocarril Nacional","nam":"General Roca Ramal R21","fdc":"IGN/Ministerio de Transporte de la Nación/Ferrosur","sag":"IGN","tipo":"Ferrocarril","ign":"lineas_de_transporte_ferroviario_AN010.2238"},"geometry":{"type":"MultiLineString","coordinates":[[[-58.71452,-38.53678],[-58.7153,-38.53756],[-58.71573,-38.5384],[-58.71585,-38.53931],[-58.71577,-38.54011],[-58.71549,-38.54072],[-58.71509,-38.5414],[-58.71004,-38.54542],[-58.70536,-38.54908],[-58.70473,-38.5498],[-58.70418,-38.55066],[-58.70378,-38.55172],[-58.70355,-38.5533],[-58.70349,-38.55896],[-58.70363,-38.56008],[-58.70418,-38.56109],[-58.70483,-38.56213],[-58.70612,-38.56311],[-58.70827,-38.56403],[-58.71031,-38.5648],[-58.71118,-38.56537],[-58.71202,-38.56647],[-58.71278,-38.56785],[-58.71337,-38.56878],[-58.71354,-38.56967],[-58.71358,-38.57034],[-58.71343,-38.5712],[-58.71297,-38.57196],[-58.71212,-38.57253],[-58.70717,-38.57441]]]}},{"type":"Feature","properties":{"fna":"Ferrocarril Nacional General Roca Ramal R27","gna":"Ferrocarril Nacional","nam":"General Roca Ramal R27","fdc":"IGN/Ministerio de Transporte de la Nación","sag":"IGN","tipo":"Ferrocarril","ign":"lineas_de_transporte_ferroviario_AN010.2242"},"geometry":{"type":"MultiLineString","coordinates":[[[-61.22053,-38.69894],[-61.21927,-38.69889],[-61.21731,-38.69911],[-61.21426,-38.69988],[-61.21279,-38.70052],[-61.20404,-38.70718],[-61.19285,-38.71623],[-61.18451,-38.72292],[-61.1703,-38.73425],[-61.15657,-38.74503],[-61.13186,-38.76454],[-61.11342,-38.77922],[-61.10004,-38.78989],[-61.09795,-38.79097],[-61.09516,-38.79207],[-61.08421,-38.79467],[-61.06936,-38.79811],[-61.05895,-38.80047],[-61.05604,-38.80082],[-61.05218,-38.80091],[-61.03488,-38.80075],[-61.01715,-38.80072],[-61.00048,-38.80058],[-60.97994,-38.80052],[-60.96164,-38.80039],[-60.95721,-38.80036],[-60.95219,-38.80038],[-60.94965,-38.80031],[-60.94807,-38.80022],[-60.94567,-38.79994],[-60.94229,-38.79916],[-60.93604,-38.79801],[-60.93102,-38.79706],[-60.92542,-38.79605],[-60.91979,-38.795],[-60.91483,-38.7941],[-60.91104,-38.7934],[-60.90548,-38.7924],[-60.89665,-38.79071],[-60.89247,-38.78999],[-60.88836,-38.78919],[-60.88208,-38.78795],[-60.87567,-38.78676],[-60.86811,-38.78539],[-60.86478,-38.78476],[-60.86138,-38.78408],[-60.85877,-38.78352],[-60.84929,-38.78147],[-60.84589,-38.78073],[-60.84248,-38.77999],[-60.8356,-38.77849],[-60.82809,-38.77687],[-60.82366,-38.77591],[-60.81936,-38.77497],[-60.80955,-38.77271],[-60.79878,-38.77039],[-60.79335,-38.76919],[-60.77782,-38.766],[-60.76296,-38.76275],[-60.75466,-38.76092],[-60.74959,-38.75982],[-60.73946,-38.75758],[-60.7256,-38.75454],[-60.71217,-38.75166],[-60.70753,-38.75084],[-60.69884,-38.74992],[-60.68693,-38.74866],[-60.67537,-38.74742],[-60.6602,-38.74585],[-60.64492,-38.74428],[-60.63131,-38.74282],[-60.62599,-38.74224],[-60.6193,-38.74155],[-60.61391,-38.74098],[-60.61179,-38.7408],[-60.6105,-38.74068],[-60.61008,-38.74062],[-60.60981,-38.74058],[-60.60791,-38.74029],[-60.60616,-38.74003],[-60.60492,-38.73987],[-60.60438,-38.73979],[-60.59943,-38.73929],[-60.59649,-38.73875],[-60.59458,-38.73828],[-60.59392,-38.73813],[-60.59,-38.73721],[-60.5868,-38.73645],[-60.58249,-38.7355],[-60.57884,-38.73461],[-60.57393,-38.7334],[-60.57297,-38.73314],[-60.56706,-38.73181],[-60.56375,-38.731],[-60.55916,-38.73015],[-60.55565,-38.72975],[-60.54774,-38.72902],[-60.54009,-38.72823],[-60.53142,-38.72742],[-60.52311,-38.72657],[-60.51513,-38.7258],[-60.50828,-38.72515],[-60.49994,-38.72438],[-60.4944,-38.72371],[-60.48624,-38.72286],[-60.48195,-38.72245],[-60.47842,-38.72226],[-60.46949,-38.72163],[-60.46278,-38.72119],[-60.45585,-38.72074],[-60.45217,-38.72053],[-60.45006,-38.7204],[-60.44716,-38.72028],[-60.43478,-38.71962],[-60.41751,-38.7176],[-60.4063,-38.7166],[-60.40142,-38.71626],[-60.36749,-38.71448],[-60.3321,-38.71252],[-60.30236,-38.7108],[-60.26724,-38.70887],[-60.23374,-38.70698],[-60.19222,-38.70466],[-60.15388,-38.70251],[-60.11758,-38.70039],[-60.07531,-38.69789],[-60.03468,-38.69548],[-60.01033,-38.69421],[-60.00013,-38.69394],[-59.99101,-38.69335],[-59.98347,-38.69296],[-59.97916,-38.69282],[-59.95299,-38.69255],[-59.91968,-38.69208],[-59.90029,-38.69133],[-59.8753,-38.68996],[-59.85015,-38.68867],[-59.80867,-38.68639],[-59.78484,-38.68506],[-59.78153,-38.68455],[-59.7655,-38.68148],[-59.75128,-38.67883],[-59.73559,-38.67574],[-59.72243,-38.67317],[-59.71882,-38.67248],[-59.70729,-38.67026],[-59.68247,-38.66548],[-59.66976,-38.66311],[-59.66524,-38.66208],[-59.6435,-38.65664],[-59.63388,-38.65431],[-59.62835,-38.65298],[-59.60995,-38.64847],[-59.59635,-38.64521],[-59.5939,-38.64448],[-59.57601,-38.63778],[-59.54132,-38.6247],[-59.51861,-38.61618],[-59.51504,-38.61485],[-59.50669,-38.61178],[-59.50106,-38.60968],[-59.49665,-38.60801],[-59.49204,-38.6064],[-59.47836,-38.60118],[-59.46817,-38.59736],[-59.46548,-38.59637],[-59.46398,-38.59581],[-59.46272,-38.59534],[-59.45695,-38.59316],[-59.44813,-38.58983],[-59.44547,-38.58886],[-59.44539,-38.58882],[-59.44529,-38.58879],[-59.44333,-38.58808],[-59.43912,-38.58655],[-59.43601,-38.58555],[-59.42789,-38.58314],[-59.42436,-38.5821],[-59.42117,-38.58115],[-59.40769,-38.57712],[-59.40162,-38.57531],[-59.39094,-38.57211],[-59.38338,-38.56974],[-59.38223,-38.56938],[-59.37178,-38.56466],[-59.36579,-38.56209],[-59.35889,-38.55914],[-59.3579,-38.55872],[-59.35191,-38.55643],[-59.34509,-38.55357],[-59.34272,-38.55232],[-59.3412,-38.55127],[-59.33988,-38.54971],[-59.33948,-38.54894],[-59.33909,-38.54819],[-59.3387,-38.54721],[-59.33843,-38.54449],[-59.33835,-38.54329],[-59.33812,-38.53933],[-59.33788,-38.53467],[-59.33783,-38.53383],[-59.33748,-38.52771],[-59.3372,-38.5227],[-59.33663,-38.51318],[-59.33656,-38.51198],[-59.3363,-38.50761],[-59.33507,-38.49064],[-59.33442,-38.47846],[-59.33269,-38.45148],[-59.33202,-38.43915],[-59.332,-38.4368],[-59.33202,-38.43568],[-59.33216,-38.43396],[-59.33459,-38.41828],[-59.33913,-38.38849],[-59.34244,-38.36658],[-59.34578,-38.34467],[-59.34714,-38.33543],[-59.34751,-38.33212],[-59.34751,-38.32962],[-59.34737,-38.32525],[-59.34715,-38.32327],[-59.34704,-38.32068],[-59.34711,-38.31913],[-59.34742,-38.31787],[-59.34787,-38.31637],[-59.34884,-38.31444],[-59.34982,-38.31299],[-59.35094,-38.31195],[-59.36795,-38.29907],[-59.37009,-38.29826],[-59.37207,-38.29788],[-59.37395,-38.29767],[-59.37559,-38.29753],[-59.37706,-38.29754]]]}},{"type":"Feature","properties":{"fna":"Ferrocarril Nacional General Roca Ramal R18","gna":"Ferrocarril Nacional","nam":"General Roca Ramal R18","fdc":"IGN/Ministerio de Transporte de la Nación/Ferrosur","sag":"IGN","tipo":"Ferrocarril","ign":"lineas_de_transporte_ferroviario_AN010.2245"},"geometry":{"type":"MultiLineString","coordinates":[[[-58.74158,-38.18548],[-58.7339,-38.20854],[-58.72656,-38.23066],[-58.71966,-38.25134],[-58.71237,-38.27311],[-58.70398,-38.298],[-58.69809,-38.31582],[-58.68747,-38.34765],[-58.67929,-38.37231],[-58.67365,-38.38871],[-58.67291,-38.39092],[-58.67245,-38.39231],[-58.66758,-38.40737],[-58.66747,-38.40773],[-58.66362,-38.41894],[-58.66089,-38.42704],[-58.65883,-38.43357],[-58.65871,-38.43479],[-58.65862,-38.43595],[-58.65889,-38.43711],[-58.66466,-38.45546],[-58.67349,-38.48286],[-58.68206,-38.50939],[-58.68254,-38.51019],[-58.68334,-38.5115],[-58.68569,-38.51361],[-58.69205,-38.51867],[-58.69207,-38.51866],[-58.70405,-38.52829],[-58.71452,-38.53678]]]}},{"type":"Feature","properties":{"fna":"Ferrocarril Nacional General Roca Ramal R23","gna":"Ferrocarril Nacional","nam":"General Roca Ramal R23","fdc":"IGN/Ministerio de Transporte de la Nación/Ferrosur","sag":"IGN","tipo":"Ferrocarril","ign":"lineas_de_transporte_ferroviario_AN010.2248"},"geometry":{"type":"MultiLineString","coordinates":[[[-58.84249,-38.10539],[-58.84581,-38.10527],[-58.84772,-38.10534],[-58.85046,-38.10617],[-58.85478,-38.10841],[-58.86176,-38.11205],[-58.87442,-38.11851],[-58.88168,-38.12234],[-58.88596,-38.1246],[-58.8898,-38.12661],[-58.89796,-38.131],[-58.9016,-38.13305],[-58.90562,-38.13462],[-58.91661,-38.13785],[-58.91823,-38.13835],[-58.95184,-38.14828],[-58.9543,-38.14902],[-58.96239,-38.15285],[-58.97693,-38.16035],[-59.00339,-38.17446],[-59.01543,-38.18081],[-59.01833,-38.18217],[-59.0235,-38.18447],[-59.03202,-38.18804],[-59.05262,-38.19647],[-59.05886,-38.19921],[-59.06883,-38.20321],[-59.07597,-38.20613],[-59.10114,-38.21657],[-59.10683,-38.2189],[-59.10892,-38.21957],[-59.11308,-38.22064],[-59.11499,-38.22145],[-59.11589,-38.22226],[-59.11663,-38.223],[-59.11806,-38.22512],[-59.11884,-38.22623],[-59.12006,-38.22747],[-59.12113,-38.22816],[-59.12757,-38.23133],[-59.12957,-38.23233],[-59.14514,-38.24225],[-59.15525,-38.2487],[-59.15639,-38.24965],[-59.168,-38.26309],[-59.1701,-38.26549],[-59.17157,-38.26692],[-59.17274,-38.26795],[-59.17419,-38.26892],[-59.17783,-38.2709],[-59.1808,-38.27235],[-59.20065,-38.27862],[-59.20168,-38.27896],[-59.20494,-38.27987],[-59.20833,-38.28082],[-59.215,-38.28288],[-59.22552,-38.28613],[-59.2258,-38.28621],[-59.23886,-38.29019],[-59.24117,-38.29091],[-59.24467,-38.29181],[-59.24743,-38.29257],[-59.25088,-38.29281],[-59.26021,-38.29267],[-59.2757,-38.29264],[-59.27734,-38.29274],[-59.27903,-38.29314],[-59.28098,-38.29386],[-59.28314,-38.29467],[-59.28445,-38.295],[-59.28567,-38.29521],[-59.28759,-38.29512],[-59.28928,-38.29479],[-59.29775,-38.29154],[-59.29968,-38.29101],[-59.30385,-38.29074],[-59.31301,-38.2916],[-59.31699,-38.29258],[-59.32779,-38.29666],[-59.33047,-38.29749],[-59.33317,-38.29797],[-59.33671,-38.29803],[-59.34088,-38.29725],[-59.35298,-38.29244],[-59.35512,-38.29181],[-59.35729,-38.29142],[-59.36054,-38.29137],[-59.36315,-38.2919],[-59.36751,-38.29356]]]}},{"type":"Feature","properties":{"fna":"Ferrocarril Nacional General Roca Ramal R25","gna":"Ferrocarril Nacional","nam":"General Roca Ramal R25","fdc":"IGN/Ministerio de Transporte de la Nación","sag":"IGN","tipo":"Ferrocarril","ign":"lineas_de_transporte_ferroviario_AN010.2287"},"geometry":{"type":"MultiLineString","coordinates":[[[-59.36751,-38.29356],[-59.35137,-38.28708],[-59.34784,-38.28506],[-59.34034,-38.27944],[-59.33516,-38.27153],[-59.32731,-38.25889],[-59.32517,-38.25564],[-59.32294,-38.24803],[-59.31904,-38.23405],[-59.31274,-38.21224],[-59.31107,-38.20654],[-59.30985,-38.20452],[-59.30831,-38.20303],[-59.29671,-38.19425],[-59.27009,-38.17394],[-59.25373,-38.16151],[-59.24784,-38.1569],[-59.24671,-38.15538],[-59.24611,-38.15407],[-59.23719,-38.13578],[-59.23582,-38.13274],[-59.23535,-38.13138],[-59.23514,-38.13025],[-59.23514,-38.12909],[-59.23541,-38.12772],[-59.23743,-38.11892],[-59.24588,-38.0787],[-59.25117,-38.05458],[-59.25587,-38.03269],[-59.26028,-38.01062],[-59.26169,-38.00403],[-59.26735,-37.9776],[-59.27449,-37.94391],[-59.28127,-37.91175],[-59.28655,-37.88641],[-59.29276,-37.85711],[-59.29915,-37.82748],[-59.30151,-37.81667],[-59.30436,-37.80282],[-59.30533,-37.801],[-59.3085,-37.79765],[-59.32249,-37.7838],[-59.35476,-37.75242],[-59.37493,-37.73261],[-59.37946,-37.72833],[-59.38167,-37.72694],[-59.38424,-37.72573],[-59.38638,-37.72505],[-59.38899,-37.72483],[-59.39231,-37.7254],[-59.39495,-37.72576],[-59.39677,-37.72558],[-59.39905,-37.7249],[-59.40055,-37.7238],[-59.40309,-37.72098],[-59.40601,-37.7172],[-59.40658,-37.7157],[-59.40705,-37.70642],[-59.40644,-37.7032],[-59.40401,-37.69571],[-59.40309,-37.69392],[-59.39934,-37.68986],[-59.39556,-37.68586],[-59.39466,-37.68489],[-59.3937,-37.683],[-59.39352,-37.6819],[-59.39345,-37.68072],[-59.39345,-37.67947],[-59.39359,-37.67833],[-59.39372,-37.67633],[-59.39372,-37.67633],[-59.39378,-37.67548]]]}},{"type":"Feature","properties":{"fna":"Estación La Dulce","gna":"Estación","nam":"La Dulce","fdc":"IGN/Ministerio de Transporte de la Nación","sag":"IGN","tipo":"Estación de ferrocarril","ign":"puntos_de_transporte_ferroviario_AN070.3176"},"geometry":{"type":"Point","coordinates":[-59.20428,-38.27972]}},{"type":"Feature","properties":{"fna":"Estación Quequén","gna":"Estación","nam":"Quequén","fdc":"IGN/Ministerio de Transporte de la Nación","sag":"IGN","tipo":"Estación de ferrocarril","ign":"puntos_de_transporte_ferroviario_AN070.3177"},"geometry":{"type":"Point","coordinates":[-58.71232,-38.53478]}},{"type":"Feature","properties":{"fna":"Estación Juan N. Fernández","gna":"Estación","nam":"Juan N. Fernández","fdc":"IGN/Ministerio de Transporte de la Nación","sag":"IGN","tipo":"Estación de ferrocarril","ign":"puntos_de_transporte_ferroviario_AN070.4076"},"geometry":{"type":"Point","coordinates":[-59.26148,-38.00585]}},{"type":"Feature","properties":{"fna":"Estación Energía","gna":"Estación","nam":"Energía","fdc":"IGN/Ministerio de Transporte de la Nación","sag":"IGN","tipo":"Estación de ferrocarril","ign":"puntos_de_transporte_ferroviario_AN070.4672"},"geometry":{"type":"Point","coordinates":[-59.35578,-38.55823]}},{"type":"Feature","properties":{"fna":"Estación Ramón Santamarina","gna":"Estación","nam":"Ramón Santamarina","fdc":"IGN/Ministerio de Transporte de la Nación","sag":"IGN","tipo":"Estación de ferrocarril","ign":"puntos_de_transporte_ferroviario_AN070.4673"},"geometry":{"type":"Point","coordinates":[-59.33256,-38.44911]}},{"type":"Feature","properties":{"fna":"Estación San José","gna":"Estación","nam":"San José","fdc":"IGN/Ministerio de Transporte de la Nación","sag":"IGN","tipo":"Estación de ferrocarril","ign":"puntos_de_transporte_ferroviario_AN070.4677"},"geometry":{"type":"Point","coordinates":[-59.00718,-38.17645]}},{"type":"Feature","properties":{"fna":"Estación La Negra","gna":"Estación","nam":"La Negra","fdc":"IGN/Ministerio de Transporte de la Nación","sag":"IGN","tipo":"Estación de ferrocarril","ign":"puntos_de_transporte_ferroviario_AN070.4685"},"geometry":{"type":"Point","coordinates":[-59.31543,-37.79099]}},{"type":"Feature","properties":{"fna":"Estación Claraz","gna":"Estación","nam":"Claraz","fdc":"IGN/Ministerio de Transporte de la Nación","sag":"IGN","tipo":"Estación de ferrocarril","ign":"puntos_de_transporte_ferroviario_AN070.4686"},"geometry":{"type":"Point","coordinates":[-59.28596,-37.89016]}}]}
