{"type":"FeatureCollection","features":[{"type":"Feature","properties":{"fdc":"IGN","sag":"IGN","tipo":"Bosque artificial (forestación)","ign":"vegetacion_arborea_060301.1409"},"geometry":{"type":"MultiPolygon","coordinates":[[[[-59.83074,-37.94469],[-59.82681,-37.94783],[-59.8265,-37.94783],[-59.8271,-37.94973],[-59.82619,-37.95307],[-59.82227,-37.95497],[-59.82167,-37.95497],[-59.81504,-37.95496],[-59.81444,-37.95496],[-59.81173,-37.95686],[-59.80961,-37.95924],[-59.8075,-37.96138],[-59.80599,-37.9621],[-59.80328,-37.96424],[-59.80297,-37.9671],[-59.80056,-37.96972],[-59.79694,-37.97209],[-59.79362,-37.97447],[-59.7921,-37.97781],[-59.78848,-37.97876],[-59.78728,-37.9766],[-59.78759,-37.9747],[-59.787,-37.97041],[-59.7852,-37.96873],[-59.78279,-37.96873],[-59.77918,-37.9692],[-59.77435,-37.97134],[-59.77254,-37.97348],[-59.76862,-37.97681],[-59.75988,-37.97798],[-59.75897,-37.97822],[-59.75385,-37.97964],[-59.75142,-37.98321],[-59.75111,-37.98535],[-59.7487,-37.98893],[-59.74748,-37.99083],[-59.74737,-37.99089],[-59.74573,-37.99175],[-59.75051,-37.99545],[-59.75662,-38],[-59.76564,-38.00743],[-59.76422,-38.00869],[-59.76345,-38.00937],[-59.76471,-38.01055],[-59.76345,-38.01055],[-59.76019,-38.00957],[-59.75869,-38.00871],[-59.75446,-38.01204],[-59.75296,-38.01236],[-59.74996,-38.01429],[-59.74859,-38.01601],[-59.74492,-38.01654],[-59.7422,-38.01654],[-59.73961,-38.01588],[-59.73811,-38.01545],[-59.73893,-38.01502],[-59.73975,-38.0148],[-59.74384,-38.0146],[-59.74833,-38.01375],[-59.74929,-38.01117],[-59.75051,-38.01028],[-59.74603,-38.00933],[-59.74412,-38.01126],[-59.74071,-38.01287],[-59.73853,-38.01373],[-59.73255,-38.01123],[-59.73024,-38.00962],[-59.72969,-38.00893],[-59.72629,-38.01058],[-59.72343,-38.01089],[-59.72084,-38.01197],[-59.71688,-38.01443],[-59.71266,-38.01593],[-59.70938,-38.01678],[-59.70639,-38.01699],[-59.7023,-38.01687],[-59.69958,-38.01697],[-59.69427,-38.01814],[-59.69086,-38.01867],[-59.68759,-38.01931],[-59.6861,-38.01877],[-59.6861,-38.01812],[-59.69114,-38.01652],[-59.69346,-38.01566],[-59.6951,-38.01481],[-59.69594,-38.01395],[-59.69714,-38.01395],[-59.69892,-38.01396],[-59.70369,-38.01278],[-59.70655,-38.01182],[-59.70955,-38.01162],[-59.71308,-38.01076],[-59.71527,-38.00915],[-59.71949,-38.00776],[-59.72167,-38.00755],[-59.7229,-38.0082],[-59.7248,-38.00745],[-59.7258,-38.00636],[-59.72455,-38.00389],[-59.72469,-38.00024],[-59.7247,-38],[-59.72472,-37.99957],[-59.72497,-37.99755],[-59.72486,-37.9956],[-59.72503,-37.99504],[-59.7244,-37.98928],[-59.724,-37.98618],[-59.72367,-37.9834],[-59.72356,-37.98195],[-59.72351,-37.98183],[-59.72358,-37.98177],[-59.72274,-37.977],[-59.72232,-37.97223],[-59.72234,-37.9678],[-59.72236,-37.96236],[-59.72064,-37.96201],[-59.71719,-37.96473],[-59.71286,-37.97017],[-59.7051,-37.97559],[-59.69949,-37.98001],[-59.69043,-37.98577],[-59.68612,-37.98814],[-59.67965,-37.99187],[-59.67231,-37.9973],[-59.68226,-37.99881],[-59.69963,-37.99186],[-59.70041,-37.99314],[-59.7,-37.99637],[-59.69941,-37.99837],[-59.69918,-37.99937],[-59.69882,-37.99984],[-59.69858,-38],[-59.69095,-38.00584],[-59.68603,-38.00806],[-59.67758,-38.01137],[-59.66914,-38.01496],[-59.66383,-38.023],[-59.65222,-38.02769],[-59.648,-38.02879],[-59.63777,-38.03737],[-59.6381,-38.04293],[-59.62962,-38.05179],[-59.6236,-38.06011],[-59.61736,-38.06009],[-59.61728,-38.06009],[-59.61644,-38.05975],[-59.62051,-38.06339],[-59.62159,-38.06313],[-59.62658,-38.06127],[-59.62944,-38.05983],[-59.62944,-38.05847],[-59.63018,-38.05434],[-59.63255,-38.05322],[-59.63731,-38.05193],[-59.63992,-38.05081],[-59.64278,-38.04913],[-59.64492,-38.04801],[-59.64991,-38.04577],[-59.65157,-38.04672],[-59.64918,-38.04896],[-59.64632,-38.0512],[-59.64347,-38.05213],[-59.64157,-38.054],[-59.6399,-38.05494],[-59.63729,-38.05493],[-59.63634,-38.0553],[-59.63538,-38.05717],[-59.63461,-38.05839],[-59.63609,-38.05886],[-59.63774,-38.05962],[-59.63987,-38.0615],[-59.6427,-38.06395],[-59.64388,-38.0662],[-59.64499,-38.06828],[-59.64684,-38.06809],[-59.64795,-38.06787],[-59.64813,-38.06815],[-59.64914,-38.06846],[-59.64984,-38.06883],[-59.65029,-38.06982],[-59.65056,-38.07095],[-59.65133,-38.07185],[-59.65192,-38.07167],[-59.65287,-38.07092],[-59.65549,-38.06943],[-59.65716,-38.06793],[-59.66002,-38.06625],[-59.66334,-38.06514],[-59.66477,-38.06364],[-59.66715,-38.06196],[-59.67095,-38.06197],[-59.67285,-38.06197],[-59.67546,-38.06048],[-59.67879,-38.05824],[-59.68046,-38.05824],[-59.6833,-38.05862],[-59.68614,-38.06032],[-59.68708,-38.06258],[-59.68779,-38.06408],[-59.6847,-38.06351],[-59.68281,-38.06237],[-59.68021,-38.06143],[-59.67831,-38.0618],[-59.67759,-38.06405],[-59.6771,-38.06508],[-59.67986,-38.06667],[-59.6782,-38.06904],[-59.67834,-38.07141],[-59.68209,-38.07262],[-59.6857,-38.07239],[-59.68781,-38.07346],[-59.68825,-38.07442],[-59.69171,-38.07466],[-59.69514,-38.07377],[-59.69588,-38.07249],[-59.69598,-38.07231],[-59.69728,-38.06625],[-59.69814,-38.06322],[-59.69944,-38.05952],[-59.70456,-38.05785],[-59.71307,-38.06023],[-59.71817,-38.0626],[-59.72368,-38.06935],[-59.73303,-38.07341],[-59.73646,-38.06904],[-59.73733,-38.06332],[-59.74076,-38.05861],[-59.74435,-38.05219],[-59.74418,-38.0522],[-59.74369,-38.05255],[-59.74264,-38.05298],[-59.74242,-38.05267],[-59.74242,-38.05185],[-59.74265,-38.05111],[-59.74293,-38.0502],[-59.74337,-38.04959],[-59.74414,-38.04819],[-59.74508,-38.04672],[-59.74537,-38.04515],[-59.74393,-38.0438],[-59.74207,-38.04245],[-59.74114,-38.04206],[-59.74054,-38.04136],[-59.74137,-38.03984],[-59.74219,-38.03923],[-59.74253,-38.03839],[-59.74385,-38.03819],[-59.7455,-38.03815],[-59.74637,-38.0392],[-59.74692,-38.04081],[-59.7468,-38.0425],[-59.74652,-38.04346],[-59.7474,-38.04399],[-59.74844,-38.04603],[-59.74904,-38.04704],[-59.74931,-38.04816],[-59.74925,-38.04934],[-59.75008,-38.05025],[-59.75062,-38.05036],[-59.75089,-38.0501],[-59.75118,-38.04991],[-59.75156,-38.05052],[-59.75178,-38.05078],[-59.75183,-38.05187],[-59.75259,-38.05317],[-59.75314,-38.05461],[-59.75319,-38.05566],[-59.75225,-38.05582],[-59.75138,-38.05521],[-59.75074,-38.05467],[-59.75183,-38.05729],[-59.75535,-38.06171],[-59.75693,-38.06269],[-59.77435,-38.07417],[-59.78203,-38.06947],[-59.77353,-38.06407],[-59.78164,-38.05769],[-59.78547,-38.05938],[-59.80254,-38.04593],[-59.79787,-38.04256],[-59.8047,-38.03685],[-59.7979,-38.03178],[-59.80323,-38.02709],[-59.80205,-38.0262],[-59.79964,-38.02508],[-59.79762,-38.0246],[-59.79683,-38.02328],[-59.79466,-38.02274],[-59.79375,-38.02221],[-59.7929,-38.02187],[-59.79193,-38.02168],[-59.79066,-38.02143],[-59.78915,-38.02057],[-59.78794,-38.01989],[-59.7863,-38.01946],[-59.78532,-38.01922],[-59.78393,-38.01921],[-59.78308,-38.0187],[-59.78212,-38.01811],[-59.78145,-38.01719],[-59.78066,-38.01662],[-59.77987,-38.01643],[-59.77866,-38.01488],[-59.7783,-38.01397],[-59.77813,-38.01297],[-59.77813,-38.01164],[-59.77819,-38.0108],[-59.7788,-38.00975],[-59.77899,-38.0085],[-59.77899,-38.00807],[-59.77911,-38.00764],[-59.78033,-38.00692],[-59.78033,-38.00615],[-59.78088,-38.00567],[-59.78155,-38.0051],[-59.78222,-38.00452],[-59.78313,-38.00409],[-59.7855,-38.00362],[-59.78613,-38.00332],[-59.78835,-38.00329],[-59.78909,-38.00371],[-59.78923,-38.00356],[-59.79064,-38.00325],[-59.79265,-38.00341],[-59.79486,-38.00533],[-59.79486,-38.00596],[-59.79606,-38.00787],[-59.79626,-38.00931],[-59.79625,-38.01186],[-59.79765,-38.01297],[-59.80047,-38.01282],[-59.80289,-38.01266],[-59.80571,-38.01267],[-59.81054,-38.01188],[-59.81296,-38.01029],[-59.81538,-38.00934],[-59.81659,-38.00775],[-59.819,-38.00568],[-59.82142,-38.00489],[-59.82324,-38.00378],[-59.82666,-38.00267],[-59.83008,-38.00156],[-59.83391,-38.00125],[-59.83773,-38.00141],[-59.84095,-38.00142],[-59.84397,-38.0019],[-59.84699,-38.00206],[-59.8498,-38.00222],[-59.85242,-38.00382],[-59.85061,-38.00381],[-59.8488,-38.00365],[-59.84396,-38.00428],[-59.84095,-38.00396],[-59.83752,-38.00316],[-59.83229,-38.00331],[-59.83048,-38.00379],[-59.82766,-38.00394],[-59.82464,-38.00489],[-59.82424,-38.00537],[-59.82182,-38.00823],[-59.82141,-38.00935],[-59.81798,-38.01252],[-59.81697,-38.0138],[-59.81476,-38.01443],[-59.81134,-38.01506],[-59.80892,-38.01506],[-59.80651,-38.01506],[-59.80309,-38.01505],[-59.80046,-38.016],[-59.80087,-38.01696],[-59.80126,-38.01919],[-59.80137,-38.02045],[-59.80327,-38.02158],[-59.80669,-38.02302],[-59.8093,-38.02637],[-59.81311,-38.02924],[-59.81492,-38.03052],[-59.81934,-38.03196],[-59.82116,-38.031],[-59.82237,-38.02989],[-59.82659,-38.03244],[-59.82618,-38.03451],[-59.82981,-38.03388],[-59.8298,-38.03548],[-59.82899,-38.03802],[-59.82879,-38.03834],[-59.82878,-38.04138],[-59.82878,-38.04328],[-59.82737,-38.04582],[-59.82736,-38.04821],[-59.82856,-38.0514],[-59.82855,-38.05426],[-59.82774,-38.05665],[-59.82666,-38.05902],[-59.82679,-38.05917],[-59.82755,-38.05919],[-59.82812,-38.05959],[-59.82899,-38.06012],[-59.83045,-38.06081],[-59.83238,-38.06213],[-59.83344,-38.06287],[-59.83544,-38.06397],[-59.83664,-38.06482],[-59.8381,-38.06535],[-59.83917,-38.06679],[-59.84363,-38.0667],[-59.84584,-38.06925],[-59.84825,-38.07244],[-59.85207,-38.07531],[-59.8555,-38.07277],[-59.85571,-38.06767],[-59.85551,-38.06449],[-59.85532,-38.06083],[-59.8511,-38.05891],[-59.84949,-38.05508],[-59.84487,-38.05046],[-59.85322,-38.04486],[-59.85354,-38.04554],[-59.86299,-38.05176],[-59.87146,-38.04556],[-59.87302,-38.0468],[-59.87357,-38.04572],[-59.87498,-38.04237],[-59.87519,-38.03951],[-59.8757,-38.03569],[-59.87732,-38.03123],[-59.87894,-38.0263],[-59.87995,-38.02328],[-59.8837,-38.02246],[-59.88176,-38.02534],[-59.88116,-38.02662],[-59.88034,-38.02837],[-59.88014,-38.03299],[-59.87953,-38.03474],[-59.87852,-38.03888],[-59.87912,-38.04015],[-59.87831,-38.04238],[-59.8773,-38.04334],[-59.87484,-38.04824],[-59.87548,-38.04874],[-59.8789,-38.04987],[-59.891,-38.04144],[-59.88918,-38.04016],[-59.89604,-38.03444],[-59.90126,-38.03858],[-59.90751,-38.03397],[-59.89967,-38.02823],[-59.90934,-38.01964],[-59.90572,-38.01693],[-59.91781,-38.01073],[-59.90588,-38.0],[-59.9058,-37.99991],[-59.90553,-37.99972],[-59.90482,-37.9991],[-59.89976,-37.9932],[-59.89697,-37.99529],[-59.89717,-37.99678],[-59.89899,-37.99858],[-59.89717,-37.99868],[-59.89476,-37.99797],[-59.89386,-37.99725],[-59.89296,-37.99582],[-59.89116,-37.99368],[-59.89025,-37.99152],[-59.89025,-37.9889],[-59.89087,-37.98581],[-59.89177,-37.98366],[-59.89178,-37.98152],[-59.89148,-37.9808],[-59.88997,-37.97937],[-59.88907,-37.97674],[-59.88907,-37.97484],[-59.88877,-37.97412],[-59.88877,-37.97269],[-59.88757,-37.97079],[-59.88517,-37.96864],[-59.88547,-37.96625],[-59.88398,-37.96196],[-59.88217,-37.9591],[-59.88248,-37.95719],[-59.88248,-37.95481],[-59.88218,-37.95385],[-59.88098,-37.95195],[-59.87887,-37.95052],[-59.87647,-37.94956],[-59.87496,-37.94932],[-59.87255,-37.94955],[-59.86804,-37.95003],[-59.86473,-37.94955],[-59.86263,-37.94764],[-59.86052,-37.94572],[-59.85751,-37.94501],[-59.85269,-37.94548],[-59.85139,-37.94537],[-59.85088,-37.94738],[-59.85238,-37.94857],[-59.85449,-37.94977],[-59.8572,-37.95192],[-59.8587,-37.95264],[-59.86111,-37.95431],[-59.86322,-37.95502],[-59.86622,-37.95789],[-59.86863,-37.95789],[-59.87194,-37.9579],[-59.87555,-37.95957],[-59.87675,-37.96076],[-59.88036,-37.96196],[-59.88216,-37.96339],[-59.88397,-37.96482],[-59.88427,-37.96625],[-59.88427,-37.96769],[-59.88155,-37.96887],[-59.88035,-37.96863],[-59.87614,-37.9672],[-59.87584,-37.96505],[-59.87313,-37.96457],[-59.87223,-37.96362],[-59.86922,-37.96099],[-59.8635,-37.96075],[-59.85899,-37.95979],[-59.85658,-37.95907],[-59.85538,-37.95764],[-59.85388,-37.95549],[-59.85267,-37.9543],[-59.85027,-37.95239],[-59.84787,-37.95072],[-59.84365,-37.95024],[-59.84324,-37.94912],[-59.84215,-37.94904],[-59.84005,-37.94785],[-59.83773,-37.94617],[-59.83569,-37.94617],[-59.83238,-37.94521],[-59.83074,-37.94469]],[[-59.87067,-37.9946],[-59.87067,-37.9927],[-59.86977,-37.99126],[-59.86676,-37.99079],[-59.86315,-37.99031],[-59.85953,-37.98839],[-59.85894,-37.98625],[-59.85563,-37.98553],[-59.85231,-37.98362],[-59.85503,-37.98279],[-59.85503,-37.98172],[-59.85774,-37.98124],[-59.85925,-37.98124],[-59.85986,-37.97838],[-59.85896,-37.97695],[-59.85685,-37.97623],[-59.85505,-37.97528],[-59.85505,-37.97337],[-59.85384,-37.97313],[-59.85204,-37.97313],[-59.84932,-37.97432],[-59.84782,-37.97599],[-59.84571,-37.97598],[-59.8433,-37.9755],[-59.84391,-37.9736],[-59.84481,-37.97288],[-59.84752,-37.97193],[-59.85023,-37.9705],[-59.85626,-37.96836],[-59.85957,-37.96861],[-59.86031,-37.96997],[-59.86409,-37.96814],[-59.8677,-37.96957],[-59.87222,-37.97029],[-59.87643,-37.97078],[-59.87974,-37.97173],[-59.88095,-37.97435],[-59.88094,-37.97555],[-59.88305,-37.97651],[-59.88515,-37.9777],[-59.88545,-37.97889],[-59.88515,-37.98103],[-59.88304,-37.98175],[-59.88123,-37.98198],[-59.87792,-37.97983],[-59.87763,-37.97769],[-59.87763,-37.97578],[-59.87763,-37.97483],[-59.87582,-37.97459],[-59.87281,-37.97339],[-59.8707,-37.97315],[-59.868,-37.97291],[-59.86619,-37.97267],[-59.86318,-37.97195],[-59.86077,-37.97338],[-59.86227,-37.97505],[-59.86377,-37.97624],[-59.86437,-37.97863],[-59.86196,-37.97958],[-59.86166,-37.9822],[-59.86346,-37.98268],[-59.86376,-37.98483],[-59.86737,-37.9853],[-59.87039,-37.98412],[-59.8728,-37.98317],[-59.87581,-37.98198],[-59.88003,-37.98198],[-59.88123,-37.98365],[-59.87972,-37.98532],[-59.87821,-37.98651],[-59.8758,-37.98865],[-59.8764,-37.98985],[-59.87911,-37.99199],[-59.8779,-37.9939],[-59.87639,-37.9939],[-59.8773,-37.99461],[-59.8791,-37.99557],[-59.8815,-37.99747],[-59.88211,-37.99939],[-59.8797,-37.99938],[-59.87608,-37.99866],[-59.87488,-37.99747],[-59.87488,-37.99652],[-59.87488,-37.9958],[-59.87217,-37.99556],[-59.87067,-37.9946]],[[-59.67775,-38.02541],[-59.68036,-38.02654],[-59.6825,-38.02579],[-59.68438,-38.02937],[-59.68531,-38.0318],[-59.68482,-38.03574],[-59.68861,-38.03763],[-59.68956,-38.03763],[-59.69236,-38.04021],[-59.69382,-38.03952],[-59.69619,-38.04065],[-59.69761,-38.04028],[-59.69975,-38.03991],[-59.70354,-38.04048],[-59.70568,-38.04049],[-59.70995,-38.04068],[-59.71279,-38.04088],[-59.7154,-38.04108],[-59.71871,-38.04296],[-59.72203,-38.04428],[-59.72012,-38.0454],[-59.71776,-38.04445],[-59.71586,-38.04389],[-59.71349,-38.04313],[-59.71159,-38.04313],[-59.7097,-38.04293],[-59.70732,-38.04274],[-59.70424,-38.04274],[-59.70235,-38.04273],[-59.69736,-38.0429],[-59.69642,-38.04272],[-59.69262,-38.04271],[-59.69114,-38.04262],[-59.69111,-38.04305],[-59.69039,-38.04433],[-59.68991,-38.04564],[-59.68977,-38.04654],[-59.68906,-38.04612],[-59.68882,-38.04541],[-59.68825,-38.04519],[-59.68702,-38.04492],[-59.68621,-38.0448],[-59.68489,-38.0442],[-59.68375,-38.04371],[-59.68271,-38.0428],[-59.68257,-38.04221],[-59.68263,-38.0418],[-59.67958,-38.04229],[-59.67791,-38.04192],[-59.67579,-38.04041],[-59.67342,-38.03965],[-59.67034,-38.03852],[-59.66773,-38.0387],[-59.66678,-38.0387],[-59.66703,-38.03644],[-59.66988,-38.03532],[-59.67154,-38.03458],[-59.67229,-38.03306],[-59.67227,-38.03304],[-59.67216,-38.03299],[-59.67206,-38.03292],[-59.67206,-38.03289],[-59.67206,-38.03285],[-59.67211,-38.03282],[-59.67229,-38.03281],[-59.67244,-38.0328],[-59.67256,-38.03277],[-59.67253,-38.03264],[-59.67251,-38.03259],[-59.6726,-38.03247],[-59.67272,-38.03231],[-59.6728,-38.03215],[-59.67281,-38.03205],[-59.67285,-38.03197],[-59.67289,-38.03193],[-59.67287,-38.03188],[-59.67274,-38.03196],[-59.6726,-38.03204],[-59.67242,-38.03209],[-59.6722,-38.03214],[-59.67194,-38.03211],[-59.67172,-38.03199],[-59.67163,-38.03187],[-59.67169,-38.03176],[-59.67174,-38.03171],[-59.6718,-38.03167],[-59.67184,-38.03157],[-59.67196,-38.03152],[-59.67205,-38.03147],[-59.67208,-38.03142],[-59.67199,-38.03136],[-59.67181,-38.03135],[-59.67167,-38.0314],[-59.67153,-38.03145],[-59.67146,-38.03146],[-59.67137,-38.03143],[-59.67136,-38.03133],[-59.67144,-38.0312],[-59.67151,-38.03113],[-59.67155,-38.03108],[-59.67162,-38.03106],[-59.67165,-38.03108],[-59.67168,-38.03111],[-59.67173,-38.03111],[-59.67179,-38.03107],[-59.67183,-38.03101],[-59.67185,-38.03092],[-59.67187,-38.03086],[-59.67192,-38.03083],[-59.67197,-38.03078],[-59.67192,-38.03069],[-59.67179,-38.03065],[-59.67165,-38.03062],[-59.6715,-38.03058],[-59.67132,-38.03058],[-59.67121,-38.03058],[-59.6711,-38.0306],[-59.67103,-38.0306],[-59.671,-38.03061],[-59.671,-38.03052],[-59.67097,-38.03031],[-59.67092,-38.03004],[-59.67088,-38.02987],[-59.6708,-38.02965],[-59.67068,-38.02947],[-59.67055,-38.02926],[-59.6704,-38.02911],[-59.67046,-38.02897],[-59.67063,-38.02888],[-59.67071,-38.02888],[-59.67095,-38.02889],[-59.671,-38.02889],[-59.67115,-38.02889],[-59.67131,-38.02886],[-59.67152,-38.02891],[-59.6718,-38.02891],[-59.67192,-38.02889],[-59.672,-38.02884],[-59.67206,-38.02881],[-59.6721,-38.02879],[-59.67231,-38.02878],[-59.67237,-38.02881],[-59.67246,-38.02885],[-59.67253,-38.02895],[-59.67258,-38.02908],[-59.67257,-38.02924],[-59.67253,-38.02932],[-59.67256,-38.02942],[-59.67263,-38.0296],[-59.67276,-38.02984],[-59.67295,-38.03001],[-59.67313,-38.03012],[-59.6732,-38.03024],[-59.67327,-38.03034],[-59.67312,-38.02929],[-59.67317,-38.02894],[-59.67394,-38.02802],[-59.67609,-38.02596],[-59.67775,-38.02541]],[[-59.82404,-37.97142],[-59.82614,-37.97262],[-59.82854,-37.97405],[-59.82914,-37.97667],[-59.83094,-37.97906],[-59.83335,-37.98169],[-59.83696,-37.98121],[-59.83968,-37.97884],[-59.84239,-37.97765],[-59.84359,-37.98003],[-59.84268,-37.98265],[-59.84267,-37.98551],[-59.84267,-37.98861],[-59.83965,-37.99099],[-59.83935,-37.99218],[-59.83633,-37.99408],[-59.83332,-37.99361],[-59.83091,-37.99289],[-59.83091,-37.99149],[-59.82941,-37.99121],[-59.82671,-37.98883],[-59.8252,-37.98716],[-59.82491,-37.98429],[-59.82491,-37.98239],[-59.82492,-37.97976],[-59.82282,-37.97643],[-59.81921,-37.97403],[-59.81922,-37.97237],[-59.82042,-37.97047],[-59.82224,-37.96927],[-59.82404,-37.97142]],[[-59.85085,-37.96264],[-59.85055,-37.96455],[-59.84814,-37.96454],[-59.84543,-37.96454],[-59.84362,-37.96621],[-59.84091,-37.9674],[-59.8376,-37.96691],[-59.83579,-37.96739],[-59.83599,-37.96791],[-59.83548,-37.96929],[-59.83548,-37.97144],[-59.83307,-37.97167],[-59.83157,-37.97001],[-59.83097,-37.96833],[-59.83038,-37.96571],[-59.82917,-37.96452],[-59.82887,-37.96309],[-59.83279,-37.96071],[-59.8349,-37.95856],[-59.83702,-37.95666],[-59.84003,-37.95667],[-59.84093,-37.95858],[-59.84273,-37.95977],[-59.84484,-37.96001],[-59.84634,-37.96025],[-59.84724,-37.96025],[-59.84965,-37.96073],[-59.85025,-37.96193],[-59.85085,-37.96264]],[[-59.88902,-38.0143],[-59.88668,-38.0147],[-59.88519,-38.01429],[-59.88376,-38.01334],[-59.88216,-38.01203],[-59.88205,-38.01135],[-59.88079,-38.0113],[-59.87959,-38.01144],[-59.87804,-38.01148],[-59.8753,-38.01148],[-59.87399,-38.01152],[-59.87244,-38.01184],[-59.87135,-38.01188],[-59.86889,-38.01188],[-59.86643,-38.01188],[-59.86523,-38.01133],[-59.86512,-38.00988],[-59.86598,-38.0088],[-59.8689,-38.00826],[-59.87164,-38.00826],[-59.87216,-38.0079],[-59.87267,-38.00654],[-59.87422,-38.0055],[-59.87582,-38.00659],[-59.87668,-38.00768],[-59.87777,-38.00818],[-59.87994,-38.00795],[-59.8816,-38.008],[-59.88308,-38.0089],[-59.8856,-38.01004],[-59.88697,-38.01086],[-59.88886,-38.01095],[-59.89235,-38.00991],[-59.89338,-38.00801],[-59.89504,-38.00706],[-59.89635,-38.0062],[-59.89796,-38.00485],[-59.89922,-38.00417],[-59.90047,-38.0039],[-59.90096,-38.00353],[-59.90117,-38.00359],[-59.90173,-38.00404],[-59.90225,-38.00489],[-59.90093,-38.00666],[-59.89864,-38.0072],[-59.89744,-38.0082],[-59.89566,-38.01032],[-59.89337,-38.01168],[-59.89057,-38.01339],[-59.88902,-38.0143]],[[-59.85032,-38.02211],[-59.85044,-38.0228],[-59.85064,-38.02334],[-59.85094,-38.02338],[-59.85099,-38.02364],[-59.85137,-38.02399],[-59.8515,-38.02459],[-59.85181,-38.02553],[-59.85187,-38.02638],[-59.85199,-38.02693],[-59.85212,-38.02773],[-59.85237,-38.02838],[-59.85251,-38.03012],[-59.8518,-38.03102],[-59.85142,-38.03107],[-59.85073,-38.03102],[-59.84808,-38.03067],[-59.84751,-38.03062],[-59.84695,-38.02982],[-59.84619,-38.02977],[-59.84531,-38.02942],[-59.84399,-38.02852],[-59.84342,-38.02867],[-59.84235,-38.02732],[-59.84179,-38.02647],[-59.84166,-38.02557],[-59.84192,-38.02457],[-59.84261,-38.02407],[-59.84343,-38.02288],[-59.84431,-38.02198],[-59.84473,-38.02204],[-59.84552,-38.02198],[-59.84663,-38.0217],[-59.84731,-38.02145],[-59.84818,-38.02123],[-59.84902,-38.02095],[-59.84965,-38.02108],[-59.85016,-38.02158],[-59.85032,-38.02211]],[[-59.81194,-37.99286],[-59.81373,-37.99644],[-59.81463,-37.99834],[-59.81374,-37.9992],[-59.81194,-37.99868],[-59.8084,-37.99648],[-59.80591,-37.99356],[-59.80713,-37.98927],[-59.80834,-37.98618],[-59.81015,-37.98427],[-59.81045,-37.98451],[-59.81255,-37.98618],[-59.81195,-37.98976],[-59.81194,-37.99286]],[[-59.73132,-38.01665],[-59.73154,-38.01687],[-59.73259,-38.01919],[-59.73284,-38.02213],[-59.73336,-38.02529],[-59.73441,-38.03055],[-59.73599,-38.03392],[-59.73439,-38.03581],[-59.732,-38.03454],[-59.73122,-38.03096],[-59.73096,-38.0276],[-59.73044,-38.02486],[-59.72966,-38.02045],[-59.72781,-38.01854],[-59.72755,-38.0156],[-59.72835,-38.01434],[-59.73019,-38.01551],[-59.73132,-38.01665]],[[-59.76581,-38.01902],[-59.76548,-38.01979],[-59.76476,-38.01957],[-59.76391,-38.01933],[-59.76368,-38.01988],[-59.7639,-38.02023],[-59.76389,-38.02063],[-59.76343,-38.02089],[-59.76271,-38.0209],[-59.76176,-38.02073],[-59.76148,-38.02033],[-59.76157,-38.01997],[-59.76124,-38.01946],[-59.76089,-38.01912],[-59.76063,-38.01876],[-59.76042,-38.01827],[-59.76067,-38.01773],[-59.76097,-38.01667],[-59.7617,-38.0167],[-59.76214,-38.01593],[-59.76249,-38.01548],[-59.76293,-38.01526],[-59.76345,-38.01526],[-59.7639,-38.01573],[-59.76441,-38.01646],[-59.7648,-38.01707],[-59.7651,-38.01761],[-59.76527,-38.01792],[-59.76566,-38.01826],[-59.76581,-38.01902]],[[-59.86414,-38.03581],[-59.86451,-38.03596],[-59.86482,-38.03595],[-59.86568,-38.0362],[-59.86631,-38.03642],[-59.86677,-38.03706],[-59.86684,-38.03824],[-59.86628,-38.03848],[-59.86597,-38.03905],[-59.86544,-38.03905],[-59.86472,-38.03905],[-59.86407,-38.03903],[-59.86316,-38.03879],[-59.86269,-38.03833],[-59.86235,-38.03778],[-59.8623,-38.03726],[-59.86223,-38.03678],[-59.86249,-38.03612],[-59.86312,-38.03566],[-59.86414,-38.03581]]]]}},{"type":"Feature","properties":{"fdc":"IGN","sag":"IGN","tipo":"Bosque artificial (forestación)","ign":"vegetacion_arborea_060301.1523"},"geometry":{"type":"MultiPolygon","coordinates":[[[[-59.38915,-38.5885],[-59.39637,-38.58334],[-59.3849,-38.57409],[-59.37109,-38.58439],[-59.37726,-38.58952],[-59.3821,-38.59354],[-59.38915,-38.5885]]]]}},{"type":"Feature","properties":{"fdc":"IGN","sag":"IGN","tipo":"Bosque artificial (forestación)","ign":"vegetacion_arborea_060301.1495"},"geometry":{"type":"MultiPolygon","coordinates":[[[[-59.15915,-38.39655],[-59.16704,-38.40222],[-59.18397,-38.38975],[-59.17506,-38.38325],[-59.15915,-38.39655]]]]}},{"type":"Feature","properties":{"fdc":"IGN","sag":"IGN","tipo":"Bosque artificial (forestación)","ign":"vegetacion_arborea_060301.1462"},"geometry":{"type":"MultiPolygon","coordinates":[[[[-59.31535,-38.274],[-59.32668,-38.2844],[-59.33583,-38.27624],[-59.33482,-38.27623],[-59.33383,-38.27437],[-59.33317,-38.27304],[-59.33251,-38.27224],[-59.33117,-38.27144],[-59.33023,-38.26956],[-59.32652,-38.26585],[-59.31535,-38.274]]]]}},{"type":"Feature","properties":{"fdc":"IGN","sag":"IGN","tipo":"Bosque artificial (forestación)","ign":"vegetacion_arborea_060301.1397"},"geometry":{"type":"MultiPolygon","coordinates":[[[[-59.29645,-37.85475],[-59.29357,-37.85599],[-59.29264,-37.85397],[-59.29169,-37.85244],[-59.28758,-37.84888],[-59.28601,-37.84635],[-59.28537,-37.8466],[-59.28281,-37.84834],[-59.27992,-37.8501],[-59.27799,-37.85211],[-59.27351,-37.8541],[-59.26854,-37.85569],[-59.26803,-37.85695],[-59.26675,-37.85944],[-59.26568,-37.86076],[-59.26579,-37.86113],[-59.26928,-37.86292],[-59.27182,-37.86395],[-59.27467,-37.86573],[-59.27592,-37.86852],[-59.27781,-37.87055],[-59.28386,-37.87185],[-59.28671,-37.87339],[-59.28669,-37.87592],[-59.28506,-37.87868],[-59.28281,-37.88094],[-59.28087,-37.88371],[-59.28376,-37.88221],[-59.28811,-37.87985],[-59.28879,-37.87948],[-59.29113,-37.87821],[-59.294,-37.87722],[-59.30169,-37.87348],[-59.30485,-37.87602],[-59.30647,-37.87426],[-59.31037,-37.87356],[-59.31256,-37.87349],[-59.31384,-37.87193],[-59.31678,-37.86963],[-59.31973,-37.86699],[-59.32347,-37.86274],[-59.32762,-37.86124],[-59.30769,-37.84571],[-59.29645,-37.85475]]]]}},{"type":"Feature","properties":{"fdc":"IGN","sag":"IGN","tipo":"Bosque artificial (forestación)","ign":"vegetacion_arborea_060301.1416"},"geometry":{"type":"MultiPolygon","coordinates":[[[[-59.53132,-38.02876],[-59.53632,-38.02793],[-59.54272,-38.02768],[-59.54488,-38.02459],[-59.53992,-38.02006],[-59.55318,-38.00547],[-59.54696,-38],[-59.54678,-37.99985],[-59.54582,-37.99908],[-59.54535,-37.99865],[-59.54503,-37.99907],[-59.54482,-37.9995],[-59.54459,-37.99992],[-59.54452,-38],[-59.53178,-38.01383],[-59.53283,-38.01553],[-59.52853,-38.0203],[-59.52708,-38.02452],[-59.52777,-38.0279],[-59.53132,-38.02876]]]]}},{"type":"Feature","properties":{"fdc":"IGN","sag":"IGN","tipo":"Bosque artificial (forestación)","ign":"vegetacion_arborea_060301.1398"},"geometry":{"type":"MultiPolygon","coordinates":[[[[-59.50318,-37.94398],[-59.50372,-37.94233],[-59.50267,-37.94064],[-59.49949,-37.93877],[-59.49503,-37.93876],[-59.491,-37.93857],[-59.48591,-37.93753],[-59.48399,-37.93753],[-59.48229,-37.93786],[-59.48018,-37.93616],[-59.4772,-37.93733],[-59.47316,-37.93731],[-59.46975,-37.93864],[-59.46761,-37.94082],[-59.46419,-37.94299],[-59.45973,-37.94331],[-59.45526,-37.94447],[-59.45333,-37.9458],[-59.45077,-37.94798],[-59.44778,-37.94931],[-59.44438,-37.95081],[-59.4416,-37.95214],[-59.43862,-37.95297],[-59.43436,-37.95362],[-59.43139,-37.95361],[-59.42799,-37.95275],[-59.42546,-37.95055],[-59.42548,-37.94786],[-59.42635,-37.94584],[-59.42913,-37.944],[-59.43063,-37.94199],[-59.43106,-37.94099],[-59.43066,-37.93813],[-59.42875,-37.93727],[-59.42664,-37.93558],[-59.4258,-37.9339],[-59.42625,-37.93121],[-59.42754,-37.92953],[-59.42925,-37.92802],[-59.43353,-37.92468],[-59.43843,-37.92117],[-59.44037,-37.91781],[-59.44019,-37.91462],[-59.44084,-37.91209],[-59.44383,-37.91042],[-59.44661,-37.90808],[-59.44619,-37.90724],[-59.44217,-37.90553],[-59.43963,-37.90435],[-59.43561,-37.90163],[-59.43096,-37.89925],[-59.42884,-37.89841],[-59.42758,-37.89739],[-59.42505,-37.89536],[-59.4259,-37.89469],[-59.4276,-37.8947],[-59.43121,-37.89371],[-59.43398,-37.89355],[-59.43716,-37.89407],[-59.43991,-37.89442],[-59.44374,-37.8946],[-59.44714,-37.89344],[-59.44991,-37.89194],[-59.4512,-37.8896],[-59.44973,-37.88757],[-59.44953,-37.88588],[-59.45146,-37.8837],[-59.45359,-37.88338],[-59.45721,-37.88087],[-59.45744,-37.87801],[-59.45639,-37.87683],[-59.45281,-37.87362],[-59.45027,-37.87226],[-59.44817,-37.87023],[-59.44563,-37.86853],[-59.44352,-37.86617],[-59.44057,-37.8633],[-59.4374,-37.8616],[-59.43153,-37.86363],[-59.432,-37.86376],[-59.43196,-37.86954],[-59.42894,-37.87373],[-59.42361,-37.8766],[-59.42161,-37.87817],[-59.41925,-37.8821],[-59.41825,-37.88393],[-59.41788,-37.88814],[-59.41652,-37.89313],[-59.4155,-37.89523],[-59.4128,-37.90126],[-59.41177,-37.90546],[-59.41174,-37.90888],[-59.41138,-37.91361],[-59.40966,-37.92044],[-59.40831,-37.92358],[-59.40527,-37.93067],[-59.40355,-37.93723],[-59.4035,-37.94302],[-59.40213,-37.94853],[-59.40142,-37.95378],[-59.39939,-37.95877],[-59.39838,-37.96061],[-59.39603,-37.96322],[-59.39302,-37.96689],[-59.39034,-37.96951],[-59.38631,-37.97474],[-59.38464,-37.97631],[-59.38231,-37.97682],[-59.37996,-37.97997],[-59.37756,-37.98784],[-59.37552,-37.99388],[-59.37566,-37.99607],[-59.37973,-37.99694],[-59.3848,-37.99917],[-59.3858,-38.0],[-59.3858,-38],[-59.4033,-38.01342],[-59.40943,-38.01484],[-59.42307,-38.00678],[-59.42051,-38.0017],[-59.41985,-38],[-59.41985,-38.0],[-59.41924,-37.99848],[-59.41951,-37.99662],[-59.41968,-37.99361],[-59.42011,-37.99294],[-59.42096,-37.99183],[-59.42183,-37.98981],[-59.42197,-37.99015],[-59.42297,-37.98904],[-59.4234,-37.98737],[-59.42272,-37.98457],[-59.42217,-37.98277],[-59.42022,-37.97851],[-59.41968,-37.97605],[-59.41983,-37.97449],[-59.42111,-37.97315],[-59.4221,-37.97271],[-59.42396,-37.97092],[-59.42453,-37.97015],[-59.42454,-37.96814],[-59.42455,-37.96646],[-59.42485,-37.96444],[-59.42557,-37.96333],[-59.42741,-37.96155],[-59.42869,-37.96178],[-59.43037,-37.96291],[-59.43306,-37.96236],[-59.43462,-37.96136],[-59.4359,-37.96036],[-59.43747,-37.9588],[-59.43903,-37.95747],[-59.43989,-37.95613],[-59.44202,-37.95435],[-59.44457,-37.95324],[-59.44698,-37.9527],[-59.44696,-37.95382],[-59.44555,-37.9547],[-59.44257,-37.95692],[-59.44115,-37.95826],[-59.43916,-37.95982],[-59.43688,-37.9616],[-59.43433,-37.96349],[-59.43333,-37.96449],[-59.43233,-37.96459],[-59.43064,-37.96458],[-59.42937,-37.96458],[-59.42838,-37.96547],[-59.42779,-37.96815],[-59.42721,-37.97061],[-59.42649,-37.97206],[-59.42521,-37.97362],[-59.42292,-37.9764],[-59.42263,-37.97729],[-59.42276,-37.97953],[-59.42359,-37.98132],[-59.42413,-37.98379],[-59.42426,-37.98536],[-59.42482,-37.98692],[-59.42436,-37.99095],[-59.42223,-37.99328],[-59.42179,-37.99474],[-59.42191,-37.99697],[-59.42361,-37.99831],[-59.42458,-38.0],[-59.42459,-38],[-59.4297,-38.01015],[-59.44199,-38.00597],[-59.45028,-38.01261],[-59.46481,-38.00608],[-59.46961,-38.00992],[-59.47447,-38.00543],[-59.47533,-38],[-59.4755,-37.99952],[-59.47571,-37.99689],[-59.47636,-37.99521],[-59.47637,-37.99302],[-59.4749,-37.99117],[-59.47322,-37.9883],[-59.47409,-37.98544],[-59.47644,-37.98343],[-59.47965,-37.98143],[-59.48135,-37.98059],[-59.48668,-37.9781],[-59.4884,-37.97642],[-59.49162,-37.97223],[-59.49332,-37.97122],[-59.4961,-37.96955],[-59.49717,-37.96888],[-59.49887,-37.96822],[-59.50206,-37.96705],[-59.50399,-37.96555],[-59.50549,-37.96336],[-59.50723,-37.95799],[-59.50723,-37.95715],[-59.5064,-37.95512],[-59.50198,-37.94821],[-59.5022,-37.94653],[-59.50285,-37.94501],[-59.50318,-37.94398]],[[-59.45078,-37.99767],[-59.44855,-37.99729],[-59.44933,-37.99632],[-59.4492,-37.99487],[-59.44864,-37.99408],[-59.44852,-37.99229],[-59.44923,-37.99151],[-59.45052,-37.98928],[-59.45096,-37.98705],[-59.45168,-37.98515],[-59.45226,-37.98347],[-59.45227,-37.98213],[-59.44988,-37.98011],[-59.44847,-37.97921],[-59.44778,-37.97753],[-59.44737,-37.97562],[-59.44752,-37.97361],[-59.44881,-37.97183],[-59.45293,-37.96883],[-59.4552,-37.9675],[-59.45789,-37.96651],[-59.45987,-37.96539],[-59.46102,-37.96406],[-59.46244,-37.9625],[-59.46259,-37.96116],[-59.46246,-37.96015],[-59.4619,-37.95903],[-59.46007,-37.95768],[-59.45966,-37.95667],[-59.46023,-37.95612],[-59.46093,-37.95578],[-59.46389,-37.9568],[-59.46586,-37.95837],[-59.46683,-37.96106],[-59.46781,-37.96207],[-59.46751,-37.96476],[-59.46595,-37.96564],[-59.46297,-37.9663],[-59.46043,-37.96708],[-59.45831,-37.96762],[-59.45533,-37.96917],[-59.45235,-37.9714],[-59.44993,-37.97374],[-59.44978,-37.97541],[-59.45032,-37.97742],[-59.45102,-37.97877],[-59.45201,-37.97911],[-59.45271,-37.97934],[-59.45496,-37.98125],[-59.45494,-37.98304],[-59.45352,-37.98426],[-59.45308,-37.98717],[-59.45307,-37.98818],[-59.45178,-37.98996],[-59.45135,-37.99141],[-59.45134,-37.99275],[-59.45161,-37.99443],[-59.45229,-37.99745],[-59.45078,-37.99767]]]]}},{"type":"Feature","properties":{"fdc":"IGN","sag":"IGN","tipo":"Bosque artificial (forestación)","ign":"vegetacion_arborea_060301.1399"},"geometry":{"type":"MultiPolygon","coordinates":[[[[-59.39412,-37.86583],[-59.38783,-37.86511],[-59.38496,-37.8656],[-59.37952,-37.86709],[-59.37539,-37.86631],[-59.37462,-37.866],[-59.37189,-37.87007],[-59.36985,-37.87345],[-59.36957,-37.87644],[-59.36879,-37.87943],[-59.3665,-37.88201],[-59.36449,-37.8826],[-59.36145,-37.88398],[-59.35966,-37.88736],[-59.35662,-37.88894],[-59.35559,-37.89212],[-59.35557,-37.89472],[-59.35427,-37.8997],[-59.35225,-37.90128],[-59.3487,-37.90345],[-59.34718,-37.90484],[-59.34589,-37.90743],[-59.34511,-37.91101],[-59.34459,-37.91241],[-59.34078,-37.91598],[-59.33799,-37.91875],[-59.3367,-37.92115],[-59.33569,-37.92233],[-59.33191,-37.92311],[-59.32786,-37.92488],[-59.32708,-37.92667],[-59.32656,-37.92946],[-59.32652,-37.93405],[-59.32547,-37.93804],[-59.3247,-37.93982],[-59.32239,-37.944],[-59.32062,-37.94479],[-59.31607,-37.94696],[-59.31581,-37.94755],[-59.31202,-37.94873],[-59.3105,-37.95012],[-59.30894,-37.95529],[-59.30991,-37.95909],[-59.3099,-37.96029],[-59.30986,-37.96368],[-59.30859,-37.96526],[-59.30632,-37.96665],[-59.30377,-37.96963],[-59.30375,-37.97162],[-59.30423,-37.97362],[-59.30623,-37.97543],[-59.30645,-37.97921],[-59.30567,-37.9812],[-59.30385,-37.98738],[-59.30382,-37.99077],[-59.3048,-37.99317],[-59.30502,-37.99656],[-59.30428,-37.9993],[-59.30449,-38.0],[-59.30516,-38.00099],[-59.30543,-38.00235],[-59.30821,-38.00867],[-59.30819,-38.01093],[-59.30817,-38.01295],[-59.30954,-38.0195],[-59.31035,-38.02333],[-59.31048,-38.02359],[-59.31329,-38.02213],[-59.31593,-38.02169],[-59.32915,-38.02013],[-59.33796,-38.01972],[-59.34764,-38.02],[-59.34998,-38.02048],[-59.35701,-38.02215],[-59.36052,-38.02287],[-59.36415,-38.02368],[-59.36448,-38.02274],[-59.36708,-38.01892],[-59.37079,-38.01781],[-59.37284,-38.01039],[-59.37119,-38.00497],[-59.37207,-38.00159],[-59.37137,-38],[-59.37137,-38.0],[-59.37038,-37.99794],[-59.37188,-37.99254],[-59.37391,-37.98808],[-59.37626,-37.98468],[-59.37664,-37.97968],[-59.37798,-37.97759],[-59.38,-37.97471],[-59.38368,-37.97157],[-59.38837,-37.9666],[-59.3914,-37.96109],[-59.39509,-37.95665],[-59.39546,-37.95244],[-59.39819,-37.94378],[-59.39889,-37.93853],[-59.39958,-37.9359],[-59.39828,-37.93195],[-59.39532,-37.92878],[-59.39434,-37.92667],[-59.39108,-37.91929],[-59.39112,-37.91456],[-59.39181,-37.91193],[-59.39282,-37.90957],[-59.39318,-37.90721],[-59.39321,-37.90379],[-59.39323,-37.90063],[-59.39326,-37.89695],[-59.3933,-37.89249],[-59.39432,-37.88933],[-59.39569,-37.88408],[-59.39837,-37.88042],[-59.39647,-37.86963],[-59.39412,-37.86583]]]]}},{"type":"Feature","properties":{"fdc":"IGN","sag":"IGN","tipo":"Bosque artificial (forestación)","ign":"vegetacion_arborea_060301.1428"},"geometry":{"type":"MultiPolygon","coordinates":[[[[-59.45944,-38.05058],[-59.45456,-38.05248],[-59.45171,-38.05156],[-59.44574,-38.05086],[-59.44374,-38.05331],[-59.44508,-38.05514],[-59.44542,-38.05559],[-59.44712,-38.0565],[-59.44967,-38.05787],[-59.45365,-38.05946],[-59.4565,-38.06015],[-59.45933,-38.06174],[-59.46112,-38.06043],[-59.4642,-38.05816],[-59.46593,-38.05546],[-59.46992,-38.05526],[-59.47337,-38.05234],[-59.47622,-38.0519],[-59.47908,-38.04943],[-59.47995,-38.04786],[-59.48055,-38.04359],[-59.47828,-38.04222],[-59.47372,-38.04175],[-59.47058,-38.04354],[-59.46544,-38.04442],[-59.46458,-38.04532],[-59.46229,-38.04688],[-59.45948,-38.04996],[-59.45944,-38.05058]]]]}},{"type":"Feature","properties":{"fdc":"IGN","sag":"IGN","tipo":"Bosque artificial (forestación)","ign":"vegetacion_arborea_060301.1441"},"geometry":{"type":"MultiPolygon","coordinates":[[[[-59.09674,-38.13234],[-59.10325,-38.13816],[-59.10817,-38.13473],[-59.11177,-38.13918],[-59.11516,-38.13828],[-59.11423,-38.13708],[-59.11644,-38.13556],[-59.10729,-38.12703],[-59.10731,-38.12491],[-59.10726,-38.12385],[-59.09674,-38.13234]]]]}},{"type":"Feature","properties":{"fdc":"IGN","sag":"IGN","tipo":"Bosque artificial (forestación)","ign":"vegetacion_arborea_060301.1442"},"geometry":{"type":"MultiPolygon","coordinates":[[[[-59.31999,-38.15542],[-59.31393,-38.15755],[-59.3081,-38.15448],[-59.30355,-38.15113],[-59.29374,-38.14341],[-59.28806,-38.14395],[-59.28481,-38.14466],[-59.28475,-38.14469],[-59.28464,-38.14472],[-59.28441,-38.14482],[-59.28415,-38.1449],[-59.28394,-38.14496],[-59.2837,-38.14502],[-59.28358,-38.14506],[-59.28347,-38.14512],[-59.28338,-38.1451],[-59.28329,-38.14515],[-59.28308,-38.14521],[-59.28286,-38.14527],[-59.28243,-38.14531],[-59.28209,-38.14532],[-59.28193,-38.14535],[-59.28158,-38.14546],[-59.28128,-38.14551],[-59.28113,-38.14555],[-59.28091,-38.14566],[-59.28076,-38.14572],[-59.28054,-38.14576],[-59.28044,-38.14577],[-59.28032,-38.14576],[-59.28019,-38.14573],[-59.28003,-38.14573],[-59.27997,-38.14573],[-59.27522,-38.14677],[-59.26367,-38.14756],[-59.25874,-38.14753],[-59.25332,-38.14857],[-59.25738,-38.15432],[-59.26229,-38.15796],[-59.26488,-38.15552],[-59.27272,-38.1488],[-59.27697,-38.14929],[-59.28075,-38.15128],[-59.2844,-38.15257],[-59.28969,-38.15157],[-59.29202,-38.15308],[-59.293,-38.15749],[-59.29284,-38.15968],[-59.29107,-38.16083],[-59.28797,-38.16278],[-59.2859,-38.16427],[-59.28502,-38.16507],[-59.28093,-38.16377],[-59.27419,-38.16397],[-59.27109,-38.16591],[-59.26934,-38.16544],[-59.26759,-38.16381],[-59.26525,-38.1638],[-59.26027,-38.16376],[-59.25978,-38.1637],[-59.26897,-38.17249],[-59.27755,-38.17925],[-59.28482,-38.18473],[-59.28288,-38.18866],[-59.28724,-38.19192],[-59.28914,-38.19321],[-59.29326,-38.19103],[-59.29618,-38.19302],[-59.29807,-38.19418],[-59.2942,-38.19983],[-59.28934,-38.20246],[-59.28381,-38.19907],[-59.27792,-38.20146],[-59.2719,-38.20258],[-59.26855,-38.20048],[-59.2609,-38.20332],[-59.26059,-38.20471],[-59.26334,-38.20785],[-59.26707,-38.21048],[-59.2748,-38.20763],[-59.28534,-38.21608],[-59.29458,-38.20804],[-59.2995,-38.21125],[-59.30113,-38.21314],[-59.29171,-38.2206],[-59.29626,-38.22352],[-59.3127,-38.21046],[-59.31498,-38.22103],[-59.30114,-38.23121],[-59.30658,-38.23732],[-59.31414,-38.23259],[-59.31436,-38.22941],[-59.31783,-38.2303],[-59.31792,-38.22076],[-59.32435,-38.21892],[-59.32748,-38.21691],[-59.32038,-38.21195],[-59.32112,-38.21123],[-59.32261,-38.20893],[-59.32293,-38.20827],[-59.32097,-38.20737],[-59.32144,-38.20664],[-59.32165,-38.2045],[-59.32064,-38.20324],[-59.31868,-38.20256],[-59.31784,-38.20131],[-59.31786,-38.1999],[-59.31648,-38.19783],[-59.3148,-38.19738],[-59.31518,-38.1965],[-59.31575,-38.19532],[-59.31679,-38.19466],[-59.31765,-38.1923],[-59.31814,-38.19024],[-59.31796,-38.18913],[-59.31846,-38.1853],[-59.31875,-38.1842],[-59.31802,-38.1822],[-59.31758,-38.17917],[-59.31686,-38.17718],[-59.31678,-38.17504],[-59.31628,-38.17351],[-59.31728,-38.17216],[-59.31763,-38.17192],[-59.31787,-38.16986],[-59.31568,-38.16595],[-59.31335,-38.1603],[-59.31612,-38.15785],[-59.32034,-38.15759],[-59.32978,-38.17181],[-59.32962,-38.17447],[-59.33043,-38.17786],[-59.33039,-38.18162],[-59.33072,-38.18509],[-59.33309,-38.18684],[-59.33344,-38.18872],[-59.33342,-38.19075],[-59.33412,-38.19156],[-59.33745,-38.18906],[-59.34468,-38.17956],[-59.34636,-38.17595],[-59.34436,-38.17349],[-59.33289,-38.16706],[-59.32962,-38.16415],[-59.3295,-38.16365],[-59.32874,-38.16053],[-59.3304,-38.15837],[-59.3327,-38.15647],[-59.33944,-38.15091],[-59.33526,-38.14727],[-59.34209,-38.1408],[-59.32428,-38.12696],[-59.31589,-38.13002],[-59.31589,-38.13002],[-59.31587,-38.13009],[-59.31583,-38.13017],[-59.31575,-38.13024],[-59.31564,-38.13032],[-59.31552,-38.13036],[-59.31544,-38.13036],[-59.31536,-38.13039],[-59.31527,-38.13039],[-59.31518,-38.13042],[-59.31509,-38.13044],[-59.315,-38.13046],[-59.31498,-38.13046],[-59.31378,-38.13135],[-59.31377,-38.13138],[-59.31374,-38.13143],[-59.31365,-38.13151],[-59.3135,-38.13163],[-59.31337,-38.13175],[-59.31317,-38.13187],[-59.31289,-38.13202],[-59.31287,-38.13202],[-59.30773,-38.13583],[-59.32718,-38.15054],[-59.31999,-38.15542]]]]}},{"type":"Feature","properties":{"fdc":"IGN","sag":"IGN","tipo":"Bosque artificial (forestación)","ign":"vegetacion_arborea_060301.1443"},"geometry":{"type":"MultiPolygon","coordinates":[[[[-59.05411,-38.14601],[-59.06524,-38.15554],[-59.05411,-38.16443],[-59.06092,-38.16926],[-59.06247,-38.16862],[-59.07302,-38.17712],[-59.07912,-38.1724],[-59.07361,-38.16824],[-59.08939,-38.15695],[-59.10135,-38.14759],[-59.08874,-38.13791],[-59.07312,-38.1499],[-59.05649,-38.13602],[-59.05315,-38.13796],[-59.05737,-38.14155],[-59.05365,-38.14432],[-59.05471,-38.14536],[-59.05411,-38.14601]]]]}},{"type":"Feature","properties":{"fdc":"IGN","sag":"IGN","tipo":"Bosque artificial (forestación)","ign":"vegetacion_arborea_060301.1479"},"geometry":{"type":"MultiPolygon","coordinates":[[[[-59.21088,-38.34025],[-59.21133,-38.34478],[-59.2121,-38.35236],[-59.2134,-38.35689],[-59.21431,-38.3591],[-59.21993,-38.35862],[-59.2318,-38.36746],[-59.2459,-38.35911],[-59.24018,-38.35421],[-59.25266,-38.34422],[-59.24487,-38.33897],[-59.23867,-38.34056],[-59.23379,-38.33501],[-59.2203,-38.32705],[-59.21674,-38.32938],[-59.21364,-38.33442],[-59.21294,-38.33707],[-59.21274,-38.33987],[-59.21088,-38.34025]]]]}},{"type":"Feature","properties":{"fdc":"IGN","sag":"IGN","tipo":"Bosque artificial (forestación)","ign":"vegetacion_arborea_060301.1483"},"geometry":{"type":"MultiPolygon","coordinates":[[[[-59.16262,-38.3488],[-59.14513,-38.37172],[-59.15544,-38.38213],[-59.16529,-38.37452],[-59.15494,-38.36728],[-59.16175,-38.36044],[-59.16412,-38.35887],[-59.16879,-38.36262],[-59.17592,-38.3571],[-59.16262,-38.3488]]]]}},{"type":"Feature","properties":{"fdc":"IGN","sag":"IGN","tipo":"Bosque artificial (forestación)","ign":"vegetacion_arborea_060301.1464"},"geometry":{"type":"MultiPolygon","coordinates":[[[[-59.28858,-38.27773],[-59.29074,-38.28412],[-59.29515,-38.28299],[-59.29806,-38.28633],[-59.29309,-38.2876],[-59.29396,-38.29267],[-59.30381,-38.29866],[-59.3114,-38.29133],[-59.31178,-38.2896],[-59.31604,-38.28586],[-59.3071,-38.28017],[-59.30342,-38.28188],[-59.30105,-38.27999],[-59.29663,-38.2817],[-59.29393,-38.27619],[-59.28858,-38.27773]]]]}},{"type":"Feature","properties":{"fdc":"IGN","sag":"IGN","tipo":"Bosque artificial (forestación)","ign":"vegetacion_arborea_060301.1470"},"geometry":{"type":"MultiPolygon","coordinates":[[[[-59.26023,-38.30276],[-59.26761,-38.30816],[-59.27337,-38.30395],[-59.26168,-38.29567],[-59.25897,-38.29724],[-59.26299,-38.29965],[-59.26023,-38.30276]]]]}},{"type":"Feature","properties":{"fdc":"IGN","sag":"IGN","tipo":"Bosque artificial (forestación)","ign":"vegetacion_arborea_060301.1475"},"geometry":{"type":"MultiPolygon","coordinates":[[[[-59.2751,-38.32553],[-59.28452,-38.33143],[-59.29329,-38.32012],[-59.28629,-38.31546],[-59.2751,-38.32553]]]]}},{"type":"Feature","properties":{"fdc":"IGN","sag":"IGN","tipo":"Bosque artificial (forestación)","ign":"vegetacion_arborea_060301.1476"},"geometry":{"type":"MultiPolygon","coordinates":[[[[-59.22999,-38.32234],[-59.24047,-38.33024],[-59.24489,-38.32656],[-59.23788,-38.32095],[-59.24228,-38.31807],[-59.24065,-38.31805],[-59.23791,-38.31804],[-59.23285,-38.32013],[-59.23076,-38.32174],[-59.22999,-38.32234]]]]}},{"type":"Feature","properties":{"fdc":"IGN","sag":"IGN","tipo":"Bosque artificial (forestación)","ign":"vegetacion_arborea_060301.1524"},"geometry":{"type":"MultiPolygon","coordinates":[[[[-59.29993,-38.58289],[-59.29957,-38.58232],[-59.29465,-38.57923],[-59.28648,-38.57434],[-59.28257,-38.57447],[-59.2803,-38.57591],[-59.2817,-38.57915],[-59.28517,-38.58191],[-59.28515,-38.58434],[-59.28534,-38.58644],[-59.28942,-38.58824],[-59.29089,-38.58936],[-59.29535,-38.59279],[-59.30166,-38.59643],[-59.30478,-38.59624],[-59.30851,-38.59319],[-59.30362,-38.58849],[-59.29993,-38.58289]]]]}},{"type":"Feature","properties":{"fdc":"IGN","sag":"IGN","tipo":"Bosque artificial (forestación)","ign":"vegetacion_arborea_060301.1491"},"geometry":{"type":"MultiPolygon","coordinates":[[[[-59.09663,-38.38752],[-59.09641,-38.39433],[-59.10751,-38.38771],[-59.10123,-38.38267],[-59.10516,-38.37882],[-59.11405,-38.37223],[-59.10531,-38.36662],[-59.09906,-38.37101],[-59.09734,-38.37599],[-59.09663,-38.38752]]]]}},{"type":"Feature","properties":{"fdc":"IGN","sag":"IGN","tipo":"Bosque artificial (forestación)","ign":"vegetacion_arborea_060301.1492"},"geometry":{"type":"MultiPolygon","coordinates":[[[[-59.29982,-38.38751],[-59.3097,-38.39559],[-59.31175,-38.39471],[-59.31178,-38.39204],[-59.31179,-38.39061],[-59.31273,-38.38794],[-59.31364,-38.38652],[-59.31412,-38.38421],[-59.31641,-38.38137],[-59.31803,-38.37764],[-59.31381,-38.37458],[-59.30805,-38.37936],[-59.30918,-38.37973],[-59.29982,-38.38751]]]]}},{"type":"Feature","properties":{"fdc":"IGN","sag":"IGN","tipo":"Bosque artificial (forestación)","ign":"vegetacion_arborea_060301.1503"},"geometry":{"type":"MultiPolygon","coordinates":[[[[-59.21782,-38.46477],[-59.22387,-38.46993],[-59.22763,-38.46777],[-59.23849,-38.47645],[-59.22961,-38.4838],[-59.23032,-38.48439],[-59.23524,-38.48852],[-59.24446,-38.48159],[-59.24421,-38.48135],[-59.24189,-38.47906],[-59.25394,-38.46994],[-59.25399,-38.46538],[-59.25202,-38.46299],[-59.25376,-38.46136],[-59.24758,-38.45642],[-59.23745,-38.44791],[-59.24034,-38.44494],[-59.24008,-38.44376],[-59.2368,-38.44403],[-59.23472,-38.44456],[-59.23132,-38.44624],[-59.22915,-38.44677],[-59.22453,-38.45042],[-59.22147,-38.45271],[-59.22053,-38.45303],[-59.22332,-38.45548],[-59.21455,-38.46183],[-59.21782,-38.46477]]]]}},{"type":"Feature","properties":{"fdc":"IGN","sag":"IGN","tipo":"Bosque artificial (forestación)","ign":"vegetacion_arborea_060301.1504"},"geometry":{"type":"MultiPolygon","coordinates":[[[[-59.3775,-38.47131],[-59.37729,-38.47486],[-59.37563,-38.47842],[-59.37597,-38.48142],[-59.37591,-38.48342],[-59.37989,-38.48614],[-59.38331,-38.48438],[-59.39927,-38.47359],[-59.40242,-38.47646],[-59.40672,-38.47433],[-59.40742,-38.47399],[-59.39752,-38.46538],[-59.38845,-38.46534],[-59.38879,-38.45304],[-59.37451,-38.4538],[-59.37381,-38.45564],[-59.37535,-38.45993],[-59.377,-38.46688],[-59.3775,-38.47131]]]]}},{"type":"Feature","properties":{"fdc":"IGN","sag":"IGN","tipo":"Bosque artificial (forestación)","ign":"vegetacion_arborea_060301.1505"},"geometry":{"type":"MultiPolygon","coordinates":[[[[-59.13959,-38.46465],[-59.1496,-38.47404],[-59.15854,-38.46638],[-59.14923,-38.45795],[-59.13959,-38.46465]]]]}},{"type":"Feature","properties":{"fdc":"IGN","sag":"IGN","tipo":"Bosque artificial (forestación)","ign":"vegetacion_arborea_060301.1506"},"geometry":{"type":"MultiPolygon","coordinates":[[[[-59.16055,-38.46734],[-59.1694,-38.47456],[-59.17789,-38.46799],[-59.16838,-38.45898],[-59.16055,-38.46734]]]]}},{"type":"Feature","properties":{"fdc":"IGN","sag":"IGN","tipo":"Bosque artificial (forestación)","ign":"vegetacion_arborea_060301.1507"},"geometry":{"type":"MultiPolygon","coordinates":[[[[-59.26656,-38.47617],[-59.26213,-38.47812],[-59.25708,-38.47609],[-59.25397,-38.47878],[-59.24535,-38.48104],[-59.25098,-38.48689],[-59.26341,-38.49523],[-59.26799,-38.49155],[-59.27257,-38.48659],[-59.27586,-38.48376],[-59.26785,-38.47667],[-59.27636,-38.47008],[-59.26945,-38.46524],[-59.26933,-38.4659],[-59.26166,-38.47127],[-59.26656,-38.47617]]]]}},{"type":"Feature","properties":{"fdc":"IGN","sag":"IGN","tipo":"Bosque artificial (forestación)","ign":"vegetacion_arborea_060301.1512"},"geometry":{"type":"MultiPolygon","coordinates":[[[[-59.29053,-38.49044],[-59.29592,-38.49582],[-59.30072,-38.49193],[-59.30158,-38.4906],[-59.29759,-38.48674],[-59.29422,-38.48441],[-59.28988,-38.48759],[-59.29053,-38.49044]]]]}},{"type":"Feature","properties":{"fdc":"IGN","sag":"IGN","tipo":"Bosque artificial (forestación)","ign":"vegetacion_arborea_060301.1516"},"geometry":{"type":"MultiPolygon","coordinates":[[[[-59.21295,-38.5165],[-59.20666,-38.52136],[-59.21338,-38.52721],[-59.21231,-38.53124],[-59.2165,-38.53746],[-59.2178,-38.53612],[-59.22072,-38.53227],[-59.23064,-38.52652],[-59.23191,-38.52362],[-59.22784,-38.51988],[-59.22371,-38.52147],[-59.22064,-38.52032],[-59.21718,-38.51756],[-59.21371,-38.51591],[-59.21295,-38.5165]]]]}},{"type":"Feature","properties":{"fdc":"IGN","sag":"IGN","tipo":"Bosque artificial (forestación)","ign":"vegetacion_arborea_060301.1533"},"geometry":{"type":"MultiPolygon","coordinates":[[[[-59.33702,-38.62493],[-59.32888,-38.63091],[-59.33395,-38.6352],[-59.33654,-38.63313],[-59.34829,-38.62596],[-59.35053,-38.62774],[-59.35652,-38.62295],[-59.35388,-38.62036],[-59.36152,-38.61445],[-59.35703,-38.61088],[-59.35337,-38.60797],[-59.35048,-38.61117],[-59.35149,-38.6123],[-59.34972,-38.61367],[-59.33662,-38.6238],[-59.33702,-38.62493]]]]}},{"type":"Feature","properties":{"fdc":"IGN","sag":"IGN","tipo":"Bosque artificial (forestación)","ign":"vegetacion_arborea_060301.1525"},"geometry":{"type":"MultiPolygon","coordinates":[[[[-59.08321,-38.5795],[-59.06984,-38.59008],[-59.07135,-38.59116],[-59.07319,-38.59176],[-59.07363,-38.5919],[-59.07373,-38.59209],[-59.07422,-38.59298],[-59.07543,-38.59394],[-59.07653,-38.59144],[-59.07762,-38.58942],[-59.07688,-38.58774],[-59.07809,-38.58823],[-59.08037,-38.58884],[-59.08159,-38.58862],[-59.0839,-38.58683],[-59.08683,-38.58387],[-59.08928,-38.58293],[-59.09159,-38.58092],[-59.09274,-38.58027],[-59.0913,-38.57943],[-59.08753,-38.57832],[-59.08321,-38.5795]]]]}},{"type":"Feature","properties":{"fdc":"IGN","sag":"IGN","tipo":"Bosque artificial (forestación)","ign":"vegetacion_arborea_060301.1526"},"geometry":{"type":"MultiPolygon","coordinates":[[[[-58.75142,-38.58511],[-58.74847,-38.5837],[-58.74835,-38.58383],[-58.73633,-38.58013],[-58.73433,-38.5835],[-58.73483,-38.58372],[-58.73654,-38.58456],[-58.73716,-38.58516],[-58.73632,-38.58553],[-58.7363,-38.58645],[-58.73775,-38.5868],[-58.73865,-38.58708],[-58.74002,-38.58753],[-58.74043,-38.58813],[-58.74119,-38.58847],[-58.74244,-38.58799],[-58.74339,-38.58925],[-58.74456,-38.58981],[-58.74539,-38.59031],[-58.74662,-38.59087],[-58.74877,-38.59105],[-58.75103,-38.59221],[-58.75159,-38.59222],[-58.75216,-38.59157],[-58.75327,-38.59142],[-58.75472,-38.59144],[-58.75547,-38.59221],[-58.75678,-38.59288],[-58.7576,-38.59338],[-58.75842,-38.59371],[-58.75994,-38.5941],[-58.76056,-38.59488],[-58.76159,-38.59521],[-58.76311,-38.59555],[-58.76372,-38.59594],[-58.76511,-38.59612],[-58.76628,-38.59668],[-58.76786,-38.59702],[-58.76918,-38.59709],[-58.76939,-38.59687],[-58.76948,-38.59611],[-58.77066,-38.59563],[-58.7724,-38.59565],[-58.77315,-38.59631],[-58.77258,-38.5974],[-58.77118,-38.59776],[-58.77325,-38.59838],[-58.77414,-38.59877],[-58.77538,-38.59966],[-58.77697,-38.59967],[-58.77822,-38.59974],[-58.78386,-38.60034],[-58.78608,-38.60031],[-58.78918,-38.60132],[-58.79207,-38.60282],[-58.79185,-38.60331],[-58.79122,-38.60395],[-58.79177,-38.60407],[-58.79315,-38.60435],[-58.79591,-38.60536],[-58.79735,-38.60603],[-58.79872,-38.60686],[-58.79955,-38.60731],[-58.80086,-38.60781],[-58.80094,-38.60732],[-58.80109,-38.60645],[-58.80186,-38.60586],[-58.80317,-38.60592],[-58.80421,-38.60653],[-58.80492,-38.60669],[-58.80466,-38.60493],[-58.80265,-38.60468],[-58.80005,-38.6042],[-58.79704,-38.60269],[-58.79259,-38.60083],[-58.78799,-38.59919],[-58.77936,-38.59672],[-58.77808,-38.59557],[-58.77577,-38.5951],[-58.77273,-38.5954],[-58.77143,-38.59517],[-58.77131,-38.59369],[-58.77088,-38.59346],[-58.76842,-38.59295],[-58.76801,-38.59286],[-58.76984,-38.59549],[-58.76767,-38.59569],[-58.76612,-38.59329],[-58.76569,-38.59249],[-58.76396,-38.59247],[-58.76107,-38.59211],[-58.75964,-38.5913],[-58.75865,-38.59015],[-58.75911,-38.58879],[-58.75142,-38.58511]]]]}},{"type":"Feature","properties":{"fdc":"IGN","sag":"IGN","tipo":"Bosque artificial (forestación)","ign":"vegetacion_arborea_060301.1527"},"geometry":{"type":"MultiPolygon","coordinates":[[[[-59.11042,-38.59146],[-59.10727,-38.59576],[-59.10072,-38.5946],[-59.08701,-38.60575],[-59.09908,-38.61565],[-59.11538,-38.6037],[-59.12166,-38.6079],[-59.12315,-38.60723],[-59.13075,-38.60513],[-59.13491,-38.60273],[-59.13735,-38.60058],[-59.13739,-38.59707],[-59.13849,-38.5914],[-59.13853,-38.58816],[-59.13579,-38.58706],[-59.13374,-38.58596],[-59.13132,-38.58595],[-59.1255,-38.58401],[-59.11879,-38.58342],[-59.11358,-38.58716],[-59.11042,-38.59146]]]]}},{"type":"Feature","properties":{"fdc":"IGN","sag":"IGN","tipo":"Bosque artificial (forestación)","ign":"vegetacion_arborea_060301.1528"},"geometry":{"type":"MultiPolygon","coordinates":[[[[-58.79314,-38.58552],[-58.78495,-38.59093],[-58.78495,-38.59093],[-58.78451,-38.59122],[-58.78007,-38.58879],[-58.77686,-38.59046],[-58.77314,-38.58804],[-58.76826,-38.59166],[-58.76842,-38.59295],[-58.77088,-38.59346],[-58.77131,-38.59369],[-58.77143,-38.59517],[-58.77273,-38.5954],[-58.77577,-38.5951],[-58.77808,-38.59557],[-58.77936,-38.59672],[-58.78799,-38.59919],[-58.79259,-38.60083],[-58.79704,-38.60269],[-58.80005,-38.6042],[-58.80265,-38.60468],[-58.80466,-38.60493],[-58.80492,-38.60669],[-58.81177,-38.60819],[-58.81654,-38.60954],[-58.82357,-38.61212],[-58.82479,-38.61253],[-58.82866,-38.60933],[-58.8269,-38.60697],[-58.8224,-38.60862],[-58.80427,-38.59403],[-58.79872,-38.59737],[-58.79502,-38.59405],[-58.80101,-38.59003],[-58.79314,-38.58552]]]]}},{"type":"Feature","properties":{"fdc":"IGN","sag":"IGN","tipo":"Bosque artificial (forestación)","ign":"vegetacion_arborea_060301.1529"},"geometry":{"type":"MultiPolygon","coordinates":[[[[-59.09029,-38.58796],[-59.08782,-38.58998],[-59.0863,-38.58997],[-59.08461,-38.59067],[-59.08398,-38.59198],[-59.08367,-38.59317],[-59.08182,-38.59447],[-59.07937,-38.59541],[-59.07771,-38.5948],[-59.07634,-38.59479],[-59.07478,-38.59681],[-59.08051,-38.60164],[-59.09649,-38.58901],[-59.09517,-38.58726],[-59.09471,-38.58752],[-59.09029,-38.58796]]]]}},{"type":"Feature","properties":{"fdc":"IGN","sag":"IGN","tipo":"Bosque artificial (forestación)","ign":"vegetacion_arborea_060301.1532"},"geometry":{"type":"MultiPolygon","coordinates":[[[[-59.39759,-38.60249],[-59.38038,-38.61504],[-59.38851,-38.62263],[-59.39697,-38.61689],[-59.39883,-38.61497],[-59.40535,-38.62063],[-59.40617,-38.62048],[-59.4072,-38.61919],[-59.40742,-38.6171],[-59.40703,-38.61581],[-59.40519,-38.61371],[-59.40439,-38.61178],[-59.4042,-38.61017],[-59.40381,-38.60743],[-59.40218,-38.60646],[-59.39832,-38.60274],[-59.39759,-38.60249]]]]}},{"type":"Feature","properties":{"fdc":"IGN","sag":"IGN","tipo":"Bosque artificial (forestación)","ign":"vegetacion_arborea_060301.1536"},"geometry":{"type":"MultiPolygon","coordinates":[[[[-58.87381,-38.62687],[-58.87553,-38.62764],[-58.87643,-38.62814],[-58.87771,-38.62874],[-58.87767,-38.62848],[-58.87768,-38.62777],[-58.8781,-38.62761],[-58.87907,-38.62784],[-58.88045,-38.62802],[-58.88058,-38.62878],[-58.88057,-38.62943],[-58.87973,-38.62954],[-58.87881,-38.63072],[-58.87937,-38.63056],[-58.87973,-38.63002],[-58.88049,-38.62981],[-58.88091,-38.63003],[-58.88194,-38.63037],[-58.88256,-38.63054],[-58.88325,-38.63055],[-58.88435,-38.63148],[-58.88634,-38.63264],[-58.88773,-38.63287],[-58.88828,-38.63282],[-58.88824,-38.63152],[-58.88852,-38.63071],[-58.88989,-38.63159],[-58.88996,-38.63224],[-58.88919,-38.63283],[-58.88876,-38.63337],[-58.8888,-38.63506],[-58.88879,-38.63588],[-58.8894,-38.63648],[-58.88996,-38.6366],[-58.89148,-38.63661],[-58.89429,-38.63685],[-58.89451,-38.6362],[-58.89568,-38.63648],[-58.89616,-38.63703],[-58.89679,-38.63677],[-58.89754,-38.63737],[-58.89844,-38.63744],[-58.89866,-38.63689],[-58.9009,-38.63561],[-58.90131,-38.63505],[-58.90154,-38.63475],[-58.90265,-38.63427],[-58.90246,-38.63318],[-58.90188,-38.63241],[-58.9012,-38.63175],[-58.90016,-38.63147],[-58.89914,-38.63048],[-58.89845,-38.63031],[-58.89769,-38.63008],[-58.89853,-38.62933],[-58.89903,-38.62836],[-58.89778,-38.62862],[-58.8975,-38.62888],[-58.89632,-38.62887],[-58.89543,-38.62811],[-58.89514,-38.62854],[-58.89514,-38.62892],[-58.89479,-38.62919],[-58.89416,-38.6294],[-58.89326,-38.62944],[-58.89249,-38.62971],[-58.89194,-38.62971],[-58.89023,-38.63012],[-58.88885,-38.62973],[-58.88691,-38.62971],[-58.88587,-38.62959],[-58.88498,-38.62909],[-58.88416,-38.62843],[-58.8836,-38.6281],[-58.88285,-38.62722],[-58.88189,-38.62678],[-58.88135,-38.62618],[-58.88066,-38.62535],[-58.87929,-38.62474],[-58.87859,-38.62452],[-58.87791,-38.62435],[-58.87652,-38.62417],[-58.87562,-38.62432],[-58.87485,-38.62443],[-58.87409,-38.62453],[-58.87338,-38.62476],[-58.87286,-38.62534],[-58.87291,-38.6267],[-58.87381,-38.62687]]]]}},{"type":"Feature","properties":{"tipo":"Bosque","ign":"vegetacion_arborea_EC015.10462"},"geometry":{"type":"MultiPolygon","coordinates":[[[[-58.75224,-38.49374],[-58.75819,-38.49529],[-58.75928,-38.49281],[-58.75961,-38.49205],[-58.75922,-38.49191],[-58.75963,-38.49101],[-58.75963,-38.49101],[-58.75705,-38.48976],[-58.75361,-38.4881],[-58.75397,-38.48765],[-58.75439,-38.48719],[-58.75455,-38.48676],[-58.7537,-38.48616],[-58.75287,-38.48589],[-58.75178,-38.48685],[-58.75295,-38.48769],[-58.75319,-38.4881],[-58.75325,-38.48833],[-58.75332,-38.4885],[-58.75322,-38.48865],[-58.75329,-38.48902],[-58.75352,-38.48902],[-58.75359,-38.48947],[-58.75337,-38.4898],[-58.75313,-38.49014],[-58.75276,-38.4904],[-58.75192,-38.49071],[-58.75135,-38.49106],[-58.75088,-38.49149],[-58.7507,-38.49179],[-58.75088,-38.49223],[-58.75104,-38.49245],[-58.75148,-38.49291],[-58.75201,-38.49332],[-58.75224,-38.49374]]]]}},{"type":"Feature","properties":{"tipo":"Bosque","ign":"vegetacion_arborea_EC015.10463"},"geometry":{"type":"MultiPolygon","coordinates":[[[[-58.76654,-38.49421],[-58.76669,-38.49427],[-58.76685,-38.49421],[-58.76692,-38.49409],[-58.7669,-38.49405],[-58.7669,-38.48516],[-58.75936,-38.47931],[-58.753,-38.48426],[-58.75274,-38.48488],[-58.75445,-38.48638],[-58.75479,-38.48683],[-58.75458,-38.48733],[-58.75391,-38.48796],[-58.75391,-38.48796],[-58.75392,-38.48798],[-58.75399,-38.48809],[-58.75945,-38.49074],[-58.75971,-38.49087],[-58.76201,-38.49201],[-58.7624,-38.4922],[-58.76654,-38.49421]]]]}},{"type":"Feature","properties":{"tipo":"Bosque","ign":"vegetacion_arborea_EC015.10464"},"geometry":{"type":"MultiPolygon","coordinates":[[[[-58.76533,-38.47393],[-58.7521,-38.48407],[-58.7525,-38.4844],[-58.7594,-38.47909],[-58.76135,-38.48055],[-58.76288,-38.47971],[-58.76326,-38.47943],[-58.76342,-38.47936],[-58.76369,-38.4794],[-58.76383,-38.47955],[-58.76652,-38.47988],[-58.76595,-38.47419],[-58.76559,-38.47412],[-58.76566,-38.47388],[-58.76533,-38.47393]]]]}},{"type":"Feature","properties":{"tipo":"Bosque","ign":"vegetacion_arborea_EC015.10465"},"geometry":{"type":"MultiPolygon","coordinates":[[[[-58.76421,-38.47976],[-58.76362,-38.48019],[-58.76333,-38.47997],[-58.76295,-38.4799],[-58.7615,-38.48074],[-58.76657,-38.48483],[-58.76695,-38.48478],[-58.76695,-38.48411],[-58.76661,-38.48019],[-58.76421,-38.47976]]]]}},{"type":"Feature","properties":{"tipo":"Bosque","ign":"vegetacion_arborea_EC015.10467"},"geometry":{"type":"MultiPolygon","coordinates":[[[[-58.74448,-38.48047],[-58.74348,-38.48071],[-58.74265,-38.48069],[-58.7422,-38.48071],[-58.74187,-38.481],[-58.74113,-38.48145],[-58.74094,-38.48169],[-58.7426,-38.48357],[-58.7436,-38.4839],[-58.74494,-38.48435],[-58.74536,-38.48497],[-58.7456,-38.48554],[-58.74579,-38.48597],[-58.74717,-38.48626],[-58.74777,-38.48635],[-58.74872,-38.48633],[-58.7492,-38.48602],[-58.75029,-38.48521],[-58.75112,-38.48452],[-58.75141,-38.48409],[-58.74686,-38.4789],[-58.7457,-38.47974],[-58.74448,-38.48047]]]]}},{"type":"Feature","properties":{"tipo":"Bosque","ign":"vegetacion_arborea_EC015.10466"},"geometry":{"type":"MultiPolygon","coordinates":[[[[-58.764,-38.47391],[-58.75821,-38.47426],[-58.7575,-38.47424],[-58.75736,-38.4741],[-58.75707,-38.474],[-58.75648,-38.47426],[-58.75621,-38.47457],[-58.75595,-38.47464],[-58.75533,-38.47505],[-58.75372,-38.47619],[-58.752,-38.47664],[-58.75053,-38.47671],[-58.74953,-38.47645],[-58.74936,-38.47643],[-58.74862,-38.4769],[-58.7477,-38.47762],[-58.74713,-38.4784],[-58.74724,-38.47897],[-58.75198,-38.4839],[-58.76469,-38.47403],[-58.764,-38.47391]]]]}},{"type":"Feature","properties":{"sag":"IGN","tipo":"Bosque","ign":"vegetacion_arborea_EC015.10452"},"geometry":{"type":"MultiPolygon","coordinates":[[[[-58.71032,-38.52344],[-58.71062,-38.52362],[-58.71554,-38.51988],[-58.7127,-38.51753],[-58.71053,-38.51943],[-58.71093,-38.51984],[-58.71026,-38.52032],[-58.71013,-38.52045],[-58.71014,-38.52056],[-58.71202,-38.52223],[-58.71032,-38.52344]]]]}},{"type":"Feature","properties":{"fdc":"IGN","sag":"IGN","tipo":"Plantación permanente","ign":"plantacion_permanente_KB025.8415"},"geometry":{"type":"MultiPolygon","coordinates":[[[[-59.29993,-38.58289],[-59.30362,-38.58849],[-59.30851,-38.59319],[-59.30478,-38.59624],[-59.30166,-38.59643],[-59.29535,-38.59279],[-59.29089,-38.58936],[-59.28671,-38.59258],[-59.28156,-38.59335],[-59.27824,-38.59657],[-59.27371,-38.59653],[-59.27043,-38.59603],[-59.26445,-38.5968],[-59.25931,-38.59677],[-59.25376,-38.59625],[-59.24841,-38.59621],[-59.24345,-38.59925],[-59.24157,-38.6015],[-59.23579,-38.60323],[-59.23505,-38.60317],[-59.23184,-38.60725],[-59.22815,-38.60641],[-59.22319,-38.60896],[-59.22396,-38.61349],[-59.22866,-38.61626],[-59.23441,-38.61695],[-59.23916,-38.61569],[-59.24209,-38.61102],[-59.25137,-38.60915],[-59.25569,-38.60853],[-59.25959,-38.6092],[-59.26392,-38.60842],[-59.27052,-38.60781],[-59.27897,-38.60528],[-59.28351,-38.60434],[-59.28803,-38.60437],[-59.28989,-38.60438],[-59.29483,-38.60328],[-59.29813,-38.60249],[-59.30079,-38.60429],[-59.30426,-38.60786],[-59.30589,-38.609],[-59.30853,-38.61208],[-59.31121,-38.61177],[-59.31474,-38.60921],[-59.31781,-38.6102],[-59.32049,-38.60941],[-59.32339,-38.60733],[-59.32341,-38.60555],[-59.32261,-38.60329],[-59.32264,-38.60038],[-59.32287,-38.59683],[-59.32289,-38.59457],[-59.32087,-38.59117],[-59.31823,-38.58809],[-59.31618,-38.58646],[-59.31519,-38.58274],[-59.3148,-38.58015],[-59.31029,-38.57868],[-59.30598,-38.57785],[-59.30162,-38.58218],[-59.29993,-38.58289]]]]}},{"type":"Feature","properties":{"fdc":"IGN","sag":"IGN","tipo":"Plantación permanente","ign":"plantacion_permanente_KB025.8417"},"geometry":{"type":"MultiPolygon","coordinates":[[[[-59.39196,-38.55605],[-59.3912,-38.55763],[-59.39061,-38.5632],[-59.3938,-38.57221],[-59.39324,-38.57435],[-59.39052,-38.57306],[-59.38837,-38.56918],[-59.38634,-38.56615],[-59.38082,-38.56731],[-59.3763,-38.56946],[-59.37107,-38.57405],[-59.36238,-38.57754],[-59.35651,-38.57669],[-59.34122,-38.58123],[-59.33781,-38.57604],[-59.33371,-38.56976],[-59.3248,-38.55993],[-59.32097,-38.56263],[-59.32402,-38.56998],[-59.32776,-38.57734],[-59.33116,-38.58389],[-59.33109,-38.5915],[-59.33619,-38.60131],[-59.34138,-38.60188],[-59.35148,-38.59623],[-59.3643,-38.59549],[-59.36848,-38.59252],[-59.37301,-38.58983],[-59.37726,-38.58952],[-59.37109,-38.58439],[-59.3849,-38.57409],[-59.39637,-38.58334],[-59.38915,-38.5885],[-59.39344,-38.59021],[-59.40036,-38.59051],[-59.40802,-38.58675],[-59.41391,-38.58678],[-59.4184,-38.58707],[-59.42395,-38.58601],[-59.42881,-38.58522],[-59.43401,-38.58416],[-59.43716,-38.58009],[-59.4306,-38.57789],[-59.42682,-38.57406],[-59.42234,-38.57159],[-59.4175,-38.57075],[-59.41719,-38.5664],[-59.41409,-38.56422],[-59.4075,-38.56527],[-59.40019,-38.57013],[-59.39576,-38.56167],[-59.39579,-38.55814],[-59.39196,-38.55605]]]]}},{"type":"Feature","properties":{"fdc":"IGN","sag":"IGN","tipo":"Plantación permanente","ign":"plantacion_permanente_KB025.8418"},"geometry":{"type":"MultiPolygon","coordinates":[[[[-59.3912,-38.49564],[-59.38646,-38.49591],[-59.38693,-38.49882],[-59.38864,-38.50238],[-59.38964,-38.50701],[-59.39014,-38.51046],[-59.39168,-38.51321],[-59.38853,-38.51516],[-59.38782,-38.51814],[-59.38503,-38.52112],[-59.3833,-38.52084],[-59.38332,-38.51757],[-59.38717,-38.51352],[-59.38752,-38.51045],[-59.38652,-38.50753],[-59.38619,-38.5059],[-59.38357,-38.50045],[-59.38302,-38.49713],[-59.38067,-38.4977],[-59.37648,-38.4989],[-59.37486,-38.49751],[-59.374,-38.49908],[-59.37248,-38.50634],[-59.37224,-38.51404],[-59.3742,-38.51818],[-59.37507,-38.52175],[-59.37414,-38.52503],[-59.37395,-38.52602],[-59.37193,-38.52901],[-59.37049,-38.52657],[-59.37089,-38.52301],[-59.37075,-38.51788],[-59.37037,-38.50947],[-59.37069,-38.5065],[-59.37014,-38.50331],[-59.36991,-38.50079],[-59.36824,-38.50173],[-59.36474,-38.50633],[-59.36159,-38.51039],[-59.35634,-38.51743],[-59.35628,-38.52423],[-59.35485,-38.52884],[-59.35414,-38.53182],[-59.35304,-38.53835],[-59.35681,-38.54271],[-59.35434,-38.54759],[-59.34846,-38.5462],[-59.34263,-38.54128],[-59.34019,-38.54262],[-59.34049,-38.54806],[-59.34736,-38.55353],[-59.34903,-38.56088],[-59.35469,-38.56198],[-59.35675,-38.55925],[-59.36103,-38.56075],[-59.36185,-38.55932],[-59.36568,-38.55662],[-59.37223,-38.55992],[-59.37397,-38.55911],[-59.37748,-38.55397],[-59.37891,-38.54773],[-59.3734,-38.54443],[-59.37137,-38.53898],[-59.37521,-38.53574],[-59.37865,-38.53875],[-59.38172,-38.54366],[-59.38836,-38.54474],[-59.38858,-38.54347],[-59.39736,-38.53837],[-59.3996,-38.53153],[-59.39581,-38.52808],[-59.39618,-38.52716],[-59.39246,-38.52388],[-59.396,-38.5172],[-59.39447,-38.51295],[-59.3959,-38.50776],[-59.39575,-38.50475],[-59.39215,-38.4994],[-59.39216,-38.49734],[-59.3912,-38.49564]]]]}},{"type":"Feature","properties":{"fdc":"IGN","sag":"IGN","tipo":"Plantación permanente","ign":"plantacion_permanente_KB025.8457"},"geometry":{"type":"MultiPolygon","coordinates":[[[[-59.22053,-38.45303],[-59.21808,-38.45385],[-59.21513,-38.45457],[-59.21313,-38.45558],[-59.21207,-38.45694],[-59.21214,-38.45844],[-59.21327,-38.45858],[-59.21325,-38.45988],[-59.21243,-38.46069],[-59.21303,-38.46079],[-59.21418,-38.46545],[-59.2129,-38.47247],[-59.21201,-38.47626],[-59.21453,-38.4778],[-59.21329,-38.48036],[-59.21373,-38.48492],[-59.21106,-38.48661],[-59.20875,-38.48726],[-59.20436,-38.49084],[-59.19889,-38.49413],[-59.19632,-38.4963],[-59.19205,-38.4995],[-59.18891,-38.49967],[-59.18617,-38.49575],[-59.18245,-38.49373],[-59.17752,-38.49161],[-59.17488,-38.48969],[-59.17346,-38.48711],[-59.16996,-38.48671],[-59.16619,-38.48877],[-59.16319,-38.48666],[-59.15994,-38.4854],[-59.15728,-38.48586],[-59.1566,-38.48566],[-59.15572,-38.48869],[-59.15609,-38.49404],[-59.15672,-38.49663],[-59.15604,-38.49817],[-59.15384,-38.49919],[-59.1536,-38.50074],[-59.15444,-38.50402],[-59.15311,-38.50693],[-59.15442,-38.50824],[-59.15914,-38.50827],[-59.16483,-38.5138],[-59.1706,-38.51191],[-59.17201,-38.51418],[-59.16993,-38.51739],[-59.17115,-38.51836],[-59.1761,-38.51598],[-59.18041,-38.51601],[-59.19002,-38.52076],[-59.19205,-38.52303],[-59.18976,-38.5256],[-59.19444,-38.52919],[-59.19236,-38.53207],[-59.18925,-38.53383],[-59.1833,-38.53379],[-59.18284,-38.53734],[-59.17707,-38.5394],[-59.1715,-38.54129],[-59.16653,-38.54465],[-59.16525,-38.54819],[-59.166,-38.55433],[-59.16846,-38.55451],[-59.17197,-38.55389],[-59.18023,-38.55023],[-59.1829,-38.55042],[-59.19155,-38.54967],[-59.19669,-38.54954],[-59.20183,-38.54958],[-59.20617,-38.54734],[-59.21179,-38.54077],[-59.21344,-38.54062],[-59.2165,-38.53746],[-59.21231,-38.53124],[-59.21338,-38.52721],[-59.20666,-38.52136],[-59.21295,-38.5165],[-59.21417,-38.51091],[-59.21339,-38.50736],[-59.21056,-38.50266],[-59.2106,-38.49927],[-59.21187,-38.49572],[-59.21642,-38.49318],[-59.22115,-38.49191],[-59.22255,-38.49612],[-59.22501,-38.49662],[-59.22747,-38.49615],[-59.22607,-38.49308],[-59.22877,-38.49019],[-59.22635,-38.48678],[-59.22801,-38.48486],[-59.23032,-38.48439],[-59.22961,-38.4838],[-59.23849,-38.47645],[-59.22763,-38.46777],[-59.22387,-38.46993],[-59.21782,-38.46477],[-59.21455,-38.46183],[-59.22332,-38.45548],[-59.22053,-38.45303]]]]}}]}
