{"type":"FeatureCollection","features":[{"type":"Feature","properties":{"nombre":"Alimentación Estación Reguladora De Presión San Cayetano","licenciataria":"Camuzzi Gas Pampeana S.A.","tipo":"Distribucion","subtipo":"Cañeria"},"geometry":{"type":"MultiLineString","coordinates":[[[-59.19049,-38.27789],[-59.19,-38.2782],[-59.18982,-38.27869],[-59.18958,-38.27911],[-59.18939,-38.27948],[-59.18921,-38.27991],[-59.18903,-38.2804],[-59.18878,-38.28082],[-59.1886,-38.28119],[-59.18842,-38.28168],[-59.18811,-38.2821],[-59.18799,-38.28241],[-59.18768,-38.2829],[-59.1875,-38.28339],[-59.18732,-38.28381],[-59.18701,-38.28418],[-59.1875,-38.28448],[-59.18811,-38.28473],[-59.1886,-38.28479],[-59.18909,-38.28491],[-59.1897,-38.28522],[-59.18951,-38.28558],[-59.18921,-38.28601],[-59.18909,-38.2865],[-59.1889,-38.28693],[-59.18872,-38.28729],[-59.18848,-38.28778],[-59.18829,-38.28821],[-59.18811,-38.28851],[-59.18811,-38.289],[-59.1886,-38.28918],[-59.18921,-38.28931],[-59.1897,-38.28949],[-59.19031,-38.28961],[-59.1908,-38.28979],[-59.19128,-38.28998],[-59.19189,-38.29022],[-59.19238,-38.29028],[-59.19299,-38.29053],[-59.19348,-38.29071],[-59.19409,-38.29089],[-59.19458,-38.29102],[-59.19519,-38.2912],[-59.19568,-38.29138],[-59.19623,-38.2915],[-59.19678,-38.29169],[-59.19733,-38.29181],[-59.19781,-38.29199],[-59.1983,-38.29218],[-59.19891,-38.2923],[-59.20001,-38.29272],[-59.20093,-38.29291],[-59.20148,-38.29309],[-59.20203,-38.29321],[-59.20258,-38.2934],[-59.20288,-38.29358],[-59.20349,-38.2937],[-59.20398,-38.29388],[-59.20459,-38.29413],[-59.20508,-38.29419],[-59.20563,-38.29431],[-59.20618,-38.29462],[-59.20673,-38.29468],[-59.20728,-38.29492],[-59.20782,-38.29498],[-59.20831,-38.29523],[-59.20868,-38.29529],[-59.20898,-38.29468],[-59.20929,-38.29413],[-59.21021,-38.29242],[-59.21051,-38.29163],[-59.21112,-38.29169],[-59.2113,-38.29181],[-59.21179,-38.29199],[-59.2124,-38.29218],[-59.21289,-38.2923],[-59.21338,-38.29248],[-59.21399,-38.2926],[-59.21448,-38.29279],[-59.21509,-38.29291],[-59.21558,-38.29309],[-59.21619,-38.29321],[-59.21667,-38.2934],[-59.21722,-38.29358],[-59.21771,-38.29382],[-59.21832,-38.29388],[-59.21881,-38.29413],[-59.2193,-38.29431],[-59.21991,-38.29449],[-59.2204,-38.29462],[-59.22101,-38.2948],[-59.2215,-38.29498],[-59.22211,-38.2951],[-59.2226,-38.29529],[-59.22308,-38.29541],[-59.22369,-38.29559],[-59.22418,-38.29578],[-59.22479,-38.2959],[-59.22528,-38.29608],[-59.22571,-38.2962],[-59.22638,-38.29639],[-59.22693,-38.29651],[-59.22778,-38.29669],[-59.22821,-38.29651],[-59.22858,-38.2962],[-59.229,-38.29578],[-59.22949,-38.29541],[-59.2298,-38.29523],[-59.23029,-38.2948],[-59.23071,-38.29449],[-59.23108,-38.29419],[-59.23151,-38.29388],[-59.23181,-38.29358],[-59.2323,-38.29321],[-59.2326,-38.29291],[-59.23309,-38.2926],[-59.2334,-38.2923],[-59.23389,-38.29181],[-59.23419,-38.29163],[-59.23468,-38.29132],[-59.23499,-38.29089],[-59.23541,-38.29059],[-59.23578,-38.29028],[-59.23621,-38.28998],[-59.23669,-38.28961],[-59.23718,-38.28979],[-59.23779,-38.28998],[-59.23828,-38.29022],[-59.23871,-38.29041],[-59.23938,-38.29059],[-59.23993,-38.29071],[-59.24042,-38.29089],[-59.24091,-38.29108],[-59.24152,-38.2912],[-59.242,-38.29132],[-59.24261,-38.2915],[-59.2431,-38.29169],[-59.24371,-38.29181],[-59.2442,-38.29199],[-59.24469,-38.29218],[-59.2453,-38.2923],[-59.24579,-38.29248],[-59.24628,-38.2926],[-59.24689,-38.29272],[-59.2475,-38.29279],[-59.24799,-38.29291],[-59.2486,-38.29291],[-59.24921,-38.29291],[-59.24969,-38.29291],[-59.25031,-38.29291],[-59.25092,-38.29291],[-59.2514,-38.29291],[-59.25201,-38.29291],[-59.25262,-38.29291],[-59.25311,-38.29291],[-59.25378,-38.29291],[-59.25409,-38.2926],[-59.25458,-38.2926],[-59.25519,-38.2926],[-59.2558,-38.2926],[-59.25641,-38.29248],[-59.2569,-38.29242],[-59.25751,-38.2923],[-59.258,-38.2923],[-59.25861,-38.2923],[-59.25922,-38.2923],[-59.2597,-38.2923],[-59.26031,-38.29242],[-59.26093,-38.29248],[-59.26147,-38.29248],[-59.26208,-38.29248],[-59.26251,-38.29248],[-59.26318,-38.29248],[-59.26379,-38.29248],[-59.26428,-38.29248],[-59.26489,-38.29248],[-59.2655,-38.29248],[-59.26599,-38.29248],[-59.2666,-38.29248],[-59.26721,-38.29248],[-59.26782,-38.29248],[-59.26831,-38.29248],[-59.26892,-38.29248],[-59.26941,-38.29248],[-59.27008,-38.29248],[-59.27069,-38.29248],[-59.27118,-38.29248],[-59.27179,-38.29248],[-59.2724,-38.29248],[-59.27289,-38.29248],[-59.2735,-38.29248],[-59.27411,-38.29248],[-59.2746,-38.29248],[-59.27521,-38.29248],[-59.27582,-38.29248],[-59.27643,-38.29248],[-59.27698,-38.29248],[-59.27753,-38.2926],[-59.27808,-38.29272],[-59.27863,-38.29291],[-59.27917,-38.29303],[-59.27972,-38.29321],[-59.28021,-38.2934],[-59.2807,-38.29358],[-59.28119,-38.29382],[-59.28168,-38.29401],[-59.28223,-38.29419],[-59.28278,-38.29431],[-59.2832,-38.29462],[-59.28381,-38.2948],[-59.2843,-38.29492],[-59.28491,-38.29498],[-59.28552,-38.29498],[-59.28601,-38.29498],[-59.28668,-38.29498],[-59.28711,-38.29498],[-59.28778,-38.29492],[-59.28839,-38.2948],[-59.28888,-38.29468],[-59.28949,-38.29449],[-59.28998,-38.29431],[-59.29053,-38.29413],[-59.29102,-38.29431],[-59.29163,-38.29401],[-59.29218,-38.29388],[-59.2926,-38.2937],[-59.29309,-38.29352],[-59.2937,-38.29321],[-59.29419,-38.29309],[-59.29468,-38.29291],[-59.29523,-38.29272],[-59.29572,-38.29248],[-59.2962,-38.2923],[-59.29669,-38.29211],[-59.29718,-38.29181],[-59.29779,-38.29169],[-59.29828,-38.2915],[-59.29883,-38.29138],[-59.29938,-38.29132],[-59.29999,-38.2912],[-59.30048,-38.29108],[-59.30109,-38.29108],[-59.3017,-38.29102],[-59.30231,-38.29089],[-59.3028,-38.29089],[-59.30341,-38.29102],[-59.30402,-38.29108],[-59.3045,-38.29108],[-59.30518,-38.29108],[-59.30573,-38.2912],[-59.30621,-38.29132],[-59.30682,-38.29138],[-59.30731,-38.29138],[-59.30798,-38.29138],[-59.30841,-38.2915],[-59.30908,-38.2915],[-59.30969,-38.2915],[-59.31018,-38.2915],[-59.31079,-38.29163],[-59.31128,-38.29169],[-59.31189,-38.29169],[-59.31238,-38.29181],[-59.31299,-38.29181],[-59.3136,-38.29199],[-59.31409,-38.29218],[-59.3147,-38.2923],[-59.31519,-38.29242],[-59.31561,-38.2926],[-59.31628,-38.29272],[-59.31671,-38.29291],[-59.31738,-38.29309],[-59.31781,-38.29321],[-59.3183,-38.29352],[-59.31879,-38.2937],[-59.3194,-38.29388],[-59.31989,-38.29401],[-59.32031,-38.29419],[-59.32098,-38.29431],[-59.32141,-38.29462],[-59.32202,-38.2948],[-59.32251,-38.29498],[-59.323,-38.2951],[-59.32361,-38.29541],[-59.32397,-38.29559],[-59.3244,-38.2959],[-59.32501,-38.2962],[-59.3255,-38.29639],[-59.32599,-38.29651],[-59.32648,-38.29669],[-59.32709,-38.29681],[-59.3277,-38.29687],[-59.32819,-38.297],[-59.32861,-38.29718],[-59.32928,-38.29742],[-59.32971,-38.29761],[-59.33038,-38.29773],[-59.33081,-38.29779],[-59.33148,-38.29791],[-59.33191,-38.2981],[-59.33258,-38.2981],[-59.33313,-38.29822],[-59.33368,-38.29828],[-59.33429,-38.29828],[-59.3349,-38.29828],[-59.33539,-38.29828],[-59.336,-38.29828],[-59.33661,-38.29822],[-59.3371,-38.2981],[-59.33771,-38.2981],[-59.33832,-38.29791],[-59.33881,-38.29791],[-59.33942,-38.29779],[-59.3399,-38.29761],[-59.34039,-38.29749],[-59.341,-38.2973],[-59.34149,-38.29718],[-59.3421,-38.297],[-59.34259,-38.29687],[-59.34308,-38.29669],[-59.34363,-38.29651],[-59.34418,-38.29633],[-59.34473,-38.29608],[-59.34521,-38.2959],[-59.3457,-38.29559],[-59.34619,-38.29541],[-59.3468,-38.29529],[-59.34729,-38.2951],[-59.3479,-38.29498],[-59.34839,-38.2948],[-59.34888,-38.29449],[-59.34943,-38.29431],[-59.34991,-38.29413],[-59.3504,-38.29388],[-59.35071,-38.29358],[-59.35132,-38.29321],[-59.35181,-38.29309],[-59.35229,-38.29291],[-59.35278,-38.29272],[-59.35321,-38.29248],[-59.35388,-38.2923],[-59.35431,-38.29218],[-59.35498,-38.29211],[-59.35553,-38.29199],[-59.35608,-38.29181],[-59.35663,-38.29181],[-59.35718,-38.29169],[-59.35779,-38.29169],[-59.3584,-38.29169],[-59.35889,-38.29163],[-59.3595,-38.29169],[-59.36011,-38.29169],[-59.3606,-38.29169],[-59.36121,-38.29181],[-59.36188,-38.29181],[-59.3623,-38.29199],[-59.36279,-38.29218],[-59.3634,-38.2923],[-59.36389,-38.29248],[-59.3645,-38.2926],[-59.36499,-38.29279],[-59.36548,-38.29309],[-59.36591,-38.2934],[-59.36639,-38.2937],[-59.36713,-38.29388],[-59.36749,-38.29401],[-59.3681,-38.29419],[-59.36871,-38.29431],[-59.3692,-38.29462],[-59.36969,-38.2948],[-59.37018,-38.29498],[-59.37079,-38.29523],[-59.37128,-38.29541],[-59.37183,-38.29559],[-59.37238,-38.2959],[-59.3725,-38.2959],[-59.37311,-38.29608],[-59.3736,-38.29639],[-59.37408,-38.29651],[-59.37451,-38.29687],[-59.37482,-38.2973],[-59.37482,-38.29779],[-59.37543,-38.29779],[-59.37598,-38.29791],[-59.37659,-38.29791],[-59.37708,-38.2981],[-59.3775,-38.2981],[-59.37811,-38.29828],[-59.37872,-38.29852],[-59.37921,-38.29871],[-59.37982,-38.29889],[-59.38031,-38.29901],[-59.38092,-38.29938],[-59.38141,-38.2995],[-59.38208,-38.2998],[-59.38251,-38.2995],[-59.38269,-38.29919],[-59.38318,-38.29889],[-59.38361,-38.29919],[-59.38409,-38.29938],[-59.38483,-38.29968],[-59.38538,-38.2998],[-59.38593,-38.30011],[-59.3866,-38.30029],[-59.38721,-38.3006],[-59.38782,-38.30078],[-59.38831,-38.30109],[-59.38879,-38.30121],[-59.3894,-38.30151],[-59.38989,-38.3017],[-59.39038,-38.30188],[-59.39142,-38.30231],[-59.39148,-38.30231],[-59.39209,-38.30261],[-59.39258,-38.3028],[-59.39288,-38.30322],[-59.39258,-38.30359],[-59.39258,-38.30408],[-59.39319,-38.30438],[-59.39368,-38.3045],[-59.39429,-38.30481],[-59.39478,-38.30499],[-59.39539,-38.3053],[-59.39581,-38.30542],[-59.39691,-38.30591],[-59.3974,-38.30609],[-59.39801,-38.30621],[-59.39862,-38.30658],[-59.39911,-38.30682],[-59.3996,-38.30701],[-59.40033,-38.30731],[-59.40088,-38.3075],[-59.40131,-38.30768],[-59.40179,-38.30792],[-59.40228,-38.30811],[-59.40289,-38.30829],[-59.40338,-38.30841],[-59.40381,-38.30872],[-59.4043,-38.3089],[-59.40479,-38.30908],[-59.40521,-38.30933],[-59.40582,-38.30951],[-59.40631,-38.30969],[-59.4068,-38.30988],[-59.40729,-38.31012],[-59.40778,-38.3103],[-59.40833,-38.31049],[-59.40881,-38.31073],[-59.4093,-38.31091],[-59.40979,-38.3111],[-59.41028,-38.3114],[-59.41089,-38.31158],[-59.41138,-38.31183],[-59.4118,-38.31201],[-59.41241,-38.31219],[-59.4129,-38.31238],[-59.41339,-38.31262],[-59.41388,-38.31281],[-59.41443,-38.31299],[-59.41492,-38.31311],[-59.41541,-38.31342],[-59.41589,-38.3136],[-59.41638,-38.31378],[-59.41699,-38.31403],[-59.41748,-38.31421],[-59.41791,-38.31439],[-59.41852,-38.3147],[-59.41901,-38.31488],[-59.41949,-38.315],[-59.41998,-38.31531],[-59.42059,-38.31549],[-59.42108,-38.31561],[-59.42151,-38.31598],[-59.42212,-38.3161],[-59.42261,-38.31628],[-59.4231,-38.31659],[-59.42358,-38.31671],[-59.42401,-38.31689],[-59.42462,-38.3172],[-59.42511,-38.31738],[-59.4256,-38.3175],[-59.42621,-38.3175],[-59.42639,-38.3175],[-59.4267,-38.31763],[-59.42731,-38.31781],[-59.4278,-38.31799],[-59.42841,-38.31818],[-59.42889,-38.31842],[-59.42938,-38.31848],[-59.42999,-38.31873],[-59.43048,-38.31879],[-59.43079,-38.31891],[-59.4314,-38.31891],[-59.43188,-38.31909],[-59.4325,-38.31921],[-59.43311,-38.31927],[-59.43359,-38.3194],[-59.4342,-38.31952],[-59.43481,-38.31952],[-59.4353,-38.3194],[-59.43591,-38.3194],[-59.43652,-38.3194],[-59.43701,-38.31958],[-59.43762,-38.3197],[-59.43811,-38.31989],[-59.4386,-38.32001],[-59.43921,-38.32013],[-59.43982,-38.32019],[-59.44031,-38.32019],[-59.44092,-38.32031],[-59.44153,-38.32031],[-59.44202,-38.32031],[-59.4425,-38.3205],[-59.44312,-38.3205],[-59.4436,-38.32062],[-59.44427,-38.32068],[-59.44489,-38.3208],[-59.4455,-38.3208],[-59.44611,-38.32092],[-59.44659,-38.32098],[-59.44733,-38.32111],[-59.44781,-38.32111],[-59.44843,-38.32123],[-59.44897,-38.32129],[-59.44958,-38.32129],[-59.45001,-38.32141],[-59.45068,-38.32141],[-59.45129,-38.32159],[-59.4519,-38.32159],[-59.45239,-38.32172],[-59.453,-38.32178],[-59.45331,-38.32178],[-59.45392,-38.3219],[-59.45453,-38.3219],[-59.45508,-38.32202],[-59.45569,-38.32208],[-59.45618,-38.32208],[-59.45679,-38.3222],[-59.45728,-38.32233],[-59.45789,-38.32239],[-59.4585,-38.32239],[-59.45911,-38.32239],[-59.45972,-38.32251],[-59.46021,-38.32251],[-59.46088,-38.32269],[-59.46149,-38.32281],[-59.46198,-38.32288],[-59.46252,-38.32288],[-59.46301,-38.323],[-59.46368,-38.323],[-59.46411,-38.32312],[-59.4646,-38.32318],[-59.46521,-38.3233],[-59.46588,-38.3233],[-59.46631,-38.32343],[-59.46698,-38.32349],[-59.46759,-38.32349],[-59.46808,-38.32361],[-59.46869,-38.32361],[-59.46918,-38.32361],[-59.46979,-38.32379],[-59.47028,-38.32391],[-59.47089,-38.32397],[-59.4715,-38.32397],[-59.47198,-38.3241],[-59.4726,-38.3241],[-59.47321,-38.32422],[-59.474,-38.32428],[-59.4743,-38.3244],[-59.47498,-38.3244],[-59.47559,-38.32452],[-59.47601,-38.32458],[-59.4765,-38.32458],[-59.47711,-38.32471],[-59.4776,-38.32471],[-59.47821,-38.32483],[-59.47882,-38.32489],[-59.47931,-38.32501],[-59.47998,-38.32501],[-59.48053,-38.32501],[-59.48108,-38.3252],[-59.48169,-38.3252],[-59.48218,-38.32532],[-59.48279,-38.32538],[-59.4834,-38.32538],[-59.48389,-38.3255],[-59.4845,-38.32562],[-59.48499,-38.32568],[-59.4856,-38.32568],[-59.48621,-38.32581],[-59.48669,-38.32581],[-59.4873,-38.32593],[-59.48798,-38.32599],[-59.48853,-38.32611],[-59.48907,-38.32611],[-59.48969,-38.32611],[-59.49011,-38.32629],[-59.49078,-38.32629],[-59.49139,-38.32642],[-59.492,-38.32648],[-59.49268,-38.3266],[-59.4939,-38.32678],[-59.49432,-38.32678],[-59.49481,-38.32678],[-59.49548,-38.3269],[-59.49591,-38.3269],[-59.49652,-38.32703],[-59.49719,-38.32709],[-59.49768,-38.32721],[-59.49878,-38.32721],[-59.49939,-38.32739],[-59.49988,-38.32739],[-59.50049,-38.32751],[-59.50098,-38.32758],[-59.50159,-38.3277],[-59.5022,-38.3277],[-59.50269,-38.32782],[-59.5033,-38.32788],[-59.50391,-38.32788],[-59.50439,-38.328],[-59.505,-38.328],[-59.50562,-38.32819],[-59.5061,-38.32819],[-59.50677,-38.32831],[-59.50732,-38.32831],[-59.50781,-38.32831],[-59.50848,-38.32849],[-59.50891,-38.32849],[-59.50958,-38.32861],[-59.51001,-38.32861],[-59.51068,-38.3288],[-59.51111,-38.3288],[-59.51178,-38.32892],[-59.51239,-38.32898],[-59.51288,-38.32898],[-59.51349,-38.3291],[-59.5141,-38.32922],[-59.51459,-38.32928],[-59.5152,-38.32928],[-59.51581,-38.32941],[-59.5163,-38.32941],[-59.51691,-38.32953],[-59.51752,-38.32959],[-59.51801,-38.32959],[-59.51862,-38.32971],[-59.5191,-38.32971],[-59.51971,-38.3299],[-59.52032,-38.3299],[-59.52081,-38.33002],[-59.52142,-38.33008],[-59.52191,-38.33008],[-59.52258,-38.3302],[-59.52301,-38.3302],[-59.52368,-38.33038],[-59.52429,-38.33038],[-59.52478,-38.33051],[-59.52539,-38.33051],[-59.52588,-38.33063],[-59.52649,-38.33069],[-59.5271,-38.33069],[-59.52759,-38.33081],[-59.5282,-38.33081],[-59.52881,-38.33099],[-59.5293,-38.33099],[-59.52991,-38.33112],[-59.53052,-38.33118],[-59.53101,-38.33118],[-59.53162,-38.3313],[-59.5321,-38.3313],[-59.53278,-38.33148],[-59.53339,-38.33148],[-59.53387,-38.3316],[-59.53448,-38.3316],[-59.53491,-38.33173],[-59.53558,-38.33179],[-59.53619,-38.33179],[-59.5368,-38.33191],[-59.53729,-38.33191],[-59.5379,-38.33209],[-59.53839,-38.33209],[-59.539,-38.33221],[-59.53961,-38.33228],[-59.5401,-38.33228],[-59.54071,-38.3324],[-59.54132,-38.3324],[-59.54181,-38.33258],[-59.54242,-38.33258],[-59.54303,-38.3327],[-59.54358,-38.3327],[-59.54388,-38.3327],[-59.54449,-38.33289],[-59.5451,-38.33289],[-59.54559,-38.33301],[-59.5462,-38.33301],[-59.54669,-38.33313],[-59.5473,-38.33319],[-59.54791,-38.33319],[-59.5484,-38.33331],[-59.54901,-38.33331],[-59.54962,-38.33331],[-59.55011,-38.3335],[-59.55072,-38.3335],[-59.55121,-38.33362],[-59.55188,-38.33368],[-59.55249,-38.33368],[-59.55298,-38.3338],[-59.55359,-38.33398],[-59.55408,-38.33398],[-59.55469,-38.33411],[-59.55518,-38.33411],[-59.55579,-38.33423],[-59.5564,-38.33429],[-59.55701,-38.33441],[-59.55768,-38.33441],[-59.55798,-38.33441],[-59.55859,-38.33459],[-59.5592,-38.33459],[-59.55981,-38.33472],[-59.5603,-38.33478],[-59.56079,-38.33478],[-59.56152,-38.3349],[-59.56201,-38.33502],[-59.56262,-38.33508],[-59.56311,-38.33508],[-59.56372,-38.33521],[-59.56421,-38.33521],[-59.56482,-38.33533],[-59.56543,-38.33539],[-59.56598,-38.33539],[-59.56653,-38.33551],[-59.56708,-38.33551],[-59.56763,-38.33551],[-59.56818,-38.33569],[-59.56879,-38.33582],[-59.5694,-38.33588],[-59.56989,-38.33588],[-59.57031,-38.336],[-59.57111,-38.336],[-59.57172,-38.33618],[-59.5722,-38.33618],[-59.57269,-38.3363],[-59.5733,-38.3363],[-59.57379,-38.33643],[-59.5744,-38.33649],[-59.57501,-38.33649],[-59.57581,-38.33661],[-59.57629,-38.33661],[-59.57678,-38.33679],[-59.57739,-38.33679],[-59.57782,-38.33691],[-59.57831,-38.33698],[-59.57892,-38.33698],[-59.57941,-38.3371],[-59.58002,-38.3371],[-59.58063,-38.33722],[-59.58142,-38.33728],[-59.58191,-38.3374],[-59.5824,-38.3374],[-59.58289,-38.33752],[-59.5835,-38.33759],[-59.58411,-38.33759],[-59.58472,-38.33771],[-59.58521,-38.33771],[-59.58582,-38.33789],[-59.5863,-38.33789],[-59.58679,-38.33801],[-59.5874,-38.33801],[-59.58789,-38.33801],[-59.5885,-38.3382],[-59.58911,-38.3382],[-59.58972,-38.33832],[-59.59021,-38.33838],[-59.59088,-38.3385],[-59.59149,-38.3385],[-59.59198,-38.33862],[-59.59259,-38.33868],[-59.59308,-38.33868],[-59.59369,-38.33881],[-59.5943,-38.33881],[-59.59491,-38.33893],[-59.59552,-38.33899],[-59.59601,-38.33899],[-59.59668,-38.33899],[-59.59723,-38.33911],[-59.59772,-38.33911],[-59.59821,-38.33911],[-59.59882,-38.33929],[-59.5993,-38.33929],[-59.59998,-38.33942],[-59.60052,-38.33948],[-59.60101,-38.3396],[-59.60162,-38.3396],[-59.60229,-38.33972],[-59.60291,-38.33978],[-59.60321,-38.3396],[-59.6037,-38.33929],[-59.60388,-38.33893]]]}},{"type":"Feature","properties":{"nombre":"Barker-Necochea","licenciataria":"Camuzzi Gas Pampeana S.A.","tipo":"Distribucion","subtipo":"Cañeria"},"geometry":{"type":"MultiLineString","coordinates":[[[-59.4845,-37.55389],[-59.48437,-37.55402],[-59.48431,-37.55408],[-59.48419,-37.55408],[-59.48401,-37.55408],[-59.48389,-37.5542],[-59.4837,-37.55432],[-59.48358,-37.5545],[-59.48322,-37.55481],[-59.48279,-37.55511],[-59.4823,-37.55542],[-59.48212,-37.55573],[-59.48212,-37.55579],[-59.48212,-37.55591],[-59.4823,-37.55658],[-59.4826,-37.55719],[-59.48279,-37.55762],[-59.48291,-37.55798],[-59.48322,-37.55841],[-59.4834,-37.5589],[-59.48358,-37.55939],[-59.4837,-37.55981],[-59.48389,-37.56018],[-59.48401,-37.56061],[-59.48431,-37.56091],[-59.4845,-37.5614],[-59.48468,-37.56189],[-59.4848,-37.56232],[-59.48499,-37.56268],[-59.48523,-37.56311],[-59.48541,-37.5636],[-59.48541,-37.56378],[-59.4856,-37.56409],[-59.48578,-37.56458],[-59.48602,-37.565],[-59.48621,-37.56549],[-59.48639,-37.5658],[-59.48651,-37.56628],[-59.48669,-37.56671],[-59.48688,-37.56708],[-59.48712,-37.56763],[-59.4873,-37.56799],[-59.48749,-37.56842],[-59.48761,-37.56879],[-59.48779,-37.56927],[-59.4881,-37.5697],[-59.48828,-37.57013],[-59.4884,-37.5705],[-59.48859,-37.57098],[-59.48871,-37.57141],[-59.48901,-37.57178],[-59.48901,-37.5719],[-59.4892,-37.57239],[-59.48938,-37.57281],[-59.48962,-37.57318],[-59.48969,-37.57361],[-59.48999,-37.5741],[-59.49011,-37.57452],[-59.4903,-37.57489],[-59.49048,-37.57538],[-59.49072,-37.57581],[-59.49078,-37.57611],[-59.49103,-37.5766],[-59.49121,-37.57703],[-59.49139,-37.57739],[-59.49158,-37.57788],[-59.49182,-37.57831],[-59.492,-37.57861],[-59.49219,-37.5791],[-59.49231,-37.57959],[-59.49249,-37.58002],[-59.49268,-37.58038],[-59.4928,-37.58069],[-59.49298,-37.58112],[-59.49323,-37.58148],[-59.49341,-37.58191],[-59.49359,-37.5824],[-59.49371,-37.58282],[-59.4939,-37.58319],[-59.49408,-37.58368],[-59.49432,-37.58398],[-59.49451,-37.58441],[-59.49469,-37.5849],[-59.49481,-37.58533],[-59.495,-37.58569],[-59.49518,-37.58618],[-59.49542,-37.58661],[-59.49561,-37.58698],[-59.49579,-37.5874],[-59.49591,-37.58789],[-59.49609,-37.58832],[-59.49628,-37.58868],[-59.49652,-37.58911],[-59.4967,-37.5896],[-59.49689,-37.59003],[-59.49701,-37.59039],[-59.49719,-37.59088],[-59.49738,-37.59131],[-59.49762,-37.59167],[-59.4978,-37.59222],[-59.49799,-37.59259],[-59.49811,-37.59302],[-59.49841,-37.59338],[-59.49841,-37.59381],[-59.49878,-37.5943],[-59.4989,-37.59479],[-59.49908,-37.59521],[-59.49933,-37.59558],[-59.49951,-37.59601],[-59.49969,-37.59637],[-59.49988,-37.5968],[-59.5,-37.59729],[-59.50018,-37.59772],[-59.50043,-37.59808],[-59.50061,-37.59851],[-59.50079,-37.599],[-59.50098,-37.59943],[-59.5011,-37.59979],[-59.50128,-37.60028],[-59.50153,-37.60071],[-59.50171,-37.60101],[-59.50189,-37.6015],[-59.50208,-37.60199],[-59.5022,-37.60242],[-59.50238,-37.60278],[-59.50262,-37.60321],[-59.50281,-37.60358],[-59.50299,-37.604],[-59.50311,-37.60449],[-59.5033,-37.60492],[-59.50348,-37.60529],[-59.50372,-37.60571],[-59.50391,-37.6062],[-59.50409,-37.60663],[-59.50421,-37.60699],[-59.50439,-37.60748],[-59.50452,-37.6076],[-59.50458,-37.60779],[-59.50458,-37.60791],[-59.50488,-37.60852],[-59.505,-37.60901],[-59.50519,-37.60937],[-59.50531,-37.6098],[-59.50549,-37.61023],[-59.50568,-37.61072],[-59.5058,-37.61108],[-59.50598,-37.61151],[-59.50623,-37.612],[-59.50641,-37.61243],[-59.50659,-37.61279],[-59.50671,-37.61328],[-59.50677,-37.61353],[-59.50677,-37.61359],[-59.5069,-37.61371],[-59.50708,-37.61407],[-59.50708,-37.61432],[-59.5072,-37.6145],[-59.50732,-37.61481],[-59.50751,-37.61511],[-59.50763,-37.6156],[-59.50781,-37.61609],[-59.508,-37.61652],[-59.50818,-37.61688],[-59.5083,-37.61731],[-59.50848,-37.6178],[-59.50861,-37.61823],[-59.50879,-37.61859],[-59.50891,-37.61908],[-59.50909,-37.61951],[-59.50928,-37.61981],[-59.50952,-37.6203],[-59.50958,-37.62079],[-59.50983,-37.62122],[-59.51001,-37.62158],[-59.51019,-37.62201],[-59.51031,-37.6225],[-59.5105,-37.62299],[-59.51068,-37.62341],[-59.5108,-37.62378],[-59.51099,-37.62421],[-59.51111,-37.62469],[-59.51129,-37.62512],[-59.51147,-37.62549],[-59.5116,-37.62598],[-59.51178,-37.6264],[-59.51202,-37.62671],[-59.51221,-37.6272],[-59.51233,-37.62769],[-59.51251,-37.62811],[-59.5127,-37.6286],[-59.51282,-37.62878],[-59.51288,-37.62903],[-59.513,-37.62939],[-59.51318,-37.62988],[-59.51331,-37.63031],[-59.51349,-37.63068],[-59.51361,-37.6311],[-59.51379,-37.63159],[-59.51398,-37.6319],[-59.5141,-37.63239],[-59.51428,-37.63281],[-59.51453,-37.63318],[-59.51459,-37.63361],[-59.51471,-37.63379],[-59.51471,-37.63391],[-59.51489,-37.6344],[-59.51489,-37.63458],[-59.51471,-37.63483],[-59.51471,-37.63489],[-59.51459,-37.63501],[-59.51453,-37.63501],[-59.51379,-37.6355],[-59.51331,-37.63599],[-59.51288,-37.63629],[-59.51251,-37.6366],[-59.51208,-37.6369],[-59.51172,-37.63721],[-59.51129,-37.63751],[-59.51093,-37.63788],[-59.5105,-37.63818],[-59.51001,-37.63849],[-59.5097,-37.63879],[-59.5094,-37.63898],[-59.50891,-37.6394],[-59.50861,-37.63971],[-59.50818,-37.64001],[-59.50781,-37.64032],[-59.50739,-37.64062],[-59.50702,-37.64099],[-59.50659,-37.6413],[-59.50623,-37.6416],[-59.5058,-37.64191],[-59.50531,-37.64221],[-59.505,-37.64258],[-59.50458,-37.64288],[-59.50421,-37.64319],[-59.50378,-37.64349],[-59.50342,-37.6438],[-59.50299,-37.6441],[-59.50262,-37.64441],[-59.5022,-37.64478],[-59.50171,-37.64508],[-59.5014,-37.64539],[-59.50098,-37.64569],[-59.50061,-37.646],[-59.50018,-37.6463],[-59.49982,-37.64661],[-59.49939,-37.64691],[-59.49902,-37.64728],[-59.4986,-37.64758],[-59.49811,-37.64789],[-59.4978,-37.64819],[-59.49738,-37.6485],[-59.49701,-37.6488],[-59.49658,-37.64911],[-59.49622,-37.64948],[-59.49579,-37.64978],[-59.49542,-37.65009],[-59.495,-37.65039],[-59.49451,-37.65082],[-59.4942,-37.65112],[-59.49371,-37.65143],[-59.49341,-37.65161],[-59.49298,-37.65198],[-59.49249,-37.6524],[-59.49219,-37.65271],[-59.4917,-37.65302],[-59.49139,-37.65332],[-59.49091,-37.65363],[-59.4906,-37.65399],[-59.49011,-37.6543],[-59.48969,-37.6546],[-59.48938,-37.65491],[-59.48889,-37.65521],[-59.48859,-37.65558],[-59.4881,-37.65588],[-59.48779,-37.65619],[-59.4873,-37.65649],[-59.48688,-37.6568],[-59.48651,-37.6571],[-59.48608,-37.65741],[-59.48578,-37.65778],[-59.48529,-37.65808],[-59.48492,-37.65839],[-59.4845,-37.65869],[-59.48401,-37.659],[-59.4837,-37.6593],[-59.48328,-37.65961],[-59.48291,-37.65991],[-59.48248,-37.66028],[-59.48212,-37.66058],[-59.48169,-37.66089],[-59.48132,-37.66119],[-59.4809,-37.6615],[-59.48053,-37.66193],[-59.4801,-37.66211],[-59.47968,-37.66248],[-59.47931,-37.66278],[-59.47888,-37.66321],[-59.47852,-37.66351],[-59.47809,-37.66382],[-59.4776,-37.66418],[-59.47729,-37.66449],[-59.47681,-37.66479],[-59.4765,-37.6651],[-59.47601,-37.66541],[-59.47571,-37.66571],[-59.47528,-37.66608],[-59.47479,-37.66638],[-59.47449,-37.66669],[-59.474,-37.66699],[-59.47351,-37.6673],[-59.47321,-37.6676],[-59.47278,-37.66791],[-59.47241,-37.66821],[-59.47198,-37.66858],[-59.47162,-37.66888],[-59.47119,-37.66919],[-59.47083,-37.66949],[-59.4704,-37.6698],[-59.46991,-37.6701],[-59.4696,-37.67041],[-59.46918,-37.67078],[-59.46881,-37.67108],[-59.46838,-37.67151],[-59.46802,-37.67181],[-59.46759,-37.67212],[-59.4671,-37.67242],[-59.4668,-37.67273],[-59.46631,-37.6731],[-59.466,-37.6734],[-59.46558,-37.67371],[-59.46521,-37.67401],[-59.46478,-37.67432],[-59.46442,-37.67468],[-59.46399,-37.67499],[-59.4635,-37.67529],[-59.4632,-37.6756],[-59.46271,-37.6759],[-59.4624,-37.67621],[-59.46198,-37.67657],[-59.46149,-37.67688],[-59.46118,-37.67719],[-59.46088,-37.67731],[-59.46051,-37.67761],[-59.46008,-37.67798],[-59.45972,-37.67828],[-59.45929,-37.67859],[-59.45892,-37.67889],[-59.4585,-37.6792],[-59.45813,-37.6795],[-59.4577,-37.67981],[-59.45728,-37.68018],[-59.45691,-37.68048],[-59.45648,-37.68079],[-59.45612,-37.68109],[-59.45569,-37.68152],[-59.45532,-37.68182],[-59.4549,-37.68213],[-59.45453,-37.68231],[-59.4541,-37.68268],[-59.45361,-37.68298],[-59.45331,-37.68329],[-59.45331,-37.68341],[-59.45319,-37.68341],[-59.45282,-37.68378],[-59.45239,-37.68408],[-59.45203,-37.68439],[-59.4516,-37.68469],[-59.45111,-37.685],[-59.45081,-37.6853],[-59.45038,-37.68573],[-59.45001,-37.68591],[-59.44958,-37.68628],[-59.4491,-37.68658],[-59.44879,-37.68689],[-59.4483,-37.68732],[-59.448,-37.68762],[-59.44751,-37.68793],[-59.44708,-37.68811],[-59.44678,-37.68848],[-59.44629,-37.6889],[-59.44598,-37.68921],[-59.4455,-37.68951],[-59.44513,-37.68982],[-59.4447,-37.69012],[-59.44427,-37.69049],[-59.44391,-37.6908],[-59.44348,-37.6911],[-59.44312,-37.69141],[-59.44269,-37.69171],[-59.44232,-37.69208],[-59.44189,-37.69238],[-59.44153,-37.69269],[-59.4411,-37.69299],[-59.44061,-37.6933],[-59.44031,-37.6936],[-59.43988,-37.69391],[-59.43951,-37.69427],[-59.43909,-37.69458],[-59.43872,-37.69489],[-59.43829,-37.69519],[-59.43793,-37.6955],[-59.4375,-37.6958],[-59.43738,-37.69592],[-59.43738,-37.69598],[-59.43701,-37.69611],[-59.43671,-37.69641],[-59.43628,-37.69678],[-59.43591,-37.6972],[-59.43549,-37.69751],[-59.43518,-37.69781],[-59.43481,-37.69818],[-59.43439,-37.69849],[-59.43402,-37.69879],[-59.43359,-37.6991],[-59.43323,-37.6994],[-59.4328,-37.69983],[-59.4325,-37.70001],[-59.43201,-37.70038],[-59.4317,-37.70081],[-59.43121,-37.70111],[-59.43091,-37.70148],[-59.43048,-37.70178],[-59.43018,-37.70209],[-59.42981,-37.70239],[-59.42938,-37.70282],[-59.42889,-37.70312],[-59.42859,-37.70349],[-59.42822,-37.7038],[-59.4278,-37.7041],[-59.42743,-37.70441],[-59.427,-37.70471],[-59.42657,-37.70508],[-59.42621,-37.70538],[-59.4259,-37.70569],[-59.42548,-37.70612],[-59.42511,-37.70642],[-59.42468,-37.70673],[-59.42438,-37.70709],[-59.42389,-37.7074],[-59.42358,-37.7077],[-59.42352,-37.70782],[-59.4234,-37.70789],[-59.42328,-37.70789],[-59.42322,-37.70801],[-59.42279,-37.70831],[-59.42242,-37.70868],[-59.4223,-37.7088],[-59.42212,-37.70898],[-59.422,-37.70898],[-59.42151,-37.70941],[-59.4212,-37.70972],[-59.4209,-37.71008],[-59.42041,-37.71039],[-59.4201,-37.71069],[-59.41968,-37.711],[-59.41931,-37.7113],[-59.41888,-37.71161],[-59.41858,-37.71198],[-59.41821,-37.71228],[-59.41779,-37.71271],[-59.41742,-37.71301],[-59.41699,-37.71332],[-59.41663,-37.71368],[-59.4162,-37.71399],[-59.41589,-37.71429],[-59.41553,-37.7146],[-59.4151,-37.71503],[-59.41461,-37.71521],[-59.41431,-37.7157],[-59.41388,-37.716],[-59.41351,-37.71631],[-59.41309,-37.71667],[-59.41278,-37.71698],[-59.41241,-37.71729],[-59.41199,-37.71759],[-59.41162,-37.7179],[-59.41119,-37.71832],[-59.41089,-37.71863],[-59.4104,-37.71899],[-59.4101,-37.7193],[-59.40961,-37.7196],[-59.4093,-37.71991],[-59.40887,-37.72028],[-59.40851,-37.72058],[-59.40808,-37.72089],[-59.40778,-37.72119],[-59.40729,-37.72162],[-59.40698,-37.72192],[-59.40662,-37.72229],[-59.40619,-37.7226],[-59.40582,-37.7229],[-59.4054,-37.72321],[-59.40503,-37.72351],[-59.4046,-37.72388],[-59.4043,-37.72418],[-59.40381,-37.72461],[-59.4035,-37.72491],[-59.40308,-37.72522],[-59.40271,-37.72559],[-59.40228,-37.72589],[-59.40198,-37.7262],[-59.40149,-37.7265],[-59.40118,-37.72693],[-59.40082,-37.72711],[-59.40039,-37.72748],[-59.40002,-37.72791],[-59.3996,-37.72821],[-59.39911,-37.72858],[-59.3988,-37.72888],[-59.39868,-37.729],[-59.39832,-37.72931],[-59.39789,-37.72968],[-59.39752,-37.72998],[-59.39709,-37.73029],[-59.39679,-37.73071],[-59.39648,-37.7309],[-59.39642,-37.7309],[-59.3963,-37.73102],[-59.396,-37.73132],[-59.39551,-37.73163],[-59.3952,-37.73199],[-59.39478,-37.7323],[-59.39441,-37.7326],[-59.39398,-37.73291],[-59.39362,-37.73328],[-59.39319,-37.73358],[-59.39282,-37.73389],[-59.3924,-37.73419],[-59.39203,-37.7345],[-59.3916,-37.7348],[-59.39111,-37.73511],[-59.39081,-37.73541],[-59.39062,-37.7356],[-59.3902,-37.7359],[-59.38971,-37.73633],[-59.3894,-37.73651],[-59.38898,-37.73688],[-59.38861,-37.73718],[-59.38818,-37.73761],[-59.38782,-37.73792],[-59.38739,-37.73822],[-59.38702,-37.73853],[-59.3866,-37.73889],[-59.38611,-37.7392],[-59.3858,-37.7395],[-59.38538,-37.73981],[-59.38501,-37.74011],[-59.38458,-37.74048],[-59.38422,-37.74078],[-59.38379,-37.74109],[-59.38348,-37.74139],[-59.383,-37.7417],[-59.38269,-37.742],[-59.38263,-37.74213],[-59.3822,-37.74231],[-59.38177,-37.7428],[-59.38141,-37.7431],[-59.38098,-37.74341],[-59.38062,-37.74371],[-59.38019,-37.74408],[-59.37982,-37.74438],[-59.37939,-37.74469],[-59.37903,-37.745],[-59.3786,-37.7453],[-59.37811,-37.74561],[-59.37781,-37.74591],[-59.37738,-37.74628],[-59.37701,-37.74658],[-59.37659,-37.74689],[-59.37622,-37.74719],[-59.37579,-37.74762],[-59.37549,-37.74792],[-59.375,-37.74823],[-59.37469,-37.74841],[-59.37421,-37.7489],[-59.37378,-37.74921],[-59.37341,-37.74951],[-59.37299,-37.74988],[-59.37268,-37.75018],[-59.37219,-37.75049],[-59.37189,-37.75079],[-59.3714,-37.7511],[-59.37109,-37.7514],[-59.37061,-37.75171],[-59.3703,-37.75208],[-59.36981,-37.75238],[-59.36951,-37.75269],[-59.36908,-37.75299],[-59.36859,-37.75342],[-59.36829,-37.75372],[-59.3678,-37.75403],[-59.36749,-37.75421],[-59.36713,-37.75458],[-59.36682,-37.75488],[-59.36639,-37.75519],[-59.36603,-37.75549],[-59.3656,-37.7558],[-59.36548,-37.75592],[-59.36542,-37.75598],[-59.36511,-37.7561],[-59.36481,-37.75641],[-59.36438,-37.75677],[-59.36401,-37.75708],[-59.36359,-37.75739],[-59.36322,-37.75781],[-59.36279,-37.75812],[-59.36243,-37.75842],[-59.362,-37.75879],[-59.36151,-37.75909],[-59.36121,-37.75928],[-59.36078,-37.7597],[-59.36041,-37.76001],[-59.35999,-37.76038],[-59.35962,-37.76068],[-59.35919,-37.76099],[-59.35883,-37.76129],[-59.3584,-37.7616],[-59.35791,-37.76202],[-59.3576,-37.76233],[-59.35718,-37.76251],[-59.35681,-37.76288],[-59.35638,-37.76331],[-59.35602,-37.76361],[-59.35559,-37.76392],[-59.35522,-37.76422],[-59.3548,-37.76459],[-59.35449,-37.76471],[-59.35431,-37.76489],[-59.354,-37.7652],[-59.35358,-37.7655],[-59.35321,-37.76581],[-59.35278,-37.76611],[-59.35248,-37.76648],[-59.35199,-37.76678],[-59.35168,-37.76709],[-59.3512,-37.7674],[-59.35089,-37.7677],[-59.3504,-37.76813],[-59.35022,-37.76831],[-59.3501,-37.76831],[-59.34961,-37.76868],[-59.34961,-37.7688],[-59.34949,-37.7688],[-59.3493,-37.76898],[-59.34888,-37.76929],[-59.34851,-37.76971],[-59.34808,-37.77002],[-59.34772,-37.77032],[-59.34729,-37.77063],[-59.34692,-37.771],[-59.3465,-37.7713],[-59.34601,-37.77161],[-59.3457,-37.77191],[-59.34528,-37.77228],[-59.34491,-37.77258],[-59.34448,-37.77289],[-59.34412,-37.77319],[-59.34369,-37.7735],[-59.34332,-37.7738],[-59.3429,-37.77411],[-59.34253,-37.77448],[-59.3421,-37.77478],[-59.34167,-37.77509],[-59.34131,-37.77539],[-59.34088,-37.77582],[-59.34052,-37.77612],[-59.34009,-37.77643],[-59.33972,-37.77661],[-59.33929,-37.7771],[-59.33893,-37.7774],[-59.3385,-37.77771],[-59.33801,-37.77808],[-59.33771,-37.77838],[-59.33728,-37.77869],[-59.33698,-37.77899],[-59.33649,-37.7793],[-59.33618,-37.7796],[-59.33569,-37.77991],[-59.33539,-37.78021],[-59.3349,-37.78058],[-59.33441,-37.78088],[-59.33411,-37.78119],[-59.33368,-37.78149],[-59.33331,-37.78192],[-59.33289,-37.78223],[-59.33258,-37.78241],[-59.33209,-37.7829],[-59.33179,-37.7832],[-59.3316,-37.78333],[-59.3313,-37.78351],[-59.33081,-37.78387],[-59.33051,-37.78418],[-59.3302,-37.78448],[-59.32971,-37.78479],[-59.32941,-37.7851],[-59.32898,-37.7854],[-59.32861,-37.78571],[-59.32819,-37.78601],[-59.32782,-37.78638],[-59.32739,-37.78668],[-59.3269,-37.78699],[-59.3266,-37.78741],[-59.32611,-37.78772],[-59.32581,-37.78802],[-59.32538,-37.78821],[-59.32501,-37.78851],[-59.32458,-37.789],[-59.32422,-37.78931],[-59.32379,-37.78961],[-59.3233,-37.78998],[-59.32318,-37.7901],[-59.32312,-37.7901],[-59.323,-37.79022],[-59.32269,-37.79041],[-59.32239,-37.79071],[-59.3219,-37.79108],[-59.32159,-37.79138],[-59.32111,-37.79169],[-59.3208,-37.79199],[-59.32031,-37.7923],[-59.32001,-37.7926],[-59.31958,-37.79303],[-59.31921,-37.79321],[-59.31891,-37.7934],[-59.3186,-37.79382],[-59.31818,-37.79413],[-59.31781,-37.79431],[-59.31763,-37.79462],[-59.3172,-37.79492],[-59.31671,-37.79523],[-59.31641,-37.79559],[-59.31598,-37.7959],[-59.31561,-37.7962],[-59.31543,-37.79639],[-59.315,-37.79669],[-59.31458,-37.797],[-59.31421,-37.7973],[-59.31378,-37.79761],[-59.31348,-37.79791],[-59.31299,-37.79828],[-59.31268,-37.79858],[-59.31219,-37.79889],[-59.31183,-37.79919],[-59.3114,-37.7995],[-59.31091,-37.79993],[-59.31061,-37.80011],[-59.31018,-37.80048],[-59.30988,-37.8009],[-59.30951,-37.80109],[-59.30939,-37.80121],[-59.30908,-37.80151],[-59.30859,-37.80182],[-59.30829,-37.80219],[-59.3078,-37.80249],[-59.3075,-37.8028],[-59.30701,-37.8031],[-59.3067,-37.80341],[-59.30621,-37.80371],[-59.30579,-37.80408],[-59.30548,-37.80438],[-59.30499,-37.80469],[-59.30469,-37.80499],[-59.30432,-37.8053],[-59.30371,-37.80548],[-59.30353,-37.8056],[-59.30341,-37.8056],[-59.30328,-37.8056],[-59.30261,-37.80591],[-59.30249,-37.8064],[-59.30243,-37.80682],[-59.30231,-37.80719],[-59.30212,-37.80768],[-59.302,-37.80811],[-59.30182,-37.80859],[-59.3017,-37.80902],[-59.30157,-37.80939],[-59.30139,-37.80988],[-59.30121,-37.8103],[-59.30109,-37.81073],[-59.3009,-37.8111],[-59.30078,-37.81158],[-59.3006,-37.81201],[-59.30048,-37.8125],[-59.30029,-37.81293],[-59.30011,-37.81329],[-59.29999,-37.81378],[-59.29993,-37.81421],[-59.2998,-37.8147],[-59.29962,-37.81512],[-59.2995,-37.81549],[-59.29932,-37.81598],[-59.29919,-37.81641],[-59.29901,-37.81671],[-59.29889,-37.8172],[-59.29871,-37.81769],[-59.29858,-37.81818],[-59.2984,-37.8186],[-59.29828,-37.81891],[-59.2981,-37.8194],[-59.29791,-37.81989],[-59.29779,-37.82031],[-59.29773,-37.82068],[-59.29761,-37.82111],[-59.29742,-37.82159],[-59.2973,-37.82208],[-59.29712,-37.82251],[-59.297,-37.82288],[-59.29681,-37.8233],[-59.29669,-37.82379],[-59.29651,-37.82422],[-59.29639,-37.82458],[-59.29633,-37.82489],[-59.2962,-37.82501],[-59.29608,-37.8255],[-59.2959,-37.82593],[-59.29578,-37.82642],[-59.29559,-37.82678],[-59.29541,-37.82721],[-59.29529,-37.8277],[-59.29523,-37.82812],[-59.29498,-37.82849],[-59.29492,-37.82898],[-59.2948,-37.82941],[-59.29462,-37.82971],[-59.29449,-37.83032],[-59.29431,-37.83069],[-59.29419,-37.83118],[-59.29401,-37.8316],[-59.29388,-37.83209],[-59.2937,-37.83252],[-59.29358,-37.83289],[-59.2934,-37.83331],[-59.29321,-37.8338],[-59.29309,-37.83429],[-59.29303,-37.83459],[-59.29279,-37.83508],[-59.29272,-37.83551],[-59.29248,-37.836],[-59.29242,-37.83643],[-59.29218,-37.83679],[-59.29211,-37.83728],[-59.29199,-37.83771],[-59.29181,-37.8382],[-59.29169,-37.83862],[-59.2915,-37.83899],[-59.29138,-37.83942],[-59.2912,-37.8399],[-59.29108,-37.84021],[-59.29089,-37.8407],[-59.29071,-37.84119],[-59.29059,-37.84161],[-59.29053,-37.84198],[-59.29028,-37.84241],[-59.29022,-37.8429],[-59.28998,-37.84338],[-59.28992,-37.84381],[-59.28979,-37.84418],[-59.28961,-37.8446],[-59.28949,-37.84509],[-59.28931,-37.84552],[-59.28918,-37.84589],[-59.289,-37.84637],[-59.28888,-37.8468],[-59.2887,-37.84729],[-59.28851,-37.84772],[-59.28839,-37.84808],[-59.28821,-37.84851],[-59.28809,-37.849],[-59.28802,-37.84949],[-59.28778,-37.84991],[-59.28772,-37.85028],[-59.28748,-37.85071],[-59.28741,-37.8512],[-59.28711,-37.85162],[-59.28711,-37.85199],[-59.28699,-37.85248],[-59.2868,-37.85291],[-59.28668,-37.85321],[-59.2865,-37.85382],[-59.2865,-37.85388],[-59.28638,-37.85419],[-59.28619,-37.85468],[-59.28601,-37.8551],[-59.28601,-37.85529],[-59.28589,-37.85553],[-59.28571,-37.8559],[-59.28558,-37.85638],[-59.28552,-37.85681],[-59.28528,-37.8573],[-59.28522,-37.85773],[-59.28491,-37.85809],[-59.28491,-37.85858],[-59.28479,-37.85901],[-59.28461,-37.85937],[-59.28448,-37.85962],[-59.28448,-37.8598],[-59.2843,-37.86029],[-59.28418,-37.86072],[-59.284,-37.86121],[-59.28387,-37.86151],[-59.28369,-37.862],[-59.28351,-37.86249],[-59.28339,-37.86292],[-59.28333,-37.86328],[-59.28308,-37.86371],[-59.28302,-37.8642],[-59.28278,-37.86462],[-59.28271,-37.86511],[-59.28259,-37.86548],[-59.28241,-37.86591],[-59.28229,-37.86639],[-59.2821,-37.86682],[-59.28198,-37.86731],[-59.2818,-37.86768],[-59.28168,-37.8681],[-59.28149,-37.86859],[-59.28131,-37.86902],[-59.28131,-37.86908],[-59.28119,-37.86938],[-59.28101,-37.86981],[-59.28088,-37.8703],[-59.2807,-37.87079],[-59.28058,-37.87122],[-59.28052,-37.87158],[-59.28021,-37.87201],[-59.28021,-37.8725],[-59.28003,-37.87292],[-59.27991,-37.87329],[-59.27972,-37.87378],[-59.2796,-37.87421],[-59.27948,-37.87451],[-59.2793,-37.875],[-59.27917,-37.87549],[-59.27899,-37.87598],[-59.27881,-37.8764],[-59.27869,-37.87689],[-59.2785,-37.87732],[-59.27838,-37.87769],[-59.2782,-37.87811],[-59.27808,-37.8786],[-59.27789,-37.87903],[-59.27771,-37.87939],[-59.27771,-37.87982],[-59.27759,-37.87988],[-59.27753,-37.88031],[-59.2774,-37.88068],[-59.27722,-37.88123],[-59.2771,-37.88159],[-59.27692,-37.88208],[-59.27679,-37.88251],[-59.27661,-37.88281],[-59.27649,-37.8833],[-59.27631,-37.88379],[-59.27631,-37.88391],[-59.27618,-37.88409],[-59.27618,-37.88428],[-59.276,-37.8847],[-59.27588,-37.88501],[-59.2757,-37.8855],[-59.27551,-37.88599],[-59.27539,-37.88641],[-59.27533,-37.88678],[-59.27521,-37.88721],[-59.27502,-37.8877],[-59.2749,-37.88812],[-59.27472,-37.88849],[-59.2746,-37.88898],[-59.27441,-37.8894],[-59.27429,-37.88989],[-59.27411,-37.89032],[-59.27399,-37.89069],[-59.2738,-37.89111],[-59.27368,-37.8916],[-59.2735,-37.89203],[-59.27338,-37.89252],[-59.27319,-37.89288],[-59.27301,-37.89331],[-59.27289,-37.8938],[-59.27283,-37.89429],[-59.27258,-37.89471],[-59.27252,-37.89508],[-59.2724,-37.89551],[-59.27222,-37.896],[-59.27209,-37.89642],[-59.27191,-37.89679],[-59.27179,-37.89728],[-59.27161,-37.89771],[-59.27148,-37.89819],[-59.2713,-37.89862],[-59.27118,-37.89899],[-59.271,-37.89948],[-59.27081,-37.8999],[-59.27069,-37.90033],[-59.27063,-37.9007],[-59.27039,-37.90118],[-59.27032,-37.90161],[-59.27008,-37.9021],[-59.27002,-37.90253],[-59.26978,-37.90289],[-59.26971,-37.90338],[-59.26941,-37.90381],[-59.26941,-37.9043],[-59.26929,-37.90472],[-59.2691,-37.90509],[-59.26898,-37.90558],[-59.2688,-37.90601],[-59.26868,-37.90631],[-59.26849,-37.9068],[-59.26849,-37.90698],[-59.26831,-37.9071],[-59.26831,-37.90729],[-59.26819,-37.90778],[-59.26801,-37.9082],[-59.26788,-37.90851],[-59.2677,-37.909],[-59.26758,-37.90948],[-59.26752,-37.90991],[-59.26721,-37.91028],[-59.26721,-37.91071],[-59.26703,-37.91119],[-59.26691,-37.91168],[-59.26672,-37.91211],[-59.2666,-37.91248],[-59.26648,-37.9129],[-59.2663,-37.91339],[-59.26611,-37.91382],[-59.26599,-37.91418],[-59.26581,-37.91461],[-59.26569,-37.9151],[-59.2655,-37.91559],[-59.26538,-37.91589],[-59.26538,-37.91602],[-59.2652,-37.91638],[-59.26508,-37.91681],[-59.26489,-37.9173],[-59.26471,-37.91772],[-59.26471,-37.91809],[-59.26453,-37.91858],[-59.2644,-37.91901],[-59.26422,-37.91949],[-59.2641,-37.91992],[-59.26392,-37.92029],[-59.26379,-37.92078],[-59.26361,-37.9212],[-59.26361,-37.92139],[-59.26349,-37.92169],[-59.26331,-37.92212],[-59.26318,-37.92249],[-59.263,-37.92291],[-59.26288,-37.9234],[-59.2627,-37.92383],[-59.26251,-37.92419],[-59.26239,-37.92468],[-59.26233,-37.92511],[-59.26208,-37.9256],[-59.26202,-37.92603],[-59.2619,-37.92639],[-59.26172,-37.92688],[-59.2616,-37.92731],[-59.26141,-37.92761],[-59.26129,-37.9281],[-59.26111,-37.92859],[-59.26099,-37.92908],[-59.2608,-37.9295],[-59.26068,-37.92981],[-59.2605,-37.9303],[-59.26038,-37.93079],[-59.26019,-37.93121],[-59.26001,-37.93158],[-59.25989,-37.93201],[-59.25983,-37.9325],[-59.25958,-37.93298],[-59.25952,-37.93341],[-59.2594,-37.93378],[-59.25922,-37.93439],[-59.25861,-37.93591],[-59.25848,-37.9364],[-59.2583,-37.93689],[-59.25818,-37.93732],[-59.258,-37.93768],[-59.25781,-37.93811],[-59.25769,-37.9386],[-59.25763,-37.93909],[-59.25739,-37.93951],[-59.25732,-37.93988],[-59.25708,-37.94031],[-59.25702,-37.9408],[-59.25677,-37.94122],[-59.25671,-37.94159],[-59.25659,-37.94208],[-59.25641,-37.9425],[-59.25629,-37.94281],[-59.2561,-37.94342],[-59.25598,-37.94379],[-59.2558,-37.94427],[-59.25568,-37.9447],[-59.25549,-37.94519],[-59.25531,-37.94562],[-59.25519,-37.94598],[-59.25519,-37.94611],[-59.255,-37.94641],[-59.25488,-37.9469],[-59.2547,-37.94733],[-59.25458,-37.94769],[-59.25439,-37.94818],[-59.25421,-37.94861],[-59.25421,-37.9491],[-59.25403,-37.94952],[-59.25391,-37.94989],[-59.25372,-37.95038],[-59.2536,-37.95081],[-59.25348,-37.95111],[-59.2533,-37.9516],[-59.25311,-37.95209],[-59.25299,-37.95258],[-59.25281,-37.953],[-59.25269,-37.95331],[-59.2525,-37.9538],[-59.25238,-37.95428],[-59.25232,-37.95471],[-59.2522,-37.9552],[-59.25208,-37.95563],[-59.25201,-37.95599],[-59.25189,-37.95648],[-59.25171,-37.95691],[-59.25171,-37.9574],[-59.25159,-37.95782],[-59.25153,-37.95819],[-59.2514,-37.95868],[-59.25128,-37.95911],[-59.25122,-37.95959],[-59.2511,-37.96002],[-59.25098,-37.96051],[-59.25098,-37.96088],[-59.25079,-37.9613],[-59.25061,-37.96179],[-59.25061,-37.96228],[-59.25049,-37.96271],[-59.25049,-37.96301],[-59.25031,-37.96362],[-59.25018,-37.96399],[-59.25018,-37.96448],[-59.25,-37.9649],[-59.25,-37.96539],[-59.24988,-37.96582],[-59.24982,-37.96619],[-59.24969,-37.96667],[-59.24951,-37.9671],[-59.24951,-37.96759],[-59.24939,-37.96802],[-59.24933,-37.96838],[-59.24921,-37.96881],[-59.24908,-37.9693],[-59.24902,-37.96979],[-59.2489,-37.97028],[-59.24878,-37.9707],[-59.24872,-37.97101],[-59.2486,-37.97162],[-59.24841,-37.97211],[-59.24841,-37.97241],[-59.24829,-37.9729],[-59.24823,-37.97339],[-59.24811,-37.97388],[-59.24799,-37.9743],[-59.24792,-37.97461],[-59.2478,-37.97522],[-59.24768,-37.97559],[-59.24768,-37.97601],[-59.2475,-37.9765],[-59.2475,-37.97693],[-59.24738,-37.97742],[-59.24719,-37.97778],[-59.24719,-37.97821],[-59.24701,-37.9787],[-59.24701,-37.97919],[-59.24689,-37.97961],[-59.2467,-37.97998],[-59.2467,-37.98041],[-59.24658,-37.9809],[-59.24652,-37.98138],[-59.2464,-37.98181],[-59.24628,-37.98218],[-59.24622,-37.98273],[-59.24609,-37.98309],[-59.24591,-37.98358],[-59.24591,-37.98401],[-59.24579,-37.98437],[-59.24573,-37.9848],[-59.24561,-37.98529],[-59.24548,-37.98578],[-59.24542,-37.98621],[-59.2453,-37.98669],[-59.24518,-37.98712],[-59.24518,-37.98749],[-59.245,-37.98798],[-59.245,-37.9884],[-59.24481,-37.98889],[-59.24469,-37.98938],[-59.24469,-37.98981],[-59.24451,-37.99011],[-59.24451,-37.9903],[-59.24451,-37.99072],[-59.24438,-37.99109],[-59.2442,-37.99158],[-59.2442,-37.992],[-59.24408,-37.99249],[-59.24402,-37.99292],[-59.2439,-37.99329],[-59.24371,-37.99371],[-59.24371,-37.9942],[-59.24359,-37.99469],[-59.24341,-37.99512],[-59.24341,-37.99548],[-59.24329,-37.99591],[-59.24323,-37.9964],[-59.2431,-37.99689],[-59.24298,-37.99731],[-59.24292,-37.9978],[-59.2428,-37.99823],[-59.24268,-37.9986],[-59.24268,-37.99878],[-59.24268,-37.9989],[-59.24261,-37.99908],[-59.24249,-37.99951],[-59.24231,-38.0],[-59.24231,-38.00049],[-59.24219,-38.00092],[-59.24213,-38.00128],[-59.242,-38.00171],[-59.24188,-38.0022],[-59.24188,-38.00269],[-59.2417,-38.00299],[-59.2417,-38.00311],[-59.2417,-38.00348],[-59.24158,-38.00403],[-59.24152,-38.00439],[-59.24139,-38.00488],[-59.24121,-38.00531],[-59.24121,-38.00568],[-59.24109,-38.00623],[-59.24103,-38.00659],[-59.24091,-38.00708],[-59.24078,-38.00751],[-59.24078,-38.00769],[-59.24072,-38.00812],[-59.2406,-38.00848],[-59.24048,-38.00891],[-59.24042,-38.0094],[-59.2403,-38.00989],[-59.24011,-38.01031],[-59.24011,-38.01068],[-59.23999,-38.01111],[-59.23993,-38.0116],[-59.23993,-38.01172],[-59.23981,-38.01178],[-59.23981,-38.01208],[-59.23969,-38.01251],[-59.23962,-38.013],[-59.2395,-38.01343],[-59.23938,-38.01379],[-59.23938,-38.01428],[-59.2392,-38.01471],[-59.23907,-38.0152],[-59.23907,-38.01562],[-59.23901,-38.01581],[-59.23889,-38.01599],[-59.23889,-38.0163],[-59.23871,-38.01678],[-59.23871,-38.01721],[-59.23859,-38.0177],[-59.23853,-38.01813],[-59.2384,-38.01849],[-59.23828,-38.01898],[-59.23822,-38.01941],[-59.2381,-38.0199],[-59.23798,-38.02032],[-59.23792,-38.02081],[-59.23779,-38.02118],[-59.23761,-38.02161],[-59.23761,-38.02209],[-59.23749,-38.02258],[-59.23743,-38.02301],[-59.2373,-38.02338],[-59.23718,-38.02393],[-59.23718,-38.02429],[-59.237,-38.02478],[-59.23688,-38.02521],[-59.23688,-38.0257],[-59.23669,-38.02618],[-59.23651,-38.02661],[-59.23651,-38.0271],[-59.23639,-38.02753],[-59.23639,-38.02789],[-59.23621,-38.02838],[-59.23608,-38.02881],[-59.23608,-38.0293],[-59.2359,-38.02972],[-59.2359,-38.03009],[-59.23578,-38.03058],[-59.23572,-38.03101],[-59.2356,-38.03149],[-59.23541,-38.03198],[-59.23541,-38.03241],[-59.23529,-38.03278],[-59.23523,-38.0332],[-59.23511,-38.03369],[-59.23499,-38.03418],[-59.23492,-38.03461],[-59.2348,-38.0351],[-59.23468,-38.03552],[-59.23462,-38.03589],[-59.2345,-38.03638],[-59.23437,-38.0368],[-59.23437,-38.03729],[-59.23419,-38.03772],[-59.23401,-38.03809],[-59.23401,-38.03851],[-59.23389,-38.039],[-59.23389,-38.03949],[-59.2337,-38.03992],[-59.23358,-38.04041],[-59.23358,-38.04071],[-59.2334,-38.0412],[-59.2334,-38.04169],[-59.23328,-38.04199],[-59.23328,-38.04218],[-59.23322,-38.0426],[-59.23309,-38.04303],[-59.23291,-38.04352],[-59.23291,-38.04388],[-59.23279,-38.04431],[-59.23273,-38.0448],[-59.2326,-38.04523],[-59.23248,-38.04572],[-59.23242,-38.04608],[-59.2323,-38.04651],[-59.23218,-38.047],[-59.23212,-38.04749],[-59.23199,-38.04791],[-59.23181,-38.04828],[-59.23181,-38.04883],[-59.23169,-38.04919],[-59.23163,-38.04968],[-59.23163,-38.04993],[-59.23138,-38.0509],[-59.23138,-38.05103],[-59.2312,-38.05151],[-59.23108,-38.052],[-59.23108,-38.05243],[-59.2309,-38.0528],[-59.2309,-38.0531],[-59.23071,-38.05371],[-59.23059,-38.0542],[-59.23059,-38.05463],[-59.23041,-38.05499],[-59.23029,-38.05548],[-59.23029,-38.05591],[-59.2301,-38.0564],[-59.2301,-38.05688],[-59.22998,-38.05731],[-59.22992,-38.05768],[-59.2298,-38.05811],[-59.22968,-38.05859],[-59.22961,-38.05908],[-59.22949,-38.05951],[-59.22931,-38.05988],[-59.22931,-38.0603],[-59.22919,-38.06079],[-59.22913,-38.06128],[-59.229,-38.06171],[-59.22888,-38.06201],[-59.22882,-38.06262],[-59.2287,-38.06299],[-59.22858,-38.06348],[-59.22858,-38.0639],[-59.22839,-38.06439],[-59.22821,-38.06482],[-59.22821,-38.06519],[-59.22809,-38.06561],[-59.22809,-38.0661],[-59.22791,-38.06659],[-59.22778,-38.06702],[-59.22778,-38.06738],[-59.2276,-38.06781],[-59.2276,-38.0683],[-59.22748,-38.06879],[-59.22742,-38.06927],[-59.22729,-38.0697],[-59.22711,-38.06989],[-59.22711,-38.07013],[-59.22711,-38.0705],[-59.22699,-38.07098],[-59.22681,-38.07141],[-59.22681,-38.0719],[-59.22668,-38.07239],[-59.22662,-38.07281],[-59.2265,-38.07318],[-59.22638,-38.07361],[-59.22632,-38.0741],[-59.2262,-38.07458],[-59.22601,-38.07501],[-59.22601,-38.07538],[-59.22589,-38.07593],[-59.22571,-38.07629],[-59.22571,-38.07678],[-59.22559,-38.07721],[-59.22552,-38.0777],[-59.2254,-38.07812],[-59.22528,-38.07861],[-59.22528,-38.07898],[-59.2251,-38.07941],[-59.22498,-38.0799],[-59.22498,-38.08038],[-59.22479,-38.08081],[-59.22479,-38.08118],[-59.22461,-38.0816],[-59.22449,-38.08209],[-59.22449,-38.08258],[-59.2243,-38.08301],[-59.2243,-38.0835],[-59.22418,-38.08392],[-59.22412,-38.08429],[-59.224,-38.08478],[-59.22388,-38.08521],[-59.22382,-38.08569],[-59.22369,-38.08612],[-59.22351,-38.08649],[-59.22351,-38.08698],[-59.22339,-38.0874],[-59.22333,-38.08789],[-59.22321,-38.08832],[-59.22308,-38.08881],[-59.22302,-38.08911],[-59.2229,-38.0896],[-59.22278,-38.09009],[-59.22278,-38.09058],[-59.2226,-38.091],[-59.22241,-38.09131],[-59.22241,-38.09192],[-59.22211,-38.0932],[-59.22198,-38.09369],[-59.22198,-38.09412],[-59.2218,-38.09448],[-59.2218,-38.09491],[-59.22168,-38.0954],[-59.22162,-38.09589],[-59.2215,-38.09631],[-59.22137,-38.0968],[-59.22131,-38.09723],[-59.22119,-38.0976],[-59.22101,-38.09808],[-59.22101,-38.09851],[-59.22089,-38.099],[-59.22083,-38.09949],[-59.2207,-38.09991],[-59.22058,-38.10028],[-59.22052,-38.10071],[-59.2204,-38.1012],[-59.22028,-38.10168],[-59.22021,-38.10211],[-59.22009,-38.10248],[-59.21991,-38.10291],[-59.21991,-38.10339],[-59.21979,-38.10388],[-59.21973,-38.10431],[-59.2196,-38.1048],[-59.21948,-38.10522],[-59.21948,-38.10571],[-59.2193,-38.10608],[-59.21918,-38.10651],[-59.21918,-38.10699],[-59.21899,-38.10748],[-59.21899,-38.10791],[-59.21881,-38.10828],[-59.21881,-38.1087],[-59.21869,-38.10919],[-59.21851,-38.10968],[-59.21851,-38.11011],[-59.21838,-38.11041],[-59.2182,-38.11102],[-59.2182,-38.11139],[-59.21808,-38.11188],[-59.21802,-38.1123],[-59.2179,-38.11279],[-59.21771,-38.11322],[-59.21771,-38.11359],[-59.21759,-38.11407],[-59.21753,-38.1145],[-59.21741,-38.11499],[-59.21729,-38.11542],[-59.21722,-38.11591],[-59.2171,-38.11621],[-59.21698,-38.1167],[-59.21692,-38.11719],[-59.2168,-38.11761],[-59.21667,-38.1181],[-59.21667,-38.11841],[-59.21649,-38.1189],[-59.21649,-38.11938],[-59.21631,-38.11981],[-59.21619,-38.1203],[-59.21619,-38.12073],[-59.216,-38.12109],[-59.216,-38.12158],[-59.21588,-38.12201],[-59.21582,-38.12238],[-59.21582,-38.1225],[-59.2157,-38.12262],[-59.2157,-38.12292],[-59.21558,-38.12341],[-59.21539,-38.1239],[-59.21539,-38.12439],[-59.21521,-38.12488],[-59.21521,-38.12531],[-59.21509,-38.12561],[-59.2149,-38.1261],[-59.2149,-38.12659],[-59.21478,-38.12708],[-59.21472,-38.1275],[-59.2146,-38.12793],[-59.21448,-38.1283],[-59.21442,-38.12878],[-59.21429,-38.12921],[-59.21411,-38.1297],[-59.21411,-38.13019],[-59.21399,-38.13062],[-59.21393,-38.13098],[-59.21381,-38.13141],[-59.21368,-38.13177],[-59.21368,-38.1322],[-59.2135,-38.13269],[-59.21338,-38.13318],[-59.21338,-38.13361],[-59.2132,-38.13409],[-59.2132,-38.13452],[-59.21301,-38.13489],[-59.21289,-38.13538],[-59.21289,-38.1358],[-59.21271,-38.13629],[-59.21271,-38.13672],[-59.21259,-38.13708],[-59.21252,-38.13751],[-59.2124,-38.138],[-59.21228,-38.13849],[-59.21222,-38.13892],[-59.2121,-38.13898],[-59.2121,-38.1394],[-59.21198,-38.13971],[-59.21191,-38.14032],[-59.21179,-38.14069],[-59.21161,-38.14111],[-59.21161,-38.1416],[-59.21149,-38.14209],[-59.21143,-38.14252],[-59.2113,-38.14288],[-59.21118,-38.14331],[-59.21112,-38.1438],[-59.211,-38.14429],[-59.21088,-38.14471],[-59.21082,-38.14508],[-59.21069,-38.14563],[-59.21051,-38.146],[-59.21051,-38.14648],[-59.21039,-38.14691],[-59.21039,-38.1474],[-59.21021,-38.14783],[-59.21008,-38.14819],[-59.21008,-38.14832],[-59.21008,-38.14868],[-59.2099,-38.14911],[-59.2099,-38.1496],[-59.20978,-38.15009],[-59.20959,-38.15051],[-59.20959,-38.15088],[-59.20941,-38.15131],[-59.20941,-38.15179],[-59.20929,-38.15228],[-59.20923,-38.15271],[-59.20911,-38.15308],[-59.20898,-38.1535],[-59.20892,-38.15399],[-59.2088,-38.15448],[-59.20868,-38.15491],[-59.20862,-38.1554],[-59.2085,-38.15582],[-59.20831,-38.15619],[-59.20831,-38.15668],[-59.20819,-38.1571],[-59.20813,-38.15759],[-59.20801,-38.15808],[-59.20789,-38.15851],[-59.20782,-38.15887],[-59.2077,-38.15942],[-59.20758,-38.15979],[-59.20752,-38.16028],[-59.20752,-38.16052],[-59.2074,-38.16052],[-59.2074,-38.16071],[-59.20728,-38.16101],[-59.20728,-38.16162],[-59.20709,-38.16199],[-59.20709,-38.16248],[-59.20691,-38.1629],[-59.20679,-38.16339],[-59.20679,-38.16382],[-59.2066,-38.16418],[-59.2066,-38.16461],[-59.20648,-38.1651],[-59.2063,-38.16559],[-59.2063,-38.16602],[-59.20618,-38.16638],[-59.20612,-38.16681],[-59.20599,-38.1673],[-59.20581,-38.16779],[-59.20581,-38.16821],[-59.20569,-38.1687],[-59.20563,-38.16913],[-59.20551,-38.16949],[-59.20538,-38.16998],[-59.20532,-38.17041],[-59.2052,-38.1709],[-59.20508,-38.17139],[-59.20508,-38.17169],[-59.20502,-38.17218],[-59.2049,-38.17261],[-59.2049,-38.1731],[-59.2049,-38.17358],[-59.20471,-38.17401],[-59.20471,-38.1745],[-59.20471,-38.17493],[-59.20459,-38.17529],[-59.20459,-38.17578],[-59.20459,-38.17609],[-59.20453,-38.17657],[-59.20441,-38.177],[-59.20441,-38.17743],[-59.20428,-38.17792],[-59.20428,-38.17828],[-59.20428,-38.17871],[-59.20422,-38.1792],[-59.2041,-38.17969],[-59.2041,-38.18011],[-59.20398,-38.1806],[-59.20398,-38.18091],[-59.20398,-38.18152],[-59.20392,-38.18188],[-59.2038,-38.18231],[-59.2038,-38.1828],[-59.20361,-38.18329],[-59.20361,-38.18372],[-59.20361,-38.1842],[-59.20361,-38.18451],[-59.20331,-38.185],[-59.20312,-38.18549],[-59.203,-38.18579],[-59.20258,-38.18591],[-59.20203,-38.18622],[-59.20178,-38.18628],[-59.20178,-38.18622],[-59.20148,-38.18628],[-59.20142,-38.18628],[-59.20129,-38.18628],[-59.20111,-38.1864],[-59.20081,-38.1864],[-59.2002,-38.18652],[-59.19971,-38.18658],[-59.1991,-38.18658],[-59.19849,-38.18671],[-59.198,-38.18689],[-59.19751,-38.18701],[-59.19702,-38.18732],[-59.19641,-38.18762],[-59.19611,-38.18793],[-59.19562,-38.18829],[-59.19519,-38.18872],[-59.19482,-38.18909],[-59.1944,-38.18939],[-59.19391,-38.18982],[-59.1936,-38.19019],[-59.1933,-38.19049],[-59.19281,-38.19092],[-59.1925,-38.19128],[-59.19208,-38.19159],[-59.19171,-38.19189],[-59.19128,-38.19232],[-59.19098,-38.19263],[-59.19061,-38.19299],[-59.19019,-38.1933],[-59.18988,-38.1936],[-59.18951,-38.19391],[-59.18909,-38.19427],[-59.18878,-38.1947],[-59.18842,-38.19501],[-59.18799,-38.19531],[-59.18768,-38.19568],[-59.18732,-38.19598],[-59.18689,-38.19641],[-59.18658,-38.19678],[-59.18622,-38.19708],[-59.18579,-38.19739],[-59.18561,-38.19751],[-59.18561,-38.19769],[-59.18549,-38.19781],[-59.18512,-38.19812],[-59.18469,-38.19849],[-59.18439,-38.19879],[-59.18402,-38.1991],[-59.18359,-38.19952],[-59.18329,-38.19983],[-59.1828,-38.2002],[-59.1825,-38.2005],[-59.18213,-38.20081],[-59.1817,-38.20111],[-59.1814,-38.2016],[-59.18091,-38.2019],[-59.1806,-38.20221],[-59.1803,-38.20258],[-59.17981,-38.20288],[-59.1795,-38.20331],[-59.1792,-38.20361],[-59.17871,-38.20398],[-59.17841,-38.20428],[-59.1781,-38.20459],[-59.17761,-38.20502],[-59.17731,-38.20538],[-59.17688,-38.20569],[-59.17657,-38.20599],[-59.17621,-38.20642],[-59.17578,-38.20673],[-59.17548,-38.20709],[-59.17511,-38.2074],[-59.17468,-38.2077],[-59.17438,-38.20813],[-59.17401,-38.20831],[-59.17358,-38.2088],[-59.17328,-38.20911],[-59.17291,-38.20941],[-59.17249,-38.20978],[-59.17218,-38.21008],[-59.17181,-38.21051],[-59.1712,-38.211],[-59.17108,-38.21118],[-59.17059,-38.21149],[-59.17029,-38.21191],[-59.16992,-38.21222],[-59.16949,-38.21259],[-59.16919,-38.21289],[-59.16882,-38.2132],[-59.1684,-38.21362],[-59.16809,-38.21393],[-59.16772,-38.21429],[-59.1673,-38.2146],[-59.16699,-38.2149],[-59.16663,-38.21521],[-59.1662,-38.2157],[-59.16571,-38.216],[-59.16541,-38.21631],[-59.1651,-38.21667],[-59.16461,-38.21698],[-59.16431,-38.21741],[-59.164,-38.21771],[-59.16351,-38.21808],[-59.16321,-38.21838],[-59.1629,-38.21869],[-59.16248,-38.21899],[-59.16211,-38.21942],[-59.1618,-38.21979],[-59.16138,-38.22009],[-59.16101,-38.2204],[-59.16071,-38.22083],[-59.16028,-38.22101],[-59.15991,-38.2215],[-59.15961,-38.2218],[-59.15918,-38.22211],[-59.15887,-38.22241],[-59.15851,-38.22278],[-59.15808,-38.22321],[-59.15778,-38.22351],[-59.15741,-38.22388],[-59.15698,-38.22418],[-59.15668,-38.22449],[-59.15631,-38.22491],[-59.15588,-38.22528],[-59.15552,-38.22559],[-59.15509,-38.22589],[-59.15479,-38.22632],[-59.15442,-38.22662],[-59.15399,-38.22699],[-59.15369,-38.22729],[-59.15332,-38.2276],[-59.15289,-38.22803],[-59.15259,-38.22821],[-59.15222,-38.2287],[-59.15192,-38.229],[-59.15179,-38.229],[-59.15149,-38.22931],[-59.15112,-38.22968],[-59.1507,-38.22998],[-59.15039,-38.23041],[-59.15002,-38.23071],[-59.1496,-38.23108],[-59.14929,-38.23138],[-59.1488,-38.23181],[-59.1485,-38.23212],[-59.14801,-38.23248],[-59.14771,-38.23279],[-59.1474,-38.23309],[-59.14691,-38.23352],[-59.14661,-38.23383],[-59.1463,-38.23419],[-59.14581,-38.2345],[-59.14551,-38.2348],[-59.1452,-38.23523],[-59.14478,-38.2356],[-59.14441,-38.2359],[-59.1441,-38.23621],[-59.14368,-38.23651],[-59.14331,-38.23688],[-59.14301,-38.2373],[-59.14258,-38.23761],[-59.14221,-38.23798],[-59.14178,-38.23828],[-59.14148,-38.23859],[-59.14111,-38.23901],[-59.14081,-38.23907],[-59.14081,-38.2392],[-59.14069,-38.23938],[-59.14008,-38.23999],[-59.13971,-38.2403],[-59.13928,-38.2406],[-59.1391,-38.24078],[-59.13898,-38.24103],[-59.13861,-38.24121],[-59.13818,-38.2417],[-59.13788,-38.242],[-59.13739,-38.24231],[-59.13708,-38.24268],[-59.13672,-38.24298],[-59.13629,-38.24341],[-59.13599,-38.24371],[-59.13562,-38.24408],[-59.13519,-38.24438],[-59.13489,-38.24469],[-59.13452,-38.24512],[-59.13409,-38.24548],[-59.13379,-38.24579],[-59.13342,-38.24609],[-59.1333,-38.24622],[-59.13312,-38.2464],[-59.133,-38.2464],[-59.133,-38.24652],[-59.13263,-38.24689],[-59.1322,-38.24719],[-59.1319,-38.2475],[-59.13141,-38.24792],[-59.1311,-38.24823],[-59.1308,-38.2486],[-59.13031,-38.2489],[-59.13,-38.24921],[-59.12958,-38.24951],[-59.12921,-38.25],[-59.12891,-38.25031],[-59.12848,-38.25061],[-59.12811,-38.25098],[-59.12781,-38.25128],[-59.12738,-38.25171],[-59.12708,-38.25201],[-59.12671,-38.25238],[-59.12628,-38.25269],[-59.12598,-38.25299],[-59.12592,-38.25311],[-59.12549,-38.25342],[-59.12518,-38.25378],[-59.12482,-38.25409],[-59.12439,-38.25439],[-59.12408,-38.25482],[-59.12372,-38.25513],[-59.12329,-38.25549],[-59.12299,-38.2558],[-59.12262,-38.2561],[-59.12219,-38.25641],[-59.12189,-38.25677],[-59.12152,-38.2572],[-59.12109,-38.25751],[-59.12079,-38.25781],[-59.12042,-38.25818],[-59.12,-38.25848],[-59.11969,-38.25891],[-59.1192,-38.25928],[-59.1189,-38.25958],[-59.11859,-38.26001],[-59.11829,-38.26038],[-59.11798,-38.26068],[-59.11768,-38.26111],[-59.11761,-38.26111],[-59.11731,-38.26147],[-59.117,-38.26178],[-59.11658,-38.26221],[-59.11621,-38.26251],[-59.11603,-38.26288],[-59.1156,-38.26331],[-59.1153,-38.26361],[-59.11499,-38.26398],[-59.11469,-38.2644],[-59.11438,-38.26471],[-59.11401,-38.26508],[-59.11371,-38.2655],[-59.1134,-38.26581],[-59.11298,-38.26611],[-59.11261,-38.2666],[-59.1123,-38.26691],[-59.112,-38.26721],[-59.11169,-38.2677],[-59.11139,-38.26801],[-59.11108,-38.26831],[-59.11072,-38.2688],[-59.11041,-38.2691],[-59.11029,-38.26929],[-59.10999,-38.26959],[-59.10968,-38.2699],[-59.10931,-38.27039],[-59.10901,-38.27069],[-59.1087,-38.27112],[-59.10828,-38.27148],[-59.10791,-38.27179],[-59.1076,-38.27222],[-59.1073,-38.27258],[-59.10718,-38.27271],[-59.1051,-38.27411],[-59.10468,-38.27429],[-59.10449,-38.27448],[-59.10413,-38.27472],[-59.10358,-38.27502],[-59.10321,-38.27521],[-59.10272,-38.27551],[-59.10211,-38.27582],[-59.10181,-38.276],[-59.10132,-38.27631],[-59.10071,-38.27661],[-59.1004,-38.27679],[-59.09991,-38.2771],[-59.09949,-38.27728],[-59.099,-38.27759],[-59.09851,-38.27789],[-59.09808,-38.27808],[-59.0976,-38.27838],[-59.09711,-38.27869],[-59.0968,-38.27881],[-59.09528,-38.27972],[-59.09479,-38.27991],[-59.0943,-38.28021],[-59.09381,-38.28052],[-59.09338,-38.2807],[-59.0929,-38.28101],[-59.09253,-38.28131],[-59.09198,-38.28149],[-59.09161,-38.2818],[-59.09113,-38.2821],[-59.09058,-38.28229],[-59.09021,-38.28259],[-59.08972,-38.28278],[-59.08929,-38.28308],[-59.08881,-38.28339],[-59.08832,-38.28351],[-59.08789,-38.28387],[-59.0874,-38.28418],[-59.08698,-38.28442],[-59.08649,-38.28473],[-59.0863,-38.28479],[-59.08588,-38.28491],[-59.08539,-38.28528],[-59.0849,-38.28558],[-59.08441,-38.28583],[-59.08398,-38.28601],[-59.0835,-38.28638],[-59.08331,-38.28638],[-59.08331,-38.2865],[-59.08313,-38.28662],[-59.08258,-38.2868],[-59.08209,-38.28711],[-59.08173,-38.28741],[-59.08118,-38.2876],[-59.08069,-38.2879],[-59.08032,-38.28821],[-59.07971,-38.28839],[-59.07928,-38.2887],[-59.0788,-38.28888],[-59.07831,-38.28912],[-59.07788,-38.28931],[-59.07739,-38.28961],[-59.0769,-38.28992],[-59.0769,-38.28998],[-59.07648,-38.29028],[-59.07611,-38.29053],[-59.07562,-38.29071],[-59.07501,-38.29108],[-59.07471,-38.29132],[-59.07422,-38.29163],[-59.07379,-38.29181],[-59.0733,-38.29211],[-59.07281,-38.29242],[-59.07239,-38.2926],[-59.0719,-38.29291],[-59.07141,-38.29309],[-59.07098,-38.2934],[-59.0705,-38.2937],[-59.07001,-38.29388],[-59.06958,-38.29419],[-59.06909,-38.29449],[-59.0686,-38.29468],[-59.06818,-38.29498],[-59.06769,-38.29529],[-59.0672,-38.29541],[-59.06671,-38.29578],[-59.06628,-38.29608],[-59.0658,-38.29633],[-59.06543,-38.29651],[-59.06488,-38.29681],[-59.06451,-38.29712],[-59.06403,-38.2973],[-59.06372,-38.29749],[-59.0636,-38.29761],[-59.06348,-38.29761],[-59.06311,-38.29779],[-59.06262,-38.2981],[-59.06201,-38.2984],[-59.06171,-38.29858],[-59.06122,-38.29889],[-59.06079,-38.29919],[-59.0603,-38.29938],[-59.05981,-38.29968],[-59.05939,-38.29999],[-59.0589,-38.30011],[-59.05872,-38.30029],[-59.05829,-38.3006],[-59.0578,-38.30078],[-59.05731,-38.30109],[-59.05688,-38.30139],[-59.0564,-38.30157],[-59.05591,-38.30188],[-59.05548,-38.30219],[-59.05499,-38.30243],[-59.0545,-38.30261],[-59.05408,-38.3028],[-59.05353,-38.30298],[-59.05298,-38.30328],[-59.05243,-38.30341],[-59.05188,-38.30359],[-59.05139,-38.30371],[-59.05078,-38.30402],[-59.05029,-38.3042],[-59.0498,-38.30438],[-59.04932,-38.3045],[-59.04871,-38.30469],[-59.04852,-38.30481],[-59.04791,-38.30499],[-59.04742,-38.30518],[-59.04687,-38.30542],[-59.04639,-38.3056],[-59.04578,-38.30579],[-59.04529,-38.30591],[-59.0448,-38.30609],[-59.04431,-38.30621],[-59.04382,-38.30652],[-59.04321,-38.3067],[-59.04279,-38.30688],[-59.04218,-38.30701],[-59.04169,-38.30719],[-59.0412,-38.30731],[-59.04071,-38.30762],[-59.0401,-38.3078],[-59.03961,-38.30798],[-59.03912,-38.30811],[-59.03851,-38.30829],[-59.03809,-38.30841],[-59.0376,-38.30859],[-59.03711,-38.30878],[-59.0365,-38.30902],[-59.03601,-38.3092],[-59.03558,-38.30939],[-59.03418,-38.30988],[-59.034,-38.30988],[-59.03339,-38.31018],[-59.0329,-38.3103],[-59.03229,-38.31049],[-59.0318,-38.31073],[-59.03131,-38.31091],[-59.0307,-38.3111],[-59.03021,-38.31128],[-59.02979,-38.3114],[-59.02917,-38.31158],[-59.02869,-38.31183],[-59.0282,-38.31201],[-59.02759,-38.31219],[-59.0271,-38.31238],[-59.02661,-38.3125],[-59.026,-38.31281],[-59.02551,-38.31299],[-59.02502,-38.31311],[-59.02448,-38.31329],[-59.02399,-38.31348],[-59.02338,-38.3136],[-59.02289,-38.31378],[-59.0224,-38.31403],[-59.02191,-38.31421],[-59.0213,-38.31439],[-59.02081,-38.31458],[-59.02032,-38.31482],[-59.01978,-38.315],[-59.01929,-38.31519],[-59.0188,-38.31549],[-59.01831,-38.3158],[-59.01788,-38.3161],[-59.01758,-38.31641],[-59.01721,-38.31671],[-59.01678,-38.31702],[-59.01642,-38.31732],[-59.01599,-38.31769],[-59.0155,-38.31799],[-59.0152,-38.3183],[-59.01471,-38.3186],[-59.01428,-38.31891],[-59.01398,-38.31921],[-59.01349,-38.31958],[-59.01312,-38.31989],[-59.0127,-38.32019],[-59.01233,-38.3205],[-59.01202,-38.32068],[-59.0119,-38.3208],[-59.01147,-38.32111],[-59.01111,-38.32141],[-59.01068,-38.32178],[-59.01019,-38.32208],[-59.00989,-38.32239],[-59.0094,-38.32269],[-59.00909,-38.323],[-59.00861,-38.3233],[-59.00818,-38.32361],[-59.00781,-38.32397],[-59.00739,-38.32428],[-59.00702,-38.32458],[-59.00659,-38.32489],[-59.00623,-38.3252],[-59.0058,-38.3255],[-59.00531,-38.32581],[-59.005,-38.32611],[-59.00458,-38.32648],[-59.00421,-38.32678],[-59.00378,-38.32709],[-59.0033,-38.32739],[-59.00299,-38.3277],[-59.0025,-38.328],[-59.00208,-38.32831],[-59.00171,-38.32861],[-59.00128,-38.32892],[-59.00079,-38.32922],[-59.00049,-38.32959],[-59.00012,-38.3299],[-58.99969,-38.3302],[-58.99933,-38.33051],[-58.9989,-38.33081],[-58.99841,-38.33118],[-58.99811,-38.33148],[-58.99768,-38.33179],[-58.99719,-38.33209],[-58.99689,-38.3324],[-58.9964,-38.3327],[-58.99609,-38.33301],[-58.99561,-38.33331],[-58.99518,-38.33368],[-58.99481,-38.33398],[-58.99438,-38.33429],[-58.99402,-38.33459],[-58.99359,-38.3349],[-58.9931,-38.33533],[-58.99268,-38.33569],[-58.99231,-38.336],[-58.99188,-38.3363],[-58.99152,-38.33661],[-58.99109,-38.33691],[-58.9906,-38.33722],[-58.9903,-38.33759],[-58.99011,-38.33771],[-58.98981,-38.33789],[-58.98938,-38.3382],[-58.98907,-38.3385],[-58.98859,-38.33881],[-58.98828,-38.33911],[-58.98822,-38.33911],[-58.98779,-38.33942],[-58.98743,-38.33978],[-58.987,-38.34009],[-58.98651,-38.34039],[-58.98621,-38.3407],[-58.98578,-38.341],[-58.98541,-38.34131],[-58.98499,-38.34161],[-58.98462,-38.34192],[-58.98419,-38.34222],[-58.98383,-38.34253],[-58.9834,-38.34271],[-58.98291,-38.34308],[-58.9826,-38.34351],[-58.98218,-38.34381],[-58.98181,-38.34412],[-58.98138,-38.34442],[-58.9809,-38.34473],[-58.98059,-38.34491],[-58.9801,-38.3454],[-58.97968,-38.3457],[-58.97931,-38.34601],[-58.979,-38.34619],[-58.97888,-38.34631],[-58.97852,-38.34662],[-58.97809,-38.34692],[-58.97772,-38.34729],[-58.97729,-38.3476],[-58.97693,-38.3479],[-58.97681,-38.3479],[-58.97638,-38.34821],[-58.97601,-38.34851],[-58.97559,-38.34888],[-58.97522,-38.34918],[-58.97479,-38.34949],[-58.9743,-38.34979],[-58.974,-38.3501],[-58.97351,-38.3504],[-58.97308,-38.35071],[-58.97278,-38.35101],[-58.97229,-38.35138],[-58.97198,-38.35168],[-58.97192,-38.35168],[-58.9715,-38.35199],[-58.97101,-38.35229],[-58.9707,-38.3526],[-58.97028,-38.35303],[-58.96991,-38.35321],[-58.96948,-38.35358],[-58.96899,-38.35388],[-58.96869,-38.35419],[-58.9682,-38.35449],[-58.96771,-38.35492],[-58.96741,-38.35522],[-58.96698,-38.35553],[-58.96661,-38.35571],[-58.96619,-38.35608],[-58.96582,-38.35638],[-58.96539,-38.35681],[-58.9649,-38.35712],[-58.9646,-38.35742],[-58.96429,-38.3576],[-58.96411,-38.35773],[-58.96399,-38.35779],[-58.96368,-38.35809],[-58.9632,-38.3584],[-58.96283,-38.3587],[-58.9624,-38.35901],[-58.96198,-38.35937],[-58.96161,-38.35968],[-58.96118,-38.35999],[-58.96082,-38.36029],[-58.96051,-38.3606],[-58.96008,-38.3609],[-58.95959,-38.36121],[-58.95929,-38.36151],[-58.9588,-38.36182],[-58.95831,-38.36218],[-58.95801,-38.36249],[-58.95758,-38.36279],[-58.95721,-38.3631],[-58.95679,-38.3634],[-58.95642,-38.36371],[-58.95599,-38.36407],[-58.95551,-38.36438],[-58.9552,-38.36469],[-58.95471,-38.36499],[-58.95441,-38.3653],[-58.95398,-38.3656],[-58.95349,-38.36591],[-58.95312,-38.36621],[-58.9527,-38.36658],[-58.95221,-38.36688],[-58.9519,-38.36719],[-58.95148,-38.36749],[-58.95111,-38.3678],[-58.95068,-38.3681],[-58.9502,-38.36841],[-58.94989,-38.36871],[-58.9494,-38.36908],[-58.94897,-38.36938],[-58.94861,-38.36969],[-58.94818,-38.37],[-58.94781,-38.3703],[-58.94739,-38.37061],[-58.94702,-38.37091],[-58.94659,-38.37128],[-58.94623,-38.37158],[-58.9458,-38.37189],[-58.94531,-38.37219],[-58.94501,-38.3725],[-58.94458,-38.3728],[-58.94409,-38.37323],[-58.94373,-38.37341],[-58.9433,-38.37378],[-58.94281,-38.37408],[-58.9425,-38.37439],[-58.94208,-38.37469],[-58.94171,-38.375],[-58.94128,-38.37543],[-58.94092,-38.37561],[-58.94049,-38.37598],[-58.94,-38.37628],[-58.93982,-38.37659],[-58.9397,-38.37659],[-58.93921,-38.37689],[-58.93878,-38.37732],[-58.93848,-38.37762],[-58.93799,-38.37793],[-58.93762,-38.37811],[-58.93719,-38.37848],[-58.93683,-38.37878],[-58.9364,-38.37921],[-58.93591,-38.37952],[-58.93561,-38.37982],[-58.93518,-38.38013],[-58.93469,-38.38031],[-58.93433,-38.3808],[-58.9339,-38.3811],[-58.93341,-38.38141],[-58.93311,-38.38171],[-58.93268,-38.38202],[-58.93231,-38.38232],[-58.93188,-38.38269],[-58.9314,-38.383],[-58.93109,-38.3833],[-58.9306,-38.38361],[-58.9303,-38.38391],[-58.92981,-38.38422],[-58.92938,-38.38452],[-58.92902,-38.38489],[-58.92859,-38.38519],[-58.92822,-38.3855],[-58.9278,-38.3858],[-58.92743,-38.38611],[-58.927,-38.38641],[-58.92657,-38.38678],[-58.92621,-38.38708],[-58.92578,-38.38739],[-58.92529,-38.3877],[-58.92493,-38.388],[-58.9245,-38.38831],[-58.92401,-38.38861],[-58.92371,-38.38898],[-58.92328,-38.38928],[-58.92291,-38.38959],[-58.92249,-38.38989],[-58.92212,-38.3902],[-58.92169,-38.3905],[-58.9212,-38.39081],[-58.92078,-38.39111],[-58.92041,-38.39148],[-58.91998,-38.39178],[-58.91968,-38.39209],[-58.91919,-38.3924],[-58.91882,-38.3927],[-58.9184,-38.39301],[-58.91803,-38.39331],[-58.9176,-38.39368],[-58.91718,-38.39398],[-58.91681,-38.39429],[-58.91638,-38.39459],[-58.91602,-38.3949],[-58.91559,-38.3952],[-58.9151,-38.39551],[-58.91461,-38.39581],[-58.91431,-38.39618],[-58.91388,-38.39648],[-58.91351,-38.39679],[-58.91309,-38.39709],[-58.91272,-38.3974],[-58.91229,-38.39771],[-58.9118,-38.39801],[-58.9115,-38.39838],[-58.91132,-38.3985],[-58.91101,-38.39868],[-58.91089,-38.3988],[-58.91058,-38.39899],[-58.91028,-38.39929],[-58.90979,-38.39972],[-58.90942,-38.40002],[-58.909,-38.40033],[-58.90851,-38.40051],[-58.9082,-38.40088],[-58.90778,-38.40118],[-58.90741,-38.40161],[-58.90698,-38.40192],[-58.90649,-38.40222],[-58.90619,-38.40253],[-58.9057,-38.40271],[-58.90521,-38.40308],[-58.90491,-38.40338],[-58.90448,-38.40381],[-58.90411,-38.40411],[-58.90369,-38.40442],[-58.90332,-38.40472],[-58.90289,-38.40503],[-58.9024,-38.4054],[-58.9021,-38.4057],[-58.90161,-38.40601],[-58.90149,-38.40613],[-58.90118,-38.40631],[-58.90082,-38.40662],[-58.90039,-38.40692],[-58.90002,-38.40729],[-58.8996,-38.40759],[-58.89911,-38.4079],[-58.8988,-38.4082],[-58.89838,-38.40851],[-58.89801,-38.40881],[-58.89758,-38.40918],[-58.89709,-38.40948],[-58.89679,-38.40979],[-58.8963,-38.4101],[-58.89581,-38.4104],[-58.89551,-38.41071],[-58.89508,-38.41101],[-58.89471,-38.41138],[-58.89429,-38.41168],[-58.89392,-38.41199],[-58.89349,-38.41229],[-58.89301,-38.4126],[-58.8927,-38.4129],[-58.89221,-38.41321],[-58.89178,-38.41351],[-58.89142,-38.41388],[-58.89099,-38.41418],[-58.89062,-38.41449],[-58.8902,-38.41479],[-58.88971,-38.4151],[-58.8894,-38.41541],[-58.88898,-38.41571],[-58.88861,-38.41608],[-58.88818,-38.41638],[-58.8877,-38.41669],[-58.88739,-38.41699],[-58.8869,-38.4173],[-58.8866,-38.4176],[-58.88611,-38.41791],[-58.8858,-38.41821],[-58.88538,-38.41852],[-58.88501,-38.41882],[-58.88458,-38.41913],[-58.88422,-38.41949],[-58.88379,-38.4198],[-58.88342,-38.41998],[-58.883,-38.42041],[-58.88251,-38.42072],[-58.88208,-38.42102],[-58.88177,-38.42139],[-58.88129,-38.42169],[-58.88092,-38.422],[-58.88049,-38.4223],[-58.88013,-38.42261],[-58.8797,-38.42291],[-58.87921,-38.42322],[-58.87891,-38.42358],[-58.87848,-38.42389],[-58.87799,-38.42419],[-58.87769,-38.42438],[-58.87769,-38.4245],[-58.87762,-38.4245],[-58.8772,-38.4248],[-58.87671,-38.42511],[-58.8764,-38.42548],[-58.87598,-38.42578],[-58.87561,-38.42609],[-58.87518,-38.42639],[-58.87482,-38.4267],[-58.87439,-38.427],[-58.8739,-38.42731],[-58.8736,-38.42761],[-58.87311,-38.42798],[-58.8728,-38.42828],[-58.87238,-38.42871],[-58.87201,-38.42908],[-58.87183,-38.42938],[-58.8714,-38.42981],[-58.87109,-38.43018],[-58.87079,-38.43048],[-58.87048,-38.43091],[-58.87018,-38.43121],[-58.86981,-38.4317],[-58.86963,-38.43201],[-58.8692,-38.43231],[-58.8689,-38.4328],[-58.86859,-38.43311],[-58.86829,-38.43341],[-58.86798,-38.4339],[-58.86768,-38.43433],[-58.86731,-38.43469],[-58.867,-38.435],[-58.8667,-38.43542],[-58.86639,-38.43579],[-58.86609,-38.4361],[-58.86578,-38.43658],[-58.86548,-38.43689],[-58.86542,-38.43719],[-58.8653,-38.43738],[-58.86511,-38.43781],[-58.86481,-38.43811],[-58.8645,-38.43848],[-58.86389,-38.43878],[-58.8634,-38.43909],[-58.86279,-38.43939],[-58.8623,-38.43958],[-58.86188,-38.43988],[-58.86139,-38.44012],[-58.8609,-38.44043],[-58.86041,-38.44061],[-58.85999,-38.44098],[-58.85968,-38.44128],[-58.85919,-38.44171],[-58.85889,-38.44202],[-58.8584,-38.44232],[-58.85791,-38.44263],[-58.8576,-38.44281],[-58.85718,-38.44318],[-58.85681,-38.4436],[-58.85638,-38.44391],[-58.85608,-38.44409],[-58.85559,-38.44452],[-58.85522,-38.44482],[-58.8548,-38.44513],[-58.85431,-38.44531],[-58.854,-38.44568],[-58.85358,-38.44598],[-58.85321,-38.44629],[-58.85278,-38.44659],[-58.85248,-38.4469],[-58.85199,-38.44733],[-58.8515,-38.44751],[-58.85101,-38.44788],[-58.85071,-38.44818],[-58.85028,-38.44861],[-58.84991,-38.44891],[-58.84949,-38.44922],[-58.84912,-38.44952],[-58.84869,-38.44983],[-58.84833,-38.45001],[-58.8479,-38.45038],[-58.84741,-38.45068],[-58.84711,-38.45099],[-58.84668,-38.45129],[-58.84631,-38.45172],[-58.84601,-38.45178],[-58.84589,-38.45203],[-58.84552,-38.45221],[-58.84509,-38.45258],[-58.8446,-38.45288],[-58.8443,-38.45319],[-58.84381,-38.45349],[-58.84338,-38.45392],[-58.84308,-38.45422],[-58.84259,-38.45453],[-58.84222,-38.45471],[-58.8418,-38.45508],[-58.84131,-38.45538],[-58.83972,-38.45679],[-58.83929,-38.45691],[-58.83899,-38.45728],[-58.83862,-38.45758],[-58.8385,-38.4577],[-58.83801,-38.45801],[-58.83771,-38.45831],[-58.83728,-38.45862],[-58.83691,-38.45892],[-58.83649,-38.45923],[-58.83612,-38.45941],[-58.83569,-38.4599],[-58.83521,-38.46021],[-58.8349,-38.46051],[-58.83441,-38.46082],[-58.83398,-38.46112],[-58.83368,-38.46143],[-58.83319,-38.46179],[-58.83282,-38.4621],[-58.8324,-38.4624],[-58.83191,-38.46271],[-58.8316,-38.46301],[-58.83148,-38.46301],[-58.83112,-38.46338],[-58.83069,-38.46368],[-58.83032,-38.46399],[-58.8299,-38.46429],[-58.82941,-38.4646],[-58.82898,-38.4649],[-58.82861,-38.46521],[-58.82819,-38.46558],[-58.82782,-38.46588],[-58.82739,-38.46619],[-58.82703,-38.46649],[-58.8266,-38.4668],[-58.82611,-38.46722],[-58.82581,-38.46753],[-58.82538,-38.46771],[-58.82501,-38.46808],[-58.82458,-38.46838],[-58.8241,-38.46869],[-58.82361,-38.46912],[-58.82343,-38.4693],[-58.823,-38.4696],[-58.82251,-38.46991],[-58.8222,-38.47028],[-58.82178,-38.47058],[-58.82141,-38.47089],[-58.82098,-38.47119],[-58.8205,-38.4715],[-58.82013,-38.4718],[-58.8197,-38.47211],[-58.81927,-38.47241],[-58.81891,-38.47278],[-58.81848,-38.47308],[-58.81812,-38.47339],[-58.81769,-38.47369],[-58.8172,-38.474],[-58.81689,-38.4743],[-58.81641,-38.47461],[-58.8161,-38.47498],[-58.81561,-38.47528],[-58.81519,-38.47559],[-58.81519,-38.47571],[-58.8147,-38.47601],[-58.81421,-38.47638],[-58.8139,-38.47668],[-58.81348,-38.47699],[-58.81311,-38.47729],[-58.81268,-38.4776],[-58.81232,-38.47791],[-58.81189,-38.47821],[-58.8114,-38.47852],[-58.8111,-38.47882],[-58.81061,-38.47919],[-58.81018,-38.47949],[-58.80988,-38.4798],[-58.80939,-38.4801],[-58.80902,-38.48041],[-58.80859,-38.48071],[-58.80823,-38.48108],[-58.8078,-38.48138],[-58.80731,-38.48169],[-58.80688,-38.48199],[-58.80658,-38.4823],[-58.80609,-38.4826],[-58.80573,-38.48291],[-58.8053,-38.48328],[-58.80481,-38.48358],[-58.8045,-38.48389],[-58.80408,-38.48419],[-58.80371,-38.4845],[-58.80328,-38.4848],[-58.8028,-38.48511],[-58.80249,-38.48541],[-58.802,-38.48578],[-58.80157,-38.48608],[-58.80121,-38.48639],[-58.80078,-38.48669],[-58.80078,-38.48682],[-58.80072,-38.48682],[-58.80042,-38.487],[-58.79999,-38.4873],[-58.79962,-38.48761],[-58.79919,-38.48798],[-58.79871,-38.48828],[-58.7984,-38.48859],[-58.79791,-38.48889],[-58.79749,-38.4892],[-58.79718,-38.4895],[-58.79669,-38.48981],[-58.79633,-38.49011],[-58.7959,-38.49048],[-58.79541,-38.49078],[-58.7951,-38.49109],[-58.79468,-38.49139],[-58.79431,-38.49182],[-58.79388,-38.49213],[-58.7934,-38.49231],[-58.79309,-38.49268],[-58.7926,-38.49298],[-58.79218,-38.49329],[-58.79181,-38.49359],[-58.79138,-38.49402],[-58.79102,-38.49432],[-58.79059,-38.49463],[-58.7901,-38.49481],[-58.78979,-38.49518],[-58.78949,-38.49542],[-58.78949,-38.49548],[-58.78931,-38.49561],[-58.78888,-38.49591],[-58.78851,-38.49622],[-58.78809,-38.49652],[-58.78772,-38.49683],[-58.78729,-38.49701],[-58.7868,-38.49738],[-58.7865,-38.49768],[-58.78601,-38.49811],[-58.78558,-38.49841],[-58.78528,-38.49872],[-58.78479,-38.49902],[-58.78448,-38.49939],[-58.784,-38.49969],[-58.78351,-38.5],[-58.7832,-38.50031],[-58.78278,-38.50061],[-58.78241,-38.50092],[-58.78198,-38.50122],[-58.78162,-38.50153],[-58.78119,-38.50189],[-58.7807,-38.5022],[-58.7804,-38.5025],[-58.77991,-38.50281],[-58.7796,-38.50311],[-58.77942,-38.5033],[-58.77917,-38.50342],[-58.77881,-38.50378],[-58.77838,-38.50409],[-58.77802,-38.50439],[-58.77759,-38.5047],[-58.77722,-38.505],[-58.77679,-38.50531],[-58.77643,-38.50568],[-58.77618,-38.5058],[-58.77618,-38.50592],[-58.776,-38.50598],[-58.77551,-38.50629],[-58.77521,-38.50671],[-58.77478,-38.50702],[-58.77441,-38.50732],[-58.77429,-38.50739],[-58.7738,-38.50781],[-58.7735,-38.50812],[-58.77301,-38.50842],[-58.77271,-38.50873],[-58.77228,-38.50909],[-58.77191,-38.5094],[-58.77148,-38.5097],[-58.771,-38.51001],[-58.77069,-38.51038],[-58.77032,-38.51068],[-58.7699,-38.51099],[-58.76941,-38.51129],[-58.7691,-38.5116],[-58.76868,-38.51202],[-58.76831,-38.51233],[-58.76788,-38.51251],[-58.76758,-38.51288],[-58.76721,-38.51288],[-58.76721,-38.513]]]}},{"type":"Feature","properties":{"nombre":"Alimentación Nelsón Olivera","licenciataria":"Camuzzi Gas Pampeana S.A.","tipo":"Distribucion","subtipo":"Cañeria"},"geometry":{"type":"MultiLineString","coordinates":[[[-59.1391,-38.24078],[-59.13953,-38.24109],[-59.14001,-38.24139],[-59.14038,-38.2417],[-59.14081,-38.242],[-59.14111,-38.24231],[-59.1416,-38.24268],[-59.14209,-38.24298],[-59.14252,-38.24329],[-59.14258,-38.24329],[-59.1427,-38.24341],[-59.14288,-38.24359],[-59.14331,-38.2439],[-59.1438,-38.2442],[-59.14429,-38.24438],[-59.14478,-38.24451],[-59.14539,-38.24481],[-59.14581,-38.245],[-59.14642,-38.24518],[-59.14691,-38.2453],[-59.1474,-38.24548],[-59.14801,-38.24579],[-59.1485,-38.24591],[-59.14899,-38.24609],[-59.1496,-38.24628],[-59.15009,-38.24658],[-59.15051,-38.2467],[-59.15112,-38.24689],[-59.15149,-38.24719],[-59.15198,-38.2475],[-59.1524,-38.2478],[-59.15289,-38.24811],[-59.15332,-38.24841],[-59.15381,-38.2486],[-59.15417,-38.2489],[-59.1546,-38.24921],[-59.15509,-38.24951],[-59.15552,-38.24988],[-59.15588,-38.25018],[-59.15631,-38.25061],[-59.15668,-38.25092],[-59.15698,-38.25128],[-59.15741,-38.25159],[-59.15771,-38.25208],[-59.15808,-38.25238],[-59.15839,-38.25281],[-59.15869,-38.25311],[-59.15881,-38.2533],[-59.159,-38.2536],[-59.1593,-38.25403],[-59.15973,-38.25439],[-59.15991,-38.25482],[-59.16028,-38.25519],[-59.16058,-38.25549],[-59.16101,-38.25598],[-59.16132,-38.25641],[-59.16168,-38.25677],[-59.16199,-38.25708],[-59.16229,-38.25751],[-59.1626,-38.25781],[-59.1629,-38.2583],[-59.16321,-38.25873],[-59.16339,-38.25879],[-59.16351,-38.25922],[-59.16351,-38.2597],[-59.1637,-38.26019],[-59.16388,-38.2608],[-59.164,-38.26129],[-59.16431,-38.2616],[-59.16461,-38.26208],[-59.16498,-38.26239],[-59.16541,-38.2627],[-59.16571,-38.26312],[-59.16608,-38.26349],[-59.16638,-38.26379],[-59.16669,-38.26422],[-59.16711,-38.26459],[-59.16742,-38.26489],[-59.16779,-38.26532],[-59.16809,-38.26569],[-59.1684,-38.26599],[-59.16882,-38.26642],[-59.16913,-38.26678],[-59.16949,-38.26709],[-59.1698,-38.26752],[-59.1701,-38.26788],[-59.17041,-38.26819],[-59.17059,-38.26831],[-59.1709,-38.26868],[-59.1712,-38.26898],[-59.17151,-38.26941],[-59.17187,-38.26978],[-59.17218,-38.2702],[-59.17249,-38.27051],[-59.17279,-38.27081],[-59.1731,-38.2713],[-59.17358,-38.27161],[-59.17401,-38.27191],[-59.1745,-38.27209],[-59.17499,-38.2724],[-59.17548,-38.27258],[-59.17609,-38.27289],[-59.17657,-38.27301],[-59.177,-38.27338],[-59.17761,-38.27362],[-59.1781,-38.2738],[-59.17871,-38.27399],[-59.1792,-38.27429],[-59.17969,-38.27448],[-59.18018,-38.2746],[-59.18079,-38.2749],[-59.18121,-38.27509],[-59.1817,-38.27521],[-59.18219,-38.27539],[-59.18268,-38.27551],[-59.18329,-38.2757],[-59.18378,-38.27588],[-59.18433,-38.27612],[-59.18481,-38.27618],[-59.18542,-38.27643],[-59.18591,-38.27661],[-59.1864,-38.27661],[-59.18701,-38.27692],[-59.1875,-38.2771],[-59.18811,-38.27728],[-59.1886,-38.2774],[-59.18909,-38.27759],[-59.18939,-38.27771],[-59.18951,-38.27771],[-59.18958,-38.27759],[-59.1897,-38.2774],[-59.1897,-38.27728],[-59.18982,-38.27728],[-59.19031,-38.27753],[-59.19031,-38.27759],[-59.19019,-38.27771],[-59.19,-38.27771]]]}},{"type":"Feature","properties":{"nombre":"Alimentación Lobería","licenciataria":"Camuzzi Gas Pampeana S.A.","tipo":"Distribucion","subtipo":"Cañeria"},"geometry":{"type":"MultiLineString","coordinates":[[[-58.96399,-38.35779],[-58.96362,-38.35748],[-58.9632,-38.35712],[-58.96283,-38.35681],[-58.9624,-38.35638],[-58.96198,-38.35608],[-58.96149,-38.35571],[-58.96118,-38.35541],[-58.96069,-38.3551],[-58.96033,-38.3548],[-58.9599,-38.35449],[-58.95941,-38.35419],[-58.95911,-38.35388],[-58.95868,-38.35358],[-58.95831,-38.35321],[-58.95789,-38.35291],[-58.95752,-38.3526],[-58.95709,-38.35211],[-58.95673,-38.35193],[-58.9563,-38.3515],[-58.95599,-38.35138],[-58.95569,-38.35101],[-58.9552,-38.35071],[-58.95471,-38.3504],[-58.95441,-38.3501],[-58.95398,-38.34961],[-58.95361,-38.34943],[-58.95319,-38.34912],[-58.95282,-38.34869],[-58.95239,-38.34839],[-58.9519,-38.34808],[-58.95148,-38.34778],[-58.95111,-38.34741],[-58.95068,-38.34711],[-58.95032,-38.3468],[-58.94989,-38.34637],[-58.94952,-38.34601],[-58.9491,-38.34583],[-58.94861,-38.3454],[-58.94818,-38.34509],[-58.948,-38.34491],[-58.94751,-38.3446],[-58.9472,-38.3443],[-58.94678,-38.34381],[-58.94641,-38.34363],[-58.94598,-38.34332],[-58.94562,-38.34302],[-58.94519,-38.34259],[-58.9447,-38.34229],[-58.94427,-38.34198],[-58.94391,-38.34167],[-58.94348,-38.34131],[-58.94312,-38.341],[-58.94269,-38.3407],[-58.94232,-38.34039],[-58.94189,-38.34003],[-58.94153,-38.33972],[-58.9411,-38.33929],[-58.94061,-38.33899],[-58.94031,-38.33868],[-58.94,-38.3385],[-58.93958,-38.3382],[-58.93921,-38.33789],[-58.93878,-38.33759],[-58.93848,-38.33728],[-58.93799,-38.33691],[-58.93768,-38.33661],[-58.93719,-38.3363],[-58.93683,-38.33588],[-58.9364,-38.33551],[-58.93591,-38.33521],[-58.93561,-38.3349],[-58.93518,-38.33459],[-58.93481,-38.33429],[-58.93439,-38.33398],[-58.93402,-38.33368],[-58.93359,-38.33331],[-58.93323,-38.33301],[-58.9328,-38.3327],[-58.93231,-38.3324],[-58.93201,-38.33209],[-58.93158,-38.33179],[-58.93121,-38.33142],[-58.93079,-38.33099],[-58.9303,-38.33069],[-58.92999,-38.33038],[-58.9295,-38.33008],[-58.9292,-38.32971],[-58.92871,-38.32941],[-58.92841,-38.3291],[-58.92798,-38.3288],[-58.92749,-38.32849],[-58.92719,-38.32819],[-58.9267,-38.32782],[-58.92639,-38.32751],[-58.9259,-38.32721],[-58.92548,-38.32678],[-58.92511,-38.32648],[-58.92468,-38.32611],[-58.92438,-38.32581],[-58.92401,-38.32562],[-58.92358,-38.32532],[-58.92328,-38.32501],[-58.92279,-38.32471],[-58.92242,-38.32428],[-58.922,-38.32397],[-58.92151,-38.32361],[-58.9212,-38.3233],[-58.92078,-38.323],[-58.92029,-38.32269],[-58.91998,-38.32239],[-58.91962,-38.32202],[-58.91919,-38.32172],[-58.91882,-38.32141],[-58.9184,-38.32111],[-58.91791,-38.3208],[-58.9176,-38.32031],[-58.91718,-38.32013],[-58.91681,-38.31982],[-58.9165,-38.31958],[-58.9162,-38.31927],[-58.91571,-38.31891],[-58.91541,-38.31873],[-58.91498,-38.3183],[-58.91461,-38.31799],[-58.91418,-38.31769],[-58.91382,-38.31738],[-58.91339,-38.31708],[-58.91302,-38.31671],[-58.9126,-38.31641],[-58.91211,-38.3161],[-58.91168,-38.31561],[-58.91138,-38.31543],[-58.91101,-38.31512],[-58.91058,-38.31482],[-58.91022,-38.31439],[-58.90979,-38.31409],[-58.9093,-38.31378],[-58.909,-38.31348],[-58.90851,-38.31311],[-58.90808,-38.31268],[-58.90759,-38.31238],[-58.90723,-38.31201],[-58.9068,-38.31171],[-58.90631,-38.3114],[-58.90588,-38.3111],[-58.90558,-38.31073],[-58.90509,-38.3103],[-58.90472,-38.31],[-58.9043,-38.30969],[-58.90381,-38.30939],[-58.9035,-38.30908],[-58.90308,-38.30878],[-58.90271,-38.30841],[-58.90228,-38.30811],[-58.90179,-38.3078],[-58.90149,-38.30731],[-58.901,-38.30713],[-58.9007,-38.30682],[-58.90021,-38.3064],[-58.89978,-38.30609],[-58.89941,-38.30579],[-58.89899,-38.30542],[-58.8985,-38.30511],[-58.89819,-38.30481],[-58.89771,-38.30438],[-58.89728,-38.30408],[-58.89691,-38.30371],[-58.89648,-38.30341],[-58.89612,-38.3031],[-58.89569,-38.3028],[-58.89532,-38.30249],[-58.8949,-38.30219],[-58.89441,-38.30182],[-58.8941,-38.30151],[-58.89368,-38.30121],[-58.89331,-38.3009],[-58.89288,-38.30048],[-58.89252,-38.30011],[-58.89209,-38.2998],[-58.8916,-38.2995],[-58.89111,-38.29919],[-58.89081,-38.29889],[-58.89038,-38.29858],[-58.89008,-38.29822],[-58.88959,-38.29791],[-58.88928,-38.29761],[-58.88879,-38.29718],[-58.88843,-38.29687],[-58.888,-38.29651],[-58.88751,-38.2962],[-58.88721,-38.2959],[-58.88678,-38.29559],[-58.88641,-38.29529],[-58.88599,-38.29498],[-58.88562,-38.29468],[-58.88519,-38.29431],[-58.88483,-38.29401],[-58.8844,-38.2937],[-58.88379,-38.29321],[-58.88342,-38.29291],[-58.883,-38.2926],[-58.88263,-38.29218],[-58.8822,-38.29181],[-58.88177,-38.29163],[-58.88141,-38.29132],[-58.88098,-38.29089],[-58.88068,-38.29059],[-58.88019,-38.29028],[-58.87982,-38.28998],[-58.87939,-38.28961],[-58.87903,-38.28931],[-58.8786,-38.289],[-58.87811,-38.2887],[-58.87781,-38.28839],[-58.87738,-38.28809],[-58.87708,-38.28778],[-58.87659,-38.28741],[-58.87622,-38.28699],[-58.87579,-38.28668],[-58.87549,-38.28638],[-58.87518,-38.28601],[-58.87488,-38.28558],[-58.87451,-38.28528],[-58.87408,-38.28491],[-58.87378,-38.28461],[-58.87341,-38.28418],[-58.87299,-38.28387],[-58.87268,-38.28339],[-58.87231,-38.28308],[-58.87201,-38.28271],[-58.8717,-38.28229],[-58.87061,-38.28101],[-58.8703,-38.28058],[-58.87,-38.28021],[-58.86969,-38.27979],[-58.86951,-38.2796],[-58.86951,-38.27917],[-58.86938,-38.27881],[-58.8692,-38.27838],[-58.86908,-38.27789],[-58.8689,-38.2774],[-58.86871,-38.27698],[-58.86871,-38.27661],[-58.86859,-38.27618],[-58.86841,-38.2757],[-58.86829,-38.27521],[-58.86823,-38.27478],[-58.8681,-38.27441],[-58.86798,-38.27393],[-58.8678,-38.2735],[-58.86768,-38.27301],[-58.86749,-38.27258],[-58.86731,-38.27209],[-58.86731,-38.27173],[-58.86719,-38.2713],[-58.867,-38.27081],[-58.86688,-38.27039],[-58.8667,-38.2699],[-58.86658,-38.26941],[-58.86658,-38.26898],[-58.86639,-38.26862],[-58.86621,-38.26813],[-58.86609,-38.2677],[-58.86603,-38.26721],[-58.86591,-38.26678],[-58.86578,-38.2663],[-58.8656,-38.26581],[-58.86548,-38.2655],[-58.8653,-38.26508],[-58.86499,-38.26459],[-58.86481,-38.26422],[-58.8645,-38.26379],[-58.86438,-38.26331],[-58.86407,-38.26288],[-58.86389,-38.26251],[-58.86359,-38.26208],[-58.8634,-38.26172],[-58.8631,-38.26111],[-58.86298,-38.2608],[-58.86261,-38.26038],[-58.86249,-38.26001],[-58.86218,-38.25958],[-58.862,-38.25909],[-58.86182,-38.25873],[-58.86151,-38.2583],[-58.86133,-38.25781],[-58.86108,-38.25739],[-58.8609,-38.25702],[-58.8606,-38.25659],[-58.86041,-38.2561],[-58.86023,-38.25568],[-58.85999,-38.25531],[-58.85968,-38.25488],[-58.8595,-38.25439],[-58.85931,-38.25409],[-58.85901,-38.2536],[-58.85883,-38.25311],[-58.85858,-38.25281],[-58.8584,-38.25238],[-58.85809,-38.25201],[-58.85791,-38.25159],[-58.85773,-38.2511],[-58.85748,-38.25061],[-58.85718,-38.25031],[-58.85699,-38.24988],[-58.85681,-38.24951],[-58.85651,-38.24908],[-58.85638,-38.2486],[-58.85608,-38.24823],[-58.85608,-38.24811],[-58.85571,-38.24768],[-58.85559,-38.24719],[-58.85541,-38.24689],[-58.8551,-38.2464],[-58.85492,-38.24591],[-58.85468,-38.24561],[-58.85449,-38.24518],[-58.85419,-38.24481],[-58.854,-38.24438],[-58.85382,-38.2439],[-58.85358,-38.24341],[-58.85321,-38.2431],[-58.85309,-38.24268],[-58.85291,-38.24231],[-58.85272,-38.24188],[-58.85248,-38.24152],[-58.85211,-38.24109],[-58.85199,-38.2406],[-58.85181,-38.24011],[-58.8515,-38.23981],[-58.85132,-38.23938],[-58.85101,-38.23889],[-58.85089,-38.23853],[-58.85059,-38.2381],[-58.8504,-38.23761],[-58.84998,-38.23688],[-58.84961,-38.23639],[-58.84949,-38.23602],[-58.8493,-38.2356],[-58.849,-38.23511],[-58.84882,-38.2348],[-58.84851,-38.23431],[-58.84839,-38.23389],[-58.84808,-38.23352],[-58.8479,-38.23309],[-58.84772,-38.23273],[-58.84741,-38.2323],[-58.84729,-38.23181],[-58.84698,-38.23138],[-58.8468,-38.23102],[-58.84662,-38.23059],[-58.84637,-38.23022],[-58.84619,-38.2298],[-58.84589,-38.22949],[-58.8457,-38.229],[-58.84552,-38.22858],[-58.84528,-38.22821],[-58.84491,-38.22778],[-58.84479,-38.22742],[-58.8446,-38.22699],[-58.84442,-38.2265],[-58.84418,-38.2262],[-58.84381,-38.22571],[-58.84369,-38.22528],[-58.84351,-38.22491],[-58.8432,-38.22449],[-58.84302,-38.224],[-58.84271,-38.22351],[-58.84259,-38.22321],[-58.84229,-38.22278],[-58.8421,-38.22241],[-58.84192,-38.22198],[-58.84167,-38.2215],[-58.84131,-38.22101],[-58.84119,-38.2207],[-58.841,-38.22028],[-58.84082,-38.21991],[-58.84058,-38.21948],[-58.84039,-38.21912],[-58.84009,-38.21869],[-58.8399,-38.21832],[-58.83972,-38.2179],[-58.83948,-38.21741],[-58.83911,-38.21698],[-58.83899,-38.21661],[-58.83881,-38.21619],[-58.8385,-38.21582],[-58.83832,-38.21539],[-58.83801,-38.2149],[-58.83789,-38.21448],[-58.83759,-38.21411],[-58.8374,-38.21368],[-58.83722,-38.21332],[-58.83698,-38.21289],[-58.83679,-38.21259],[-58.83649,-38.2121],[-58.8363,-38.21161],[-58.83612,-38.2113],[-58.83588,-38.21088],[-58.83551,-38.21039],[-58.83533,-38.21008],[-58.83508,-38.20959],[-58.83478,-38.20923],[-58.83441,-38.2088],[-58.83429,-38.20831],[-58.83398,-38.20801],[-58.8338,-38.20758],[-58.8335,-38.20721],[-58.83331,-38.20679],[-58.83301,-38.20642],[-58.83282,-38.20599],[-58.83252,-38.20563],[-58.83209,-38.20532],[-58.83179,-38.20502],[-58.83142,-38.20471],[-58.83099,-38.20441],[-58.83069,-38.2041],[-58.8302,-38.20361],[-58.82971,-38.20331],[-58.82941,-38.203],[-58.82898,-38.2027],[-58.82861,-38.20239],[-58.82819,-38.20209],[-58.82782,-38.20178],[-58.82739,-38.20142],[-58.82703,-38.20111],[-58.8266,-38.20068],[-58.82611,-38.20038],[-58.82581,-38.20001],[-58.82538,-38.19971],[-58.82501,-38.1994],[-58.82458,-38.1991],[-58.82422,-38.19879],[-58.82379,-38.19849],[-58.82349,-38.19818],[-58.82318,-38.19788],[-58.82269,-38.19751],[-58.82239,-38.19733],[-58.8219,-38.1969],[-58.82159,-38.19659],[-58.82111,-38.19629],[-58.82068,-38.19598],[-58.82031,-38.19568],[-58.81989,-38.19531],[-58.81958,-38.19501],[-58.81909,-38.1947],[-58.81879,-38.19427],[-58.8183,-38.19391],[-58.81781,-38.1936],[-58.8175,-38.1933],[-58.81708,-38.19299],[-58.81671,-38.19269],[-58.81628,-38.19232],[-58.81592,-38.19202],[-58.81549,-38.19159],[-58.815,-38.19128],[-58.8147,-38.19098],[-58.81421,-38.19061],[-58.8139,-38.19031],[-58.81348,-38.19],[-58.81311,-38.1897],[-58.81268,-38.18939],[-58.81232,-38.18903],[-58.81189,-38.18872],[-58.8114,-38.18842],[-58.8111,-38.18811],[-58.81061,-38.18768],[-58.8103,-38.18738],[-58.80988,-38.18701],[-58.80951,-38.18671],[-58.80908,-38.1864],[-58.80872,-38.1861],[-58.80829,-38.18573],[-58.8078,-38.18542],[-58.80768,-38.1853],[-58.80731,-38.185],[-58.80688,-38.18451],[-58.80652,-38.18433],[-58.80609,-38.1839],[-58.80579,-38.18359],[-58.8056,-38.18323],[-58.80542,-38.1828],[-58.80518,-38.18231],[-58.80499,-38.18188],[-58.80481,-38.1817],[-58.80518,-38.18158],[-58.80481,-38.18121]]]}},{"type":"Feature","properties":{"nombre":"Alimentación Eseba","licenciataria":"Camuzzi Gas Pampeana S.A.","tipo":"Distribucion","subtipo":"Cañeria"},"geometry":{"type":"MultiLineString","coordinates":[[[-58.76721,-38.51331],[-58.76721,-38.51343],[-58.76721,-38.51361],[-58.76703,-38.51361],[-58.76691,-38.51361],[-58.7663,-38.51379],[-58.76581,-38.5141],[-58.7655,-38.5144],[-58.76508,-38.51471],[-58.76459,-38.51508],[-58.76422,-38.51538],[-58.76379,-38.51569],[-58.76331,-38.51599],[-58.76288,-38.5163],[-58.76251,-38.5166],[-58.76208,-38.51691],[-58.7616,-38.51721],[-58.76129,-38.51752],[-58.7608,-38.5177],[-58.76038,-38.51801],[-58.75989,-38.51831],[-58.75952,-38.51868],[-58.75909,-38.51898],[-58.75873,-38.51929],[-58.7583,-38.51959],[-58.75781,-38.5199],[-58.75763,-38.52008],[-58.75763,-38.5202],[-58.75763,-38.52039],[-58.75781,-38.52069],[-58.7583,-38.521],[-58.75848,-38.52118],[-58.75879,-38.5213],[-58.75922,-38.52173],[-58.75958,-38.52191],[-58.76001,-38.52228],[-58.76038,-38.52258],[-58.7608,-38.52289],[-58.76111,-38.52332],[-58.7616,-38.52362],[-58.76178,-38.52368],[-58.76202,-38.52393],[-58.76239,-38.52411],[-58.7627,-38.52448],[-58.76251,-38.5246],[-58.76208,-38.5249],[-58.76172,-38.52521],[-58.76129,-38.52551],[-58.7608,-38.52582],[-58.7605,-38.52612],[-58.76001,-38.52649],[-58.7597,-38.52661],[-58.75958,-38.52679],[-58.75952,-38.52692],[-58.75909,-38.52722],[-58.75861,-38.52753],[-58.75818,-38.52771],[-58.75781,-38.52808],[-58.75739,-38.52838],[-58.75702,-38.52881],[-58.75659,-38.52911],[-58.75623,-38.52942],[-58.7558,-38.52972],[-58.75531,-38.53003],[-58.755,-38.5304],[-58.75488,-38.5304],[-58.75458,-38.5307],[-58.75421,-38.53101],[-58.75378,-38.53131],[-58.7533,-38.53162],[-58.75293,-38.53192],[-58.7525,-38.53223],[-58.7522,-38.53241],[-58.75171,-38.53278],[-58.7514,-38.53308],[-58.7511,-38.53339],[-58.75098,-38.53339],[-58.75061,-38.53369],[-58.75018,-38.534],[-58.75012,-38.53412],[-58.75,-38.53412],[-58.75,-38.53418],[-58.74982,-38.5343],[-58.74939,-38.53461],[-58.74908,-38.53491],[-58.7486,-38.53528],[-58.74811,-38.53558],[-58.7478,-38.53589],[-58.74738,-38.53619],[-58.74719,-38.53638],[-58.74701,-38.53638],[-58.74689,-38.53638],[-58.74701,-38.5365],[-58.74689,-38.5365],[-58.74652,-38.5368],[-58.74609,-38.53711],[-58.74573,-38.53748],[-58.7453,-38.53778],[-58.74518,-38.53778],[-58.74518,-38.5379],[-58.74481,-38.53809],[-58.74469,-38.53821],[-58.74432,-38.53851],[-58.7442,-38.53851],[-58.7439,-38.53888],[-58.74341,-38.53918],[-58.74329,-38.53931],[-58.7431,-38.53949],[-58.74268,-38.53979],[-58.74231,-38.53998],[-58.74231,-38.5401],[-58.74188,-38.54041],[-58.74139,-38.54071],[-58.74121,-38.54071],[-58.74109,-38.54108],[-58.7406,-38.54138],[-58.74048,-38.5415],[-58.74042,-38.5415],[-58.74011,-38.54169],[-58.73981,-38.54199],[-58.7395,-38.54218],[-58.73938,-38.5423],[-58.73889,-38.5426],[-58.73859,-38.54291],[-58.7384,-38.54303],[-58.7384,-38.54309],[-58.73822,-38.54321],[-58.73779,-38.54358],[-58.73749,-38.5437],[-58.73743,-38.54382],[-58.737,-38.54419],[-58.73651,-38.54449],[-58.73608,-38.5448],[-58.73572,-38.5451],[-58.7356,-38.54529],[-58.73541,-38.54529],[-58.73529,-38.54541],[-58.73492,-38.54578],[-58.73462,-38.5459],[-58.7345,-38.54608],[-58.73401,-38.54639],[-58.7337,-38.54669],[-58.73358,-38.54681],[-58.73328,-38.547],[-58.73291,-38.54742],[-58.73273,-38.54749],[-58.7326,-38.54749],[-58.73248,-38.54761],[-58.73199,-38.54791],[-58.73169,-38.54822],[-58.73169,-38.54828],[-58.73163,-38.54828],[-58.73151,-38.5484],[-58.73151,-38.54858],[-58.73138,-38.54883],[-58.73138,-38.54901],[-58.73108,-38.5495],[-58.7309,-38.54993],[-58.73071,-38.55029],[-58.73071,-38.55078],[-58.73059,-38.5509],[-58.73053,-38.55121],[-58.73041,-38.5517],[-58.73029,-38.552],[-58.73029,-38.55212],[-58.73029,-38.55219],[-58.7301,-38.55249],[-58.72961,-38.5528],[-58.72949,-38.55292],[-58.72931,-38.55298],[-58.72919,-38.5531],[-58.72882,-38.55341],[-58.72858,-38.55359],[-58.72852,-38.55371],[-58.72839,-38.55371],[-58.72803,-38.55408],[-58.72778,-38.5542],[-58.72772,-38.5542],[-58.72748,-38.55432],[-58.72742,-38.55438],[-58.72729,-38.5545],[-58.72711,-38.55469],[-58.72681,-38.55499],[-58.72668,-38.55511],[-58.72662,-38.55518],[-58.7265,-38.55518],[-58.72601,-38.55548],[-58.72571,-38.55579],[-58.72559,-38.55591],[-58.72528,-38.55609],[-58.72479,-38.55652],[-58.72461,-38.55658],[-58.72461,-38.5567],[-58.72449,-38.55682],[-58.72412,-38.55713],[-58.724,-38.55762],[-58.724,-38.55768],[-58.724,-38.55823],[-58.724,-38.55859],[-58.724,-38.55878],[-58.724,-38.55908],[-58.724,-38.5592],[-58.72388,-38.55969],[-58.72388,-38.56012],[-58.72388,-38.56018],[-58.72388,-38.56061],[-58.72388,-38.5611],[-58.72388,-38.56158],[-58.72382,-38.56171],[-58.72382,-38.56189],[-58.72369,-38.56201],[-58.72382,-38.56201],[-58.72369,-38.5625],[-58.72351,-38.56299],[-58.72351,-38.56329],[-58.72351,-38.56342],[-58.72302,-38.56378],[-58.7226,-38.56409],[-58.72211,-38.56451],[-58.72192,-38.56458],[-58.7218,-38.56458],[-58.72192,-38.5647],[-58.7218,-38.5647],[-58.72168,-38.56482],[-58.72162,-38.56488],[-58.72137,-38.565],[-58.72089,-38.56531],[-58.7207,-38.56549],[-58.7207,-38.56561],[-58.72058,-38.56561],[-58.72009,-38.56598],[-58.71979,-38.56628],[-58.71973,-38.56628],[-58.7193,-38.56659],[-58.71881,-38.56702],[-58.71869,-38.56708],[-58.71838,-38.5672],[-58.71808,-38.5675],[-58.71771,-38.56769],[-58.71771,-38.56781],[-58.7179,-38.56781],[-58.7182,-38.56812],[-58.71863,-38.56842],[-58.71869,-38.56848],[-58.71881,-38.56848],[-58.71899,-38.56879],[-58.71942,-38.56909],[-58.7196,-38.56927],[-58.71973,-38.56927],[-58.71979,-38.56927],[-58.71979,-38.5694],[-58.71991,-38.5694],[-58.71991,-38.56952],[-58.72021,-38.5697],[-58.72058,-38.57001],[-58.72089,-38.57019],[-58.72089,-38.57031],[-58.72101,-38.57031],[-58.72137,-38.57068],[-58.7218,-38.57098],[-58.72137,-38.57129],[-58.72101,-38.57159],[-58.72089,-38.57172],[-58.72083,-38.57178],[-58.72058,-38.5719],[-58.72009,-38.5722],[-58.71991,-38.57239],[-58.71979,-38.57251],[-58.7193,-38.57288],[-58.71918,-38.573],[-58.71899,-38.57318],[-58.71881,-38.57318],[-58.71863,-38.57349],[-58.71851,-38.57361],[-58.71838,-38.57397],[-58.71838,-38.57422],[-58.7182,-38.57452],[-58.71802,-38.57489],[-58.71771,-38.57532],[-58.71753,-38.57568],[-58.71729,-38.57611],[-58.71698,-38.57648],[-58.71667,-38.5769],[-58.71649,-38.57721],[-58.71619,-38.5777],[-58.716,-38.57819],[-58.71588,-38.57849],[-58.71588,-38.57861],[-58.71588,-38.57892],[-58.71588,-38.5791],[-58.7157,-38.5791],[-58.7157,-38.57922],[-58.71539,-38.57928],[-58.71521,-38.57928],[-58.71509,-38.57928],[-58.71503,-38.57941],[-58.7146,-38.57941],[-58.71399,-38.57959],[-58.7135,-38.57971],[-58.71289,-38.5799],[-58.71271,-38.5799],[-58.71259,-38.5799],[-58.71228,-38.58002],[-58.7121,-38.58008],[-58.71191,-38.58008],[-58.71179,-38.58008],[-58.711,-38.5799],[-58.71039,-38.57971],[-58.70978,-38.57971],[-58.70978,-38.57959]]]}}]}
