{"type":"FeatureCollection","features":[{"type":"Feature","properties":{"fna":"Sector Industrial Planificado Municipal de Necochea","gna":"Sector Industrial Planificado Municipal","nam":"de Necochea","sag":"IGN","fdc":"IGN/RENPI","tipo":"Área de fabricación y procesamiento","ign":"areas_de_fabricacion_y_procesamiento_AC070.1209"},"geometry":{"type":"MultiPolygon","coordinates":[[[[-58.7469,-38.53007],[-58.7507,-38.52715],[-58.7437,-38.52152],[-58.73983,-38.52441],[-58.7469,-38.53007]]]]}},{"type":"Feature","properties":{"sag":"IGN","fdc":"IGN/Open Street View","tipo":"Fábrica","ign":"puntos_de_fabricacion_y_procesamiento_AC000.4668"},"geometry":{"type":"Point","coordinates":[-58.7446,-38.52997]}},{"type":"Feature","properties":{"fna":"Cooperativa de Trabajo Obrera Primero de Diciembre","gna":"Cooperativa de Trabajo","nam":"Obrera Primero de Diciembre","sag":"IGN","fdc":"IGN/Open Street View","tipo":"Fábrica","ign":"puntos_de_fabricacion_y_procesamiento_AC000.4669"},"geometry":{"type":"Point","coordinates":[-58.74292,-38.5289]}},{"type":"Feature","properties":{"fna":"Oleaginosa Moreno Hnos. SA","nam":"Oleaginosa Moreno Hnos. SA","sag":"IGN","fdc":"IGN/Secretaría de Gobierno de Energía","tipo":"Fábrica","ign":"puntos_de_fabricacion_y_procesamiento_AC000.5025"},"geometry":{"type":"Point","coordinates":[-58.70634,-38.56289]}},{"type":"Feature","properties":{"fdc":"Secretaria de Gobierno de Energía","sag":"IGN","tipo":"Estación de servicio","ign":"infraestructura_de_transporte_AQ170.10251"},"geometry":{"type":"Point","coordinates":[-58.74974,-38.54571]}},{"type":"Feature","properties":{"fdc":"Secretaria de Gobierno de Energía","sag":"IGN","tipo":"Estación de servicio","ign":"infraestructura_de_transporte_AQ170.10353"},"geometry":{"type":"Point","coordinates":[-58.73132,-38.561]}},{"type":"Feature","properties":{"fdc":"Secretaria de Gobierno de Energía","sag":"IGN","tipo":"Estación de servicio","ign":"infraestructura_de_transporte_AQ170.10398"},"geometry":{"type":"Point","coordinates":[-58.7329,-38.55885]}},{"type":"Feature","properties":{"fdc":"Secretaria de Gobierno de Energía","sag":"IGN","tipo":"Estación de servicio","ign":"infraestructura_de_transporte_AQ170.10423"},"geometry":{"type":"Point","coordinates":[-58.72309,-38.56635]}},{"type":"Feature","properties":{"fdc":"Secretaria de Gobierno de Energía","sag":"IGN","tipo":"Estación de servicio","ign":"infraestructura_de_transporte_AQ170.10452"},"geometry":{"type":"Point","coordinates":[-58.73488,-38.55055]}},{"type":"Feature","properties":{"fdc":"Secretaria de Gobierno de Energía","sag":"IGN","tipo":"Estación de servicio","ign":"infraestructura_de_transporte_AQ170.10453"},"geometry":{"type":"Point","coordinates":[-58.70781,-38.53444]}},{"type":"Feature","properties":{"fdc":"Secretaria de Gobierno de Energía","sag":"IGN","tipo":"Estación de servicio","ign":"infraestructura_de_transporte_AQ170.10485"},"geometry":{"type":"Point","coordinates":[-59.26025,-38.01516]}},{"type":"Feature","properties":{"fdc":"Secretaria de Gobierno de Energía","sag":"IGN","tipo":"Estación de servicio","ign":"infraestructura_de_transporte_AQ170.10958"},"geometry":{"type":"Point","coordinates":[-59.20532,-38.2805]}},{"type":"Feature","properties":{"fdc":"Secretaria de Gobierno de Energía","sag":"IGN","tipo":"Estación de servicio","ign":"infraestructura_de_transporte_AQ170.10959"},"geometry":{"type":"Point","coordinates":[-59.14395,-38.24291]}},{"type":"Feature","properties":{"fdc":"Secretaria de Gobierno de Energía","sag":"IGN","tipo":"Estación de servicio","ign":"infraestructura_de_transporte_AQ170.11170"},"geometry":{"type":"Point","coordinates":[-58.73444,-38.55862]}},{"type":"Feature","properties":{"fdc":"Secretaria de Gobierno de Energía","sag":"IGN","tipo":"Estación de servicio","ign":"infraestructura_de_transporte_AQ170.11171"},"geometry":{"type":"Point","coordinates":[-58.77633,-38.53171]}},{"type":"Feature","properties":{"fdc":"Secretaria de Gobierno de Energía","sag":"IGN","tipo":"Estación de servicio","ign":"infraestructura_de_transporte_AQ170.11172"},"geometry":{"type":"Point","coordinates":[-58.72905,-38.57771]}},{"type":"Feature","properties":{"fdc":"Secretaria de Gobierno de Energía","sag":"IGN","tipo":"Estación de servicio","ign":"infraestructura_de_transporte_AQ170.14038"},"geometry":{"type":"Point","coordinates":[-58.73871,-38.56668]}},{"type":"Feature","properties":{"fdc":"Secretaria de Gobierno de Energía","sag":"IGN","tipo":"Estación de servicio","ign":"infraestructura_de_transporte_AQ170.14747"},"geometry":{"type":"Point","coordinates":[-58.74561,-38.55]}},{"type":"Feature","properties":{"fdc":"Secretaria de Gobierno de Energía","sag":"IGN","tipo":"Estación de servicio","ign":"infraestructura_de_transporte_AQ170.15228"},"geometry":{"type":"Point","coordinates":[-59.26531,-38.0039]}},{"type":"Feature","properties":{"fdc":"Secretaria de Gobierno de Energía","sag":"IGN","tipo":"Estación de servicio","ign":"infraestructura_de_transporte_AQ170.15751"},"geometry":{"type":"Point","coordinates":[-58.7588,-38.53991]}},{"type":"Feature","properties":{"fdc":"Secretaria de Gobierno de Energía","sag":"IGN","tipo":"Estación de servicio","ign":"infraestructura_de_transporte_AQ170.15752"},"geometry":{"type":"Point","coordinates":[-58.72998,-38.55274]}},{"type":"Feature","properties":{"fdc":"Secretaria de Gobierno de Energía","sag":"IGN","tipo":"Estación de servicio","ign":"infraestructura_de_transporte_AQ170.15768"},"geometry":{"type":"Point","coordinates":[-58.74502,-38.54967]}},{"type":"Feature","properties":{"fdc":"Secretaria de Gobierno de Energía","sag":"IGN","tipo":"Estación de servicio","ign":"infraestructura_de_transporte_AQ170.16010"},"geometry":{"type":"Point","coordinates":[-58.75981,-38.52789]}},{"type":"Feature","properties":{"fdc":"Secretaria de Gobierno de Energía","sag":"IGN","tipo":"Estación de servicio","ign":"infraestructura_de_transporte_AQ170.16461"},"geometry":{"type":"Point","coordinates":[-58.72802,-38.55433]}},{"type":"Feature","properties":{"fdc":"Secretaria de Gobierno de Energía","sag":"IGN","tipo":"Estación de servicio","ign":"infraestructura_de_transporte_AQ170.16507"},"geometry":{"type":"Point","coordinates":[-58.72372,-38.55023]}},{"type":"Feature","properties":{"fdc":"Secretaria de Gobierno de Energía","sag":"IGN","tipo":"Estación de servicio","ign":"infraestructura_de_transporte_AQ170.16536"},"geometry":{"type":"Point","coordinates":[-58.6811,-38.54162]}},{"type":"Feature","properties":{"fna":"Basural Municipal Necochea","gna":"Basural Municipal","nam":"Necochea","fdc":"Defensoría Provincia de Buenos Aires","sag":"IGN","tipo":"Vertedero, basurero","ign":"areas_de_gestion_de_residuos_AB000.426"},"geometry":{"type":"MultiPolygon","coordinates":[[[[-58.81334,-38.4976],[-58.81186,-38.49908],[-58.81272,-38.49986],[-58.81491,-38.49812],[-58.81501,-38.49792],[-58.81499,-38.49778],[-58.81476,-38.49773],[-58.81334,-38.4976]]]]}},{"type":"Feature","properties":{"fna":"Planta Depuradora de Líquidos Cloacales Quequén","gna":"Planta Depuradora de Líquidos Cloacales","nam":"Quequén","sag":"IGN","fdc":"IGN/GEOINFRA","tipo":"Planta de tratamiento de efluentes cloacales","ign":"areas_de_fabricacion_y_procesamiento_AC507.1571"},"geometry":{"type":"MultiPolygon","coordinates":[[[[-58.71252,-38.56794],[-58.71262,-38.56787],[-58.71195,-38.56693],[-58.71108,-38.5676],[-58.71196,-38.56835],[-58.71252,-38.56794]]]]}},{"type":"Feature","properties":{"fna":"Planta Depuradora de Líquidos Cloacales Necochea","gna":"Planta Depuradora de Líquidos Cloacales","nam":"Necochea","sag":"IGN","fdc":"IGN/GEOINFRA","tipo":"Planta de tratamiento de efluentes cloacales","ign":"areas_de_fabricacion_y_procesamiento_AC507.1572"},"geometry":{"type":"MultiPolygon","coordinates":[[[[-58.74334,-38.53028],[-58.74152,-38.52882],[-58.73968,-38.53031],[-58.74146,-38.5318],[-58.74334,-38.53028]]]]}},{"type":"Feature","properties":{"fna":"Planta Depuradora de Líquidos Cloacales Quequén","gna":"Planta Depuradora de Líquidos Cloacales","nam":"Quequén","sag":"IGN","fdc":"IGN/GEOINFRA","tipo":"Planta de tratamiento de efluentes cloacales","ign":"puntos_de_fabricacion_y_procesamiento_AC507.5125"},"geometry":{"type":"Point","coordinates":[-58.71194,-38.56801]}},{"type":"Feature","properties":{"fna":"Planta Depuradora de Líquidos Cloacales Necochea","gna":"Planta Depuradora de Líquidos Cloacales","nam":"Necochea","sag":"IGN","fdc":"IGN/GEOINFRA","tipo":"Planta de tratamiento de efluentes cloacales","ign":"puntos_de_fabricacion_y_procesamiento_AC507.5251"},"geometry":{"type":"Point","coordinates":[-58.74176,-38.52927]}}]}
