{"type":"FeatureCollection","features":[{"type":"Feature","properties":{"ubicacion":"localidad","localidad":"Necochea y Quequén","registros":[{"id":"proyecto-0001","tipo_registro":"evento","tipo":"Inundación","fecha":"1980-04-29","localidad":"Necochea y Quequén","lugar":"Riberas del río Quequén, puerto y Terminal de Ómnibus","efectos":{"Evacuados":600},"observaciones_efectos":"La nota informa 200 evacuados el 28 de abril y 600 el 29, en Necochea y Quequén. Los 21 muertos y más de 31.000 evacuados que informó el Ejército el 2 de mayo corresponden a todo el centro este de la provincia, no al partido.","servicios":["Transporte","Educación"],"punto":null,"descripcion":"Desborde del río Quequén tras las lluvias iniciadas el 20 de abril en la región. Cayeron los puentes Ezcurra, ferroviario y Negro; se desalojó la Terminal de Ómnibus, se cortó la ruta 86 y la corriente arrastró muelles y buques del puerto. La Municipalidad dispuso el estado de emergencia y suspendió las clases.","fuente_medio":"Ecos Diarios","fuente_fecha":"2020-04-05","fuente_url":"https://elecos.com.ar/antes-del-coronavirus-la-gran-inundacion"},{"id":"proyecto-0006","tipo_registro":"evento","tipo":"Tornado","fecha":"1990-04-17","localidad":"Necochea y Quequén","lugar":null,"efectos":{"Evacuados":20},"observaciones_efectos":"La nota no nombra la localidad; se asigna a Necochea y Quequén porque es una crónica de historia local del diario de la ciudad.","servicios":["Energía","Comunicaciones"],"punto":null,"descripcion":"Tornado con vientos de hasta 200 km/h: voladura de techos, caída de árboles y carteles e innumerables cortes de los servicios eléctrico y telefónico.","fuente_medio":"Ecos Diarios","fuente_fecha":"2022-04-30","fuente_url":"https://elecos.com.ar/una-epoca-del-ano-marcada-por-la-furia-de-la-naturaleza"},{"id":"proyecto-0007","tipo_registro":"evento","tipo":"Tornado","fecha":"1993-04-13","localidad":"Necochea y Quequén","lugar":null,"efectos":{"Muertos":1,"Heridos o enfermos":15,"Evacuados":225},"observaciones_efectos":"La nota informa 15 heridos graves. La nota no nombra la localidad; se asigna a Necochea y Quequén porque es una crónica de historia local del diario de la ciudad.","servicios":["Energía"],"punto":null,"descripcion":"Tornado nocturno con vientos de hasta 250 km/h: voladura de techos, árboles y postes de luz caídos, paredones derrumbados, un pesquero encallado en la zona portuaria y la red eléctrica muy dañada. Murió un niño al derrumbarse la casa en la que vivía.","fuente_medio":"Ecos Diarios","fuente_fecha":"2022-04-30","fuente_url":"https://elecos.com.ar/una-epoca-del-ano-marcada-por-la-furia-de-la-naturaleza"}]},"geometry":{"type":"Point","coordinates":[-58.73924,-38.55446]}},{"type":"Feature","properties":{"ubicacion":"localidad","localidad":"Nicanor Olivera (La Dulce)","registros":[{"id":"proyecto-0002","tipo_registro":"evento","tipo":"Inundación","fecha":"1980-04-29","localidad":"Nicanor Olivera (La Dulce)","lugar":null,"efectos":{},"observaciones_efectos":null,"servicios":[],"punto":null,"descripcion":"Durante la crecida de abril de 1980, La Dulce quedó parcialmente inundada.","fuente_medio":"Ecos Diarios","fuente_fecha":"2020-04-05","fuente_url":"https://elecos.com.ar/antes-del-coronavirus-la-gran-inundacion"}]},"geometry":{"type":"Point","coordinates":[-59.20274,-38.28305]}},{"type":"Feature","properties":{"ubicacion":"localidad","localidad":"Juan N. Fernández","registros":[{"id":"proyecto-0003","tipo_registro":"evento","tipo":"Inundación","fecha":"1980-04-29","localidad":"Juan N. Fernández","lugar":null,"efectos":{},"observaciones_efectos":null,"servicios":["Transporte"],"punto":null,"descripcion":"Durante la crecida de abril de 1980, Juan N. Fernández quedó aislada. La ruta 86 quedó bajo el agua y se interrumpieron los ómnibus entre Necochea y Juárez, La Dulce, Juan N. Fernández y Barker.","fuente_medio":"Ecos Diarios","fuente_fecha":"2020-04-05","fuente_url":"https://elecos.com.ar/antes-del-coronavirus-la-gran-inundacion"}]},"geometry":{"type":"Point","coordinates":[-59.26392,-38.00552]}},{"type":"Feature","properties":{"ubicacion":"localidad","localidad":"Claraz","registros":[{"id":"proyecto-0004","tipo_registro":"evento","tipo":"Inundación","fecha":"1980-04-29","localidad":"Claraz","lugar":null,"efectos":{},"observaciones_efectos":null,"servicios":["Transporte"],"punto":null,"descripcion":"Durante la crecida de abril de 1980, Claraz quedó aislada.","fuente_medio":"Ecos Diarios","fuente_fecha":"2020-04-05","fuente_url":"https://elecos.com.ar/antes-del-coronavirus-la-gran-inundacion"}]},"geometry":{"type":"Point","coordinates":[-59.29107,-37.89343]}}]}
