{"type":"FeatureCollection","features":[{"type":"Feature","properties":{"fna":"Claraz","tipo_asent":"Localidad simple","fdc":"INDEC","tipo":"Localidad","ign":"localidad_bahra.1901"},"geometry":{"type":"MultiPoint","coordinates":[[-59.29107,-37.89343]]}},{"type":"Feature","properties":{"fna":"Juan N. Fernández","tipo_asent":"Localidad simple","fdc":"INDEC","tipo":"Localidad","ign":"localidad_bahra.1903"},"geometry":{"type":"MultiPoint","coordinates":[[-59.26392,-38.00552]]}},{"type":"Feature","properties":{"fna":"Nicanor Olivera","tipo_asent":"Localidad simple","fdc":"INDEC","tipo":"Localidad","ign":"localidad_bahra.1905"},"geometry":{"type":"MultiPoint","coordinates":[[-59.20274,-38.28305]]}},{"type":"Feature","properties":{"fna":"Energía","tipo_asent":"Localidad simple","fdc":"INDEC","tipo":"Localidad","ign":"localidad_bahra.1902"},"geometry":{"type":"MultiPoint","coordinates":[[-59.34081,-38.55794]]}},{"type":"Feature","properties":{"fna":"Necochea - Quequén","tipo_asent":"Localidad simple","fdc":"INDEC","tipo":"Localidad","ign":"localidad_bahra.1904"},"geometry":{"type":"MultiPoint","coordinates":[[-58.73924,-38.55446]]}},{"type":"Feature","properties":{"fna":"Ramón Santamarina","tipo_asent":"Localidad simple","fdc":"INDEC","tipo":"Localidad","ign":"localidad_bahra.1906"},"geometry":{"type":"MultiPoint","coordinates":[[-59.33051,-38.44913]]}}]}
