{"type":"FeatureCollection","features":[{"type":"Feature","geometry":{"type":"Point","coordinates":[-59.20189,-38.28023]},"properties":{"organismo":"Bomberos","nombre":"Bomberos Voluntarios de La Dulce","fuente":"IGN","ref":"estructuras_operativas_y_defensivas_090102.9536","fuente_captura":"IGN/Consejo Nacional de Bomberos Voluntarios"}},{"type":"Feature","geometry":{"type":"Point","coordinates":[-58.73072,-38.56044]},"properties":{"organismo":"Bomberos","nombre":"Cuartel de Bomberos Necochea","fuente":"IGN","ref":"estructuras_operativas_y_defensivas_090102.8142","fuente_captura":"OSM/Street View"}},{"type":"Feature","geometry":{"type":"Point","coordinates":[-58.74318,-38.55728]},"properties":{"organismo":"Centro Operativo de Monitoreo","nombre":"Centro Operativo de Monitoreo","fuente":"OpenStreetMap","ref":"node/14220751253","official_name":"Subsecretaría de Prevención y Monitoreo.","description":"Multiagencia"}},{"type":"Feature","geometry":{"type":"Point","coordinates":[-58.74072,-38.58209]},"properties":{"organismo":"Defensa Civil","nombre":"Defensa Civil","fuente":"OpenStreetMap","ref":"node/4092470096"}},{"type":"Feature","geometry":{"type":"Point","coordinates":[-58.74113,-38.55562]},"properties":{"organismo":"Policía","nombre":"Comisaría Necochea 1ª","fuente":"IGN","ref":"estructuras_operativas_y_defensivas_FA517.7830","fuente_captura":"Street View/Datos Abiertos de Buenos Aires"}},{"type":"Feature","geometry":{"type":"Point","coordinates":[-58.70881,-38.55584]},"properties":{"organismo":"Policía","nombre":"Comisaría Necochea 2ª","fuente":"IGN","ref":"estructuras_operativas_y_defensivas_FA517.7829","fuente_captura":"IGN/Datos Abiertos de Buenos Aires"}},{"type":"Feature","geometry":{"type":"Point","coordinates":[-58.73176,-38.58029]},"properties":{"organismo":"Policía","nombre":"Comisaría Necochea 3ª","fuente":"IGN","ref":"estructuras_operativas_y_defensivas_FA517.7828","fuente_captura":"Street View/Datos Abiertos de Buenos Aires"}},{"type":"Feature","geometry":{"type":"Point","coordinates":[-58.73585,-38.57757]},"properties":{"organismo":"Policía","nombre":"Comisaría de la Mujer y la Familia Necochea","fuente":"IGN","ref":"estructuras_operativas_y_defensivas_FA517.6791","fuente_captura":"Street View/Policía Provincial"}},{"type":"Feature","geometry":{"type":"Point","coordinates":[-58.73032,-38.56768]},"properties":{"organismo":"Policía","nombre":"Policía Federal Argentina Delegación Necochea","fuente":"IGN","ref":"estructuras_operativas_y_defensivas_FA517.6907","fuente_captura":"OSM/Street View"}},{"type":"Feature","geometry":{"type":"Point","coordinates":[-59.26422,-38.00634]},"properties":{"organismo":"Policía","nombre":"Subcomisaría J. N. Fernández","fuente":"IGN","ref":"estructuras_operativas_y_defensivas_FA517.7721","fuente_captura":"IGN/Datos Abiertos de Buenos Aires"}},{"type":"Feature","geometry":{"type":"Point","coordinates":[-58.70422,-38.57445]},"properties":{"organismo":"Prefectura Naval","nombre":"Prefectura Naval Argentina Prefectura Quequén","fuente":"IGN","ref":"estructuras_operativas_y_defensivas_FA517.6076","fuente_captura":"IGN/Prefectura Naval Argentina"}}]}
