{"type":"FeatureCollection","features":[{"type":"Feature","properties":{"fna":"Necochea - Quequén","fdc":"IGN/INDEC","sag":"IGN","tipo":"Planta urbana","ign":"areas_de_asentamientos_y_edificios_020105.9844"},"geometry":{"type":"MultiPolygon","coordinates":[[[[-58.73739,-38.52681],[-58.73742,-38.52698],[-58.73745,-38.52715],[-58.7375,-38.52741],[-58.73757,-38.52776],[-58.7376,-38.52801],[-58.73764,-38.52827],[-58.73765,-38.52847],[-58.73766,-38.52868],[-58.73763,-38.52877],[-58.73764,-38.52892],[-58.73763,-38.52904],[-58.73755,-38.52932],[-58.73747,-38.52959],[-58.7374,-38.52977],[-58.73732,-38.52986],[-58.73715,-38.53003],[-58.73707,-38.53009],[-58.73697,-38.5302],[-58.73685,-38.53033],[-58.73667,-38.53043],[-58.7365,-38.53053],[-58.73623,-38.53058],[-58.73605,-38.53068],[-58.73595,-38.53078],[-58.73577,-38.53089],[-58.73559,-38.53097],[-58.73542,-38.53104],[-58.73515,-38.53106],[-58.73488,-38.53108],[-58.73463,-38.53114],[-58.73438,-38.5312],[-58.73413,-38.53126],[-58.73388,-38.53133],[-58.73363,-38.53139],[-58.73333,-38.53142],[-58.73303,-38.53146],[-58.73277,-38.5315],[-58.7325,-38.53155],[-58.73225,-38.53158],[-58.732,-38.5316],[-58.73176,-38.53163],[-58.73147,-38.53164],[-58.73119,-38.53166],[-58.73092,-38.53168],[-58.73065,-38.5317],[-58.73037,-38.53175],[-58.73008,-38.5318],[-58.72987,-38.53186],[-58.72965,-38.53192],[-58.72946,-38.53204],[-58.72927,-38.53216],[-58.72904,-38.53234],[-58.7288,-38.53251],[-58.72861,-38.53264],[-58.72842,-38.53278],[-58.72824,-38.53289],[-58.72807,-38.533],[-58.72791,-38.53315],[-58.72775,-38.5333],[-58.72756,-38.53357],[-58.72744,-38.53389],[-58.72738,-38.53408],[-58.72732,-38.53428],[-58.72729,-38.53453],[-58.72727,-38.53477],[-58.72725,-38.53501],[-58.72726,-38.53521],[-58.72726,-38.5354],[-58.72726,-38.53562],[-58.72725,-38.53584],[-58.72729,-38.53605],[-58.72734,-38.53625],[-58.72734,-38.53645],[-58.72734,-38.53665],[-58.72733,-38.53697],[-58.72735,-38.53715],[-58.72738,-38.53733],[-58.72745,-38.53759],[-58.72757,-38.53777],[-58.72769,-38.53795],[-58.72794,-38.53815],[-58.72811,-38.53822],[-58.72828,-38.5383],[-58.72855,-38.53842],[-58.72889,-38.53852],[-58.72914,-38.53867],[-58.72936,-38.53881],[-58.72958,-38.53895],[-58.72974,-38.53907],[-58.72991,-38.53918],[-58.7301,-38.53939],[-58.7302,-38.53951],[-58.73035,-38.53972],[-58.73049,-38.53992],[-58.73069,-38.54015],[-58.73088,-38.54038],[-58.73095,-38.54062],[-58.73103,-38.54086],[-58.73112,-38.5411],[-58.73116,-38.54144],[-58.73113,-38.54171],[-58.73111,-38.54198],[-58.73102,-38.54215],[-58.73094,-38.54233],[-58.73083,-38.54247],[-58.73072,-38.54262],[-58.73054,-38.54276],[-58.73036,-38.5429],[-58.73015,-38.54306],[-58.72994,-38.54322],[-58.72972,-38.54344],[-58.7295,-38.54366],[-58.72936,-38.54384],[-58.72922,-38.54402],[-58.72912,-38.54417],[-58.72893,-38.54442],[-58.72883,-38.54454],[-58.72878,-38.54459],[-58.72848,-38.54477],[-58.72834,-38.54489],[-58.7282,-38.54501],[-58.7281,-38.54524],[-58.72801,-38.54547],[-58.72795,-38.54569],[-58.7279,-38.54592],[-58.72797,-38.54619],[-58.72804,-38.54646],[-58.72822,-38.54673],[-58.72836,-38.54705],[-58.72849,-38.54736],[-58.72858,-38.54756],[-58.72867,-38.54775],[-58.7287,-38.54794],[-58.72874,-38.54813],[-58.72884,-38.54842],[-58.72895,-38.5487],[-58.72906,-38.54899],[-58.72911,-38.5493],[-58.72904,-38.54949],[-58.72891,-38.54969],[-58.72884,-38.55002],[-58.72878,-38.55027],[-58.72871,-38.55042],[-58.72858,-38.55051],[-58.72844,-38.55066],[-58.72833,-38.55081],[-58.72827,-38.55091],[-58.72807,-38.55112],[-58.72794,-38.55122],[-58.72781,-38.55134],[-58.72777,-38.55141],[-58.7276,-38.55151],[-58.7275,-38.5516],[-58.72743,-38.55168],[-58.72734,-38.55173],[-58.72718,-38.5518],[-58.72705,-38.55185],[-58.72677,-38.552],[-58.72656,-38.55211],[-58.7263,-38.55231],[-58.7261,-38.55252],[-58.72592,-38.55274],[-58.72568,-38.55293],[-58.7255,-38.55301],[-58.72532,-38.55308],[-58.72513,-38.55316],[-58.72504,-38.55326],[-58.72483,-38.5535],[-58.72467,-38.55359],[-58.72454,-38.55362],[-58.7245,-38.55369],[-58.7244,-38.55373],[-58.7243,-38.55378],[-58.7242,-38.55382],[-58.7241,-38.55384],[-58.72391,-38.55389],[-58.72375,-38.55392],[-58.72356,-38.55398],[-58.72347,-38.55406],[-58.72339,-38.55413],[-58.72327,-38.55419],[-58.72316,-38.55424],[-58.72303,-38.55427],[-58.72284,-38.5543],[-58.72271,-38.5543],[-58.72263,-38.55427],[-58.72256,-38.55431],[-58.72248,-38.55435],[-58.72236,-38.55436],[-58.72221,-38.55439],[-58.72212,-38.55449],[-58.72196,-38.5546],[-58.72182,-38.55472],[-58.72173,-38.55475],[-58.72153,-38.55484],[-58.72139,-38.55491],[-58.72125,-38.55495],[-58.72113,-38.55497],[-58.72107,-38.55498],[-58.72094,-38.55507],[-58.7208,-38.55516],[-58.72069,-38.55523],[-58.72044,-38.55544],[-58.7203,-38.55563],[-58.72018,-38.55587],[-58.7201,-38.55602],[-58.7201,-38.55611],[-58.72001,-38.5563],[-58.71994,-38.55645],[-58.71989,-38.5566],[-58.7199,-38.55672],[-58.71993,-38.55688],[-58.71997,-38.55703],[-58.72004,-38.55719],[-58.72011,-38.55737],[-58.72024,-38.55758],[-58.72031,-38.55769],[-58.72036,-38.55778],[-58.72041,-38.55787],[-58.72046,-38.55799],[-58.72047,-38.55807],[-58.72048,-38.55813],[-58.72053,-38.55818],[-58.72058,-38.55823],[-58.72064,-38.55834],[-58.72071,-38.5585],[-58.72079,-38.5587],[-58.72082,-38.55883],[-58.72087,-38.55894],[-58.72098,-38.55911],[-58.72109,-38.55932],[-58.72118,-38.55952],[-58.72122,-38.55972],[-58.7213,-38.55998],[-58.7213,-38.56018],[-58.72135,-38.56044],[-58.72141,-38.56057],[-58.72156,-38.56065],[-58.72165,-38.56066],[-58.72175,-38.56064],[-58.72195,-38.56065],[-58.72209,-38.56065],[-58.72224,-38.56067],[-58.7224,-38.56069],[-58.72252,-38.56071],[-58.72265,-38.56068],[-58.72271,-38.56064],[-58.72279,-38.5606],[-58.72295,-38.56058],[-58.72306,-38.56056],[-58.7232,-38.56055],[-58.72335,-38.56055],[-58.72339,-38.56059],[-58.72339,-38.56063],[-58.72337,-38.56068],[-58.72335,-38.5607],[-58.72331,-38.56071],[-58.72323,-38.56071],[-58.7231,-38.56071],[-58.72294,-38.56072],[-58.72287,-38.56074],[-58.7228,-38.56079],[-58.72278,-38.56082],[-58.72273,-38.56085],[-58.72264,-38.56087],[-58.72253,-38.56087],[-58.72241,-38.56085],[-58.7223,-38.56083],[-58.72217,-38.56082],[-58.72205,-38.56081],[-58.72181,-38.56081],[-58.72152,-38.56082],[-58.72143,-38.56084],[-58.72134,-38.56092],[-58.72126,-38.56107],[-58.72124,-38.56118],[-58.72118,-38.56139],[-58.72113,-38.56156],[-58.72108,-38.56165],[-58.72102,-38.56174],[-58.72096,-38.56182],[-58.7209,-38.5619],[-58.72084,-38.56197],[-58.72079,-38.56207],[-58.72074,-38.56215],[-58.7207,-38.56225],[-58.72066,-38.56237],[-58.72065,-38.56245],[-58.72063,-38.56251],[-58.7206,-38.56254],[-58.72052,-38.56258],[-58.72054,-38.56263],[-58.7205,-38.56269],[-58.72048,-38.56274],[-58.72044,-38.56281],[-58.72038,-38.56289],[-58.72029,-38.56298],[-58.72017,-38.56306],[-58.7201,-38.56311],[-58.71999,-38.56316],[-58.71992,-38.56323],[-58.71987,-38.56329],[-58.71976,-38.56338],[-58.71968,-38.56344],[-58.71957,-38.56351],[-58.71945,-38.56357],[-58.71936,-38.56361],[-58.71928,-38.56365],[-58.71918,-38.56367],[-58.71895,-38.56373],[-58.71879,-38.56375],[-58.71859,-38.56377],[-58.7184,-38.56378],[-58.71817,-38.5638],[-58.71793,-38.5638],[-58.71778,-38.56379],[-58.71761,-38.56374],[-58.71752,-38.56372],[-58.71736,-38.56366],[-58.71725,-38.56361],[-58.71715,-38.56363],[-58.71708,-38.56363],[-58.717,-38.56363],[-58.71691,-38.56361],[-58.71682,-38.56358],[-58.71664,-38.5635],[-58.71638,-38.56347],[-58.71617,-38.56346],[-58.71582,-38.5634],[-58.71558,-38.56335],[-58.71539,-38.56333],[-58.71508,-38.56327],[-58.71492,-38.56325],[-58.71481,-38.56325],[-58.71471,-38.56329],[-58.71461,-38.56337],[-58.71458,-38.56344],[-58.71455,-38.5635],[-58.71451,-38.5636],[-58.71448,-38.56361],[-58.71442,-38.56365],[-58.71432,-38.5637],[-58.7142,-38.56378],[-58.71408,-38.56382],[-58.71394,-38.56393],[-58.71388,-38.56396],[-58.71384,-38.56399],[-58.7138,-38.56405],[-58.71372,-38.56408],[-58.71369,-38.56412],[-58.71365,-38.56416],[-58.71359,-38.56418],[-58.71355,-38.56421],[-58.71353,-38.56429],[-58.71336,-38.56445],[-58.71325,-38.56458],[-58.71317,-38.56469],[-58.71312,-38.56481],[-58.7131,-38.56492],[-58.71311,-38.56503],[-58.71312,-38.56512],[-58.71315,-38.56521],[-58.71321,-38.56527],[-58.71328,-38.56538],[-58.71329,-38.56542],[-58.71333,-38.56546],[-58.71341,-38.56549],[-58.7135,-38.56552],[-58.71357,-38.56555],[-58.71362,-38.5656],[-58.71363,-38.56565],[-58.71365,-38.56571],[-58.71369,-38.56575],[-58.71378,-38.56578],[-58.71387,-38.56581],[-58.71396,-38.56583],[-58.71401,-38.56586],[-58.71403,-38.56589],[-58.71404,-38.56596],[-58.71403,-38.56603],[-58.71403,-38.56608],[-58.71402,-38.56617],[-58.71405,-38.56624],[-58.71413,-38.56631],[-58.71425,-38.56639],[-58.71431,-38.56647],[-58.71438,-38.56656],[-58.7145,-38.56664],[-58.71457,-38.56673],[-58.71461,-38.56679],[-58.71469,-38.56688],[-58.7148,-38.56702],[-58.7149,-38.56715],[-58.71502,-38.56729],[-58.71509,-38.56727],[-58.71511,-38.5673],[-58.7151,-38.56738],[-58.71511,-38.56746],[-58.71516,-38.56755],[-58.71527,-38.56768],[-58.71535,-38.56778],[-58.71544,-38.56791],[-58.71557,-38.56796],[-58.71569,-38.56803],[-58.71575,-38.56814],[-58.71579,-38.56816],[-58.71586,-38.56821],[-58.71593,-38.56828],[-58.71598,-38.56838],[-58.71604,-38.56845],[-58.71609,-38.56854],[-58.71614,-38.5686],[-58.7162,-38.56868],[-58.71626,-38.56873],[-58.71632,-38.56877],[-58.71634,-38.56883],[-58.71634,-38.56889],[-58.71634,-38.56901],[-58.71634,-38.56909],[-58.7163,-38.56916],[-58.71626,-38.56921],[-58.71628,-38.56925],[-58.71629,-38.56931],[-58.71629,-38.56932],[-58.71627,-38.56938],[-58.71623,-38.56941],[-58.71615,-38.56942],[-58.71613,-38.56942],[-58.7161,-38.56944],[-58.71619,-38.56954],[-58.71635,-38.56961],[-58.71651,-38.56964],[-58.71674,-38.56975],[-58.71679,-38.56984],[-58.7169,-38.56987],[-58.71698,-38.56991],[-58.71701,-38.57002],[-58.717,-38.57011],[-58.71677,-38.57001],[-58.71653,-38.56979],[-58.71635,-38.56973],[-58.71628,-38.56973],[-58.71623,-38.56972],[-58.71614,-38.56968],[-58.71606,-38.56965],[-58.71596,-38.56964],[-58.71592,-38.56967],[-58.71589,-38.56972],[-58.71587,-38.56983],[-58.71588,-38.56995],[-58.71593,-38.57003],[-58.71601,-38.57017],[-58.71604,-38.57035],[-58.71607,-38.57053],[-58.71609,-38.57075],[-58.71611,-38.57096],[-58.7161,-38.57122],[-58.71608,-38.57136],[-58.71608,-38.57143],[-58.71603,-38.5715],[-58.71601,-38.57171],[-58.71601,-38.57183],[-58.71591,-38.57189],[-58.71577,-38.57196],[-58.71562,-38.5721],[-58.71552,-38.57225],[-58.71542,-38.57241],[-58.71531,-38.57257],[-58.7152,-38.57273],[-58.71499,-38.57299],[-58.71479,-38.57325],[-58.71467,-38.57342],[-58.71455,-38.57358],[-58.71438,-38.57386],[-58.71424,-38.57406],[-58.71409,-38.57426],[-58.71395,-38.57447],[-58.71382,-38.57467],[-58.71368,-38.57487],[-58.71355,-38.57508],[-58.71345,-38.57521],[-58.71343,-38.57521],[-58.71341,-38.57524],[-58.71342,-38.57527],[-58.7134,-38.57534],[-58.71308,-38.57548],[-58.71275,-38.57563],[-58.71244,-38.57579],[-58.71212,-38.57595],[-58.7119,-38.57607],[-58.71169,-38.57619],[-58.71147,-38.5763],[-58.71139,-38.57624],[-58.71109,-38.5764],[-58.71114,-38.57647],[-58.71106,-38.57655],[-58.71079,-38.5766],[-58.71051,-38.57665],[-58.71023,-38.5767],[-58.71001,-38.57675],[-58.70979,-38.5768],[-58.70961,-38.57684],[-58.70943,-38.57689],[-58.70911,-38.57696],[-58.70879,-38.57702],[-58.7085,-38.57709],[-58.70822,-38.57716],[-58.70794,-38.57723],[-58.70769,-38.57729],[-58.70744,-38.57734],[-58.70719,-38.57739],[-58.70717,-38.57739],[-58.70694,-38.57742],[-58.70671,-38.57745],[-58.70645,-38.5775],[-58.70618,-38.57756],[-58.70592,-38.57762],[-58.70567,-38.5777],[-58.70539,-38.57778],[-58.70526,-38.57783],[-58.70522,-38.57789],[-58.70509,-38.57798],[-58.705,-38.57806],[-58.70488,-38.57812],[-58.70483,-38.57819],[-58.70468,-38.57812],[-58.70446,-38.57831],[-58.70425,-38.57853],[-58.70409,-38.5786],[-58.70404,-38.57868],[-58.70386,-38.57886],[-58.70373,-38.57897],[-58.7037,-38.57902],[-58.70368,-38.57905],[-58.70353,-38.57907],[-58.70334,-38.57925],[-58.70314,-38.57942],[-58.7029,-38.5795],[-58.70265,-38.57976],[-58.70248,-38.58],[-58.70227,-38.58003],[-58.70208,-38.58023],[-58.70189,-38.5804],[-58.70165,-38.58053],[-58.70141,-38.58064],[-58.70117,-38.58076],[-58.70096,-38.58098],[-58.70088,-38.58115],[-58.7008,-38.58132],[-58.70054,-38.58153],[-58.70043,-38.5817],[-58.70032,-38.58187],[-58.7001,-38.58207],[-58.69987,-38.58227],[-58.6996,-38.58245],[-58.69932,-38.58263],[-58.69904,-38.58281],[-58.69877,-38.58299],[-58.6985,-38.58316],[-58.69823,-38.58334],[-58.69805,-38.58343],[-58.69787,-38.58352],[-58.69762,-38.58363],[-58.69737,-38.58375],[-58.69707,-38.58384],[-58.69677,-38.58394],[-58.69647,-38.58403],[-58.69621,-38.58414],[-58.69595,-38.58425],[-58.69569,-38.58436],[-58.6954,-38.58444],[-58.69511,-38.58452],[-58.69483,-38.5846],[-58.69454,-38.58468],[-58.69427,-38.58477],[-58.69399,-38.58485],[-58.69372,-38.58493],[-58.69344,-38.58502],[-58.69312,-38.58515],[-58.6928,-38.58529],[-58.69268,-38.58547],[-58.69256,-38.58565],[-58.69235,-38.58582],[-58.69213,-38.58598],[-58.69195,-38.5861],[-58.69176,-38.58623],[-58.69152,-38.58638],[-58.69127,-38.58652],[-58.69103,-38.58667],[-58.69078,-38.58685],[-58.69053,-38.58703],[-58.69027,-38.58721],[-58.69001,-38.58733],[-58.68974,-38.58744],[-58.68948,-38.58756],[-58.68932,-38.58787],[-58.68955,-38.58793],[-58.68975,-38.58783],[-58.68995,-38.58772],[-58.69014,-38.58758],[-58.69033,-38.58744],[-58.69063,-38.58727],[-58.69092,-38.5871],[-58.69122,-38.58692],[-58.69149,-38.5867],[-58.69177,-38.58647],[-58.69204,-38.58624],[-58.69232,-38.58611],[-58.6926,-38.58597],[-58.69288,-38.58583],[-58.69316,-38.58573],[-58.69343,-38.58563],[-58.69371,-38.58552],[-58.69398,-38.58541],[-58.69426,-38.5853],[-58.69453,-38.5852],[-58.69485,-38.58507],[-58.69517,-38.58495],[-58.69539,-38.58486],[-58.6956,-38.58478],[-58.69592,-38.58466],[-58.69623,-38.58455],[-58.69654,-38.58443],[-58.69686,-38.58432],[-58.69713,-38.5842],[-58.69741,-38.58409],[-58.69768,-38.58397],[-58.69796,-38.58385],[-58.69823,-38.58374],[-58.69852,-38.58353],[-58.69882,-38.58333],[-58.69897,-38.58325],[-58.69915,-38.58316],[-58.69916,-38.58316],[-58.69922,-38.58312],[-58.69938,-38.58302],[-58.69943,-38.58299],[-58.6996,-38.58284],[-58.69978,-38.5827],[-58.6998,-38.58268],[-58.69984,-38.58265],[-58.6999,-38.58262],[-58.69991,-38.58261],[-58.70001,-38.58252],[-58.70009,-38.58245],[-58.70016,-38.5824],[-58.7002,-38.58237],[-58.7002,-38.58236],[-58.70026,-38.58233],[-58.7003,-38.5823],[-58.70034,-38.58228],[-58.70038,-38.58225],[-58.70043,-38.58221],[-58.70047,-38.58219],[-58.70052,-38.58216],[-58.70059,-38.58211],[-58.70061,-38.58208],[-58.70066,-38.58204],[-58.70072,-38.58201],[-58.70078,-38.58196],[-58.70079,-38.58194],[-58.70084,-38.58189],[-58.70086,-38.58188],[-58.70095,-38.58181],[-58.70099,-38.58181],[-58.70105,-38.58175],[-58.70111,-38.58171],[-58.70116,-38.58167],[-58.7012,-38.58164],[-58.70123,-38.58161],[-58.70127,-38.58158],[-58.70127,-38.58157],[-58.70134,-38.58152],[-58.70136,-38.58149],[-58.70144,-38.5814],[-58.70157,-38.58118],[-58.70184,-38.58095],[-58.7021,-38.58073],[-58.70237,-38.58051],[-58.70264,-38.58028],[-58.70291,-38.58006],[-58.70317,-38.57984],[-58.70344,-38.57961],[-58.70371,-38.57939],[-58.70398,-38.57917],[-58.70424,-38.57921],[-58.7045,-38.57925],[-58.70477,-38.57929],[-58.70511,-38.57934],[-58.70545,-38.57939],[-58.70579,-38.57945],[-58.70613,-38.5795],[-58.70647,-38.57955],[-58.70682,-38.57961],[-58.70716,-38.57966],[-58.70751,-38.57971],[-58.70786,-38.57977],[-58.70821,-38.57982],[-58.70856,-38.57987],[-58.70891,-38.57993],[-58.70925,-38.57998],[-58.7096,-38.58004],[-58.70995,-38.58009],[-58.7103,-38.58014],[-58.71065,-38.5802],[-58.71096,-38.58024],[-58.71127,-38.58029],[-58.71158,-38.58033],[-58.7119,-38.58038],[-58.71221,-38.58042],[-58.71254,-38.58034],[-58.71287,-38.58026],[-58.7132,-38.58018],[-58.71353,-38.58009],[-58.71386,-38.58001],[-58.71419,-38.57993],[-58.71452,-38.57985],[-58.71485,-38.57977],[-58.71518,-38.57968],[-58.71551,-38.5796],[-58.71584,-38.57952],[-58.71616,-38.57944],[-58.71649,-38.57936],[-58.71682,-38.57927],[-58.71715,-38.57919],[-58.7175,-38.57925],[-58.71784,-38.5793],[-58.71819,-38.57935],[-58.71851,-38.57943],[-58.71883,-38.5795],[-58.71915,-38.57957],[-58.71948,-38.57964],[-58.7198,-38.57972],[-58.71999,-38.57982],[-58.72018,-38.57993],[-58.72021,-38.57994],[-58.72051,-38.58012],[-58.72081,-38.58029],[-58.721,-38.58037],[-58.72119,-38.58045],[-58.7215,-38.58058],[-58.72181,-38.58071],[-58.72212,-38.58084],[-58.72243,-38.58097],[-58.72274,-38.5811],[-58.72304,-38.58121],[-58.72333,-38.58132],[-58.72363,-38.58142],[-58.72393,-38.58153],[-58.72423,-38.58164],[-58.72456,-38.58176],[-58.7249,-38.58188],[-58.72524,-38.58201],[-58.72558,-38.58213],[-58.72592,-38.58225],[-58.72625,-38.58237],[-58.72659,-38.58249],[-58.72693,-38.58262],[-58.72727,-38.58274],[-58.72761,-38.58286],[-58.72794,-38.58298],[-58.72828,-38.5831],[-58.72862,-38.58323],[-58.72896,-38.58335],[-58.7293,-38.58347],[-58.72961,-38.58361],[-58.72993,-38.58375],[-58.73025,-38.5839],[-58.73057,-38.58404],[-58.73088,-38.58418],[-58.7312,-38.58432],[-58.73152,-38.58446],[-58.73184,-38.58461],[-58.73215,-38.58475],[-58.73247,-38.58489],[-58.73279,-38.58503],[-58.73311,-38.58517],[-58.73343,-38.58532],[-58.73358,-38.58501],[-58.73373,-38.58471],[-58.73388,-38.58441],[-58.73403,-38.58411],[-58.73418,-38.5838],[-58.73433,-38.5835],[-58.73458,-38.58361],[-58.73483,-38.58372],[-58.73511,-38.58386],[-58.7354,-38.584],[-58.73568,-38.58414],[-58.73597,-38.58428],[-58.73626,-38.58442],[-58.73654,-38.58456],[-58.73675,-38.58476],[-58.73695,-38.58496],[-58.73716,-38.58516],[-58.73688,-38.58528],[-58.7366,-38.5854],[-58.73632,-38.58553],[-58.73631,-38.58584],[-58.73631,-38.58614],[-58.7363,-38.58645],[-58.73659,-38.58652],[-58.73688,-38.58659],[-58.73717,-38.58666],[-58.73746,-38.58673],[-58.73775,-38.5868],[-58.73805,-38.58689],[-58.73835,-38.58699],[-58.73865,-38.58708],[-58.73892,-38.58717],[-58.7392,-38.58726],[-58.73947,-38.58735],[-58.73975,-38.58744],[-58.74002,-38.58753],[-58.74016,-38.58773],[-58.7403,-38.58793],[-58.74043,-38.58813],[-58.74069,-38.58825],[-58.74094,-38.58836],[-58.74119,-38.58847],[-58.7415,-38.58835],[-58.74182,-38.58823],[-58.74213,-38.58811],[-58.74244,-38.58799],[-58.74263,-38.58824],[-58.74282,-38.58849],[-58.74301,-38.58875],[-58.7432,-38.589],[-58.74339,-38.58925],[-58.74369,-38.58939],[-58.74398,-38.58953],[-58.74427,-38.58967],[-58.74456,-38.58981],[-58.7448,-38.58995],[-58.74503,-38.59009],[-58.74526,-38.59023],[-58.74551,-38.59031],[-58.74576,-38.59038],[-58.74601,-38.59046],[-58.7462,-38.5905],[-58.74639,-38.59054],[-58.74663,-38.59064],[-58.74688,-38.59074],[-58.74714,-38.59084],[-58.7474,-38.59093],[-58.74774,-38.59096],[-58.74808,-38.59099],[-58.74843,-38.59102],[-58.74877,-38.59105],[-58.74907,-38.5912],[-58.74936,-38.59136],[-58.74966,-38.59151],[-58.74996,-38.59166],[-58.75026,-38.59181],[-58.75056,-38.59197],[-58.75085,-38.59212],[-58.75105,-38.59217],[-58.75124,-38.59222],[-58.75159,-38.59222],[-58.75178,-38.592],[-58.75197,-38.59179],[-58.75216,-38.59157],[-58.75243,-38.59153],[-58.75271,-38.5915],[-58.75299,-38.59146],[-58.75327,-38.59142],[-58.75356,-38.59143],[-58.75385,-38.59143],[-58.75414,-38.59143],[-58.75443,-38.59144],[-58.75472,-38.59144],[-58.75497,-38.5917],[-58.75522,-38.59195],[-58.75547,-38.59221],[-58.75573,-38.59234],[-58.75599,-38.59248],[-58.75626,-38.59261],[-58.75652,-38.59274],[-58.75678,-38.59288],[-58.75705,-38.59304],[-58.75733,-38.59321],[-58.7576,-38.59338],[-58.75787,-38.59349],[-58.75815,-38.5936],[-58.75842,-38.59371],[-58.75873,-38.59379],[-58.75903,-38.59387],[-58.75934,-38.59395],[-58.75964,-38.59403],[-58.75994,-38.5941],[-58.76015,-38.59436],[-58.76035,-38.59462],[-58.76056,-38.59488],[-58.76081,-38.59496],[-58.76107,-38.59505],[-58.76133,-38.59513],[-58.76159,-38.59521],[-58.76189,-38.59528],[-58.7622,-38.59535],[-58.7625,-38.59542],[-58.76281,-38.59549],[-58.76311,-38.59555],[-58.76331,-38.59568],[-58.76352,-38.59581],[-58.76372,-38.59594],[-58.76407,-38.59599],[-58.76442,-38.59603],[-58.76476,-38.59608],[-58.76511,-38.59612],[-58.7654,-38.59626],[-58.76569,-38.5964],[-58.76599,-38.59654],[-58.76628,-38.59668],[-58.76659,-38.59674],[-58.76691,-38.59681],[-58.76723,-38.59688],[-58.76755,-38.59695],[-58.76786,-38.59702],[-58.76819,-38.59704],[-58.76852,-38.59705],[-58.76885,-38.59707],[-58.76918,-38.59709],[-58.76939,-38.59687],[-58.76942,-38.59662],[-58.76945,-38.59637],[-58.76948,-38.59611],[-58.76977,-38.59599],[-58.77007,-38.59587],[-58.77036,-38.59575],[-58.77066,-38.59563],[-58.77096,-38.59564],[-58.77126,-38.59564],[-58.77155,-38.59564],[-58.77185,-38.59565],[-58.77215,-38.59565],[-58.7724,-38.59565],[-58.77252,-38.59576],[-58.77273,-38.59594],[-58.77294,-38.59613],[-58.77315,-38.59631],[-58.773,-38.59658],[-58.77286,-38.59686],[-58.77272,-38.59713],[-58.77258,-38.5974],[-58.77223,-38.59749],[-58.77188,-38.59758],[-58.77153,-38.59767],[-58.77118,-38.59776],[-58.77148,-38.59785],[-58.77177,-38.59794],[-58.77207,-38.59803],[-58.77236,-38.59811],[-58.77266,-38.5982],[-58.77296,-38.59829],[-58.77325,-38.59838],[-58.77355,-38.59851],[-58.77385,-38.59864],[-58.77414,-38.59877],[-58.77439,-38.59895],[-58.77464,-38.59913],[-58.77488,-38.5993],[-58.77513,-38.59948],[-58.77538,-38.59966],[-58.77568,-38.59966],[-58.77599,-38.59966],[-58.77615,-38.59947],[-58.77641,-38.59949],[-58.77666,-38.59951],[-58.77691,-38.59953],[-58.77708,-38.59961],[-58.77724,-38.59969],[-58.77757,-38.59971],[-58.77789,-38.59972],[-58.77822,-38.59974],[-58.77857,-38.59978],[-58.77892,-38.59981],[-58.77927,-38.59985],[-58.77963,-38.59989],[-58.77998,-38.59993],[-58.78033,-38.59997],[-58.78068,-38.6],[-58.78104,-38.60004],[-58.78139,-38.60008],[-58.78174,-38.60012],[-58.78209,-38.60015],[-58.78245,-38.60019],[-58.7828,-38.60023],[-58.78315,-38.60027],[-58.7835,-38.6003],[-58.78386,-38.60034],[-58.78417,-38.60034],[-58.78449,-38.60033],[-58.78481,-38.60033],[-58.78513,-38.60032],[-58.78544,-38.60032],[-58.78576,-38.60032],[-58.78608,-38.60031],[-58.78639,-38.60041],[-58.7867,-38.60051],[-58.78701,-38.60061],[-58.78732,-38.60072],[-58.78763,-38.60082],[-58.78794,-38.60092],[-58.78825,-38.60102],[-58.78856,-38.60112],[-58.78887,-38.60122],[-58.78918,-38.60132],[-58.78947,-38.60147],[-58.78976,-38.60162],[-58.79004,-38.60177],[-58.79033,-38.60192],[-58.79062,-38.60207],[-58.79091,-38.60222],[-58.7912,-38.60237],[-58.79149,-38.60252],[-58.79178,-38.60267],[-58.79207,-38.60282],[-58.79196,-38.60307],[-58.79185,-38.60331],[-58.79164,-38.60352],[-58.79143,-38.60374],[-58.79122,-38.60395],[-58.79149,-38.60401],[-58.79177,-38.60407],[-58.79211,-38.60414],[-58.79246,-38.60421],[-58.79281,-38.60428],[-58.79315,-38.60435],[-58.79346,-38.60447],[-58.79376,-38.60458],[-58.79407,-38.60469],[-58.79438,-38.6048],[-58.79468,-38.60491],[-58.79499,-38.60503],[-58.79529,-38.60514],[-58.7956,-38.60525],[-58.79591,-38.60536],[-58.7962,-38.6055],[-58.79648,-38.60563],[-58.79677,-38.60576],[-58.79706,-38.6059],[-58.79735,-38.60603],[-58.79763,-38.6062],[-58.7979,-38.60636],[-58.79817,-38.60653],[-58.79845,-38.6067],[-58.79872,-38.60686],[-58.799,-38.60701],[-58.79927,-38.60716],[-58.79955,-38.60731],[-58.79987,-38.60743],[-58.8002,-38.60756],[-58.80053,-38.60768],[-58.80086,-38.60781],[-58.8009,-38.60756],[-58.80094,-38.60732],[-58.80099,-38.60703],[-58.80104,-38.60674],[-58.80109,-38.60645],[-58.80134,-38.60625],[-58.8016,-38.60605],[-58.80186,-38.60586],[-58.80219,-38.60587],[-58.80252,-38.60589],[-58.80284,-38.60591],[-58.80317,-38.60592],[-58.80343,-38.60608],[-58.80369,-38.60623],[-58.80395,-38.60638],[-58.80421,-38.60653],[-58.80445,-38.60659],[-58.80468,-38.60664],[-58.80492,-38.60669],[-58.80522,-38.60676],[-58.80552,-38.60682],[-58.80571,-38.60686],[-58.80583,-38.60664],[-58.80596,-38.60642],[-58.80608,-38.60619],[-58.80576,-38.60607],[-58.80544,-38.60595],[-58.80512,-38.60583],[-58.8048,-38.60572],[-58.80448,-38.6056],[-58.80416,-38.60548],[-58.80384,-38.60536],[-58.80352,-38.60524],[-58.80319,-38.60512],[-58.80287,-38.605],[-58.80255,-38.60488],[-58.80223,-38.60476],[-58.80191,-38.60464],[-58.80192,-38.60461],[-58.80164,-38.60438],[-58.80136,-38.60415],[-58.80108,-38.60393],[-58.8008,-38.6037],[-58.80052,-38.60348],[-58.80024,-38.60325],[-58.79996,-38.60303],[-58.79968,-38.6028],[-58.7994,-38.60257],[-58.79912,-38.60235],[-58.79884,-38.60212],[-58.79856,-38.6019],[-58.79828,-38.60167],[-58.798,-38.60145],[-58.79772,-38.60122],[-58.79744,-38.601],[-58.79716,-38.60077],[-58.79688,-38.60054],[-58.7966,-38.60032],[-58.79632,-38.60009],[-58.79604,-38.59987],[-58.79577,-38.59964],[-58.79549,-38.59942],[-58.79521,-38.59919],[-58.79493,-38.59897],[-58.79465,-38.59874],[-58.79437,-38.59851],[-58.79409,-38.59829],[-58.79381,-38.59806],[-58.79353,-38.59784],[-58.79325,-38.59761],[-58.79297,-38.59739],[-58.79269,-38.59716],[-58.79241,-38.59694],[-58.79213,-38.59671],[-58.79185,-38.59648],[-58.79157,-38.59626],[-58.79129,-38.59603],[-58.79101,-38.59581],[-58.79073,-38.59558],[-58.79045,-38.59536],[-58.79017,-38.59513],[-58.78989,-38.59491],[-58.78961,-38.59468],[-58.78934,-38.59445],[-58.78906,-38.59423],[-58.78878,-38.594],[-58.7885,-38.59378],[-58.78822,-38.59355],[-58.78794,-38.59333],[-58.78766,-38.5931],[-58.78738,-38.59288],[-58.7871,-38.59265],[-58.78682,-38.59242],[-58.78654,-38.5922],[-58.78634,-38.59203],[-58.78614,-38.59185],[-58.78594,-38.59168],[-58.78569,-38.59149],[-58.78544,-38.5913],[-58.7852,-38.59111],[-58.78495,-38.59093],[-58.78486,-38.59086],[-58.78458,-38.59063],[-58.7843,-38.59041],[-58.78402,-38.59018],[-58.78374,-38.58996],[-58.78346,-38.58974],[-58.78318,-38.58951],[-58.7829,-38.58929],[-58.78262,-38.58906],[-58.78234,-38.58884],[-58.78206,-38.58861],[-58.78178,-38.58839],[-58.78151,-38.58817],[-58.78123,-38.58794],[-58.78095,-38.58772],[-58.78067,-38.58749],[-58.78039,-38.58727],[-58.78011,-38.58704],[-58.77983,-38.58682],[-58.77955,-38.5866],[-58.77927,-38.58637],[-58.77899,-38.58615],[-58.77871,-38.58592],[-58.77843,-38.5857],[-58.77816,-38.58547],[-58.77788,-38.58525],[-58.7776,-38.58503],[-58.77732,-38.5848],[-58.77704,-38.58458],[-58.77676,-38.58435],[-58.77648,-38.58413],[-58.7762,-38.5839],[-58.77592,-38.58368],[-58.77564,-38.58345],[-58.77536,-38.58323],[-58.77508,-38.583],[-58.7748,-38.58278],[-58.77452,-38.58255],[-58.77424,-38.58233],[-58.77396,-38.5821],[-58.77368,-38.58188],[-58.7734,-38.58165],[-58.77312,-38.58143],[-58.77284,-38.5812],[-58.77256,-38.58098],[-58.77228,-38.58075],[-58.772,-38.58053],[-58.77172,-38.58031],[-58.77144,-38.58008],[-58.77116,-38.57986],[-58.77088,-38.57963],[-58.7706,-38.57941],[-58.77032,-38.57918],[-58.77004,-38.57896],[-58.76976,-38.57873],[-58.76948,-38.57851],[-58.76921,-38.57829],[-58.76893,-38.57806],[-58.76865,-38.57784],[-58.76838,-38.57762],[-58.7681,-38.5774],[-58.76782,-38.57718],[-58.76755,-38.57695],[-58.76727,-38.57673],[-58.76699,-38.57651],[-58.76672,-38.57629],[-58.76644,-38.57606],[-58.76616,-38.57584],[-58.76589,-38.57562],[-58.76561,-38.5754],[-58.76533,-38.57518],[-58.76506,-38.57495],[-58.76478,-38.57473],[-58.7645,-38.57451],[-58.76423,-38.57429],[-58.76395,-38.57406],[-58.76367,-38.57384],[-58.7634,-38.57362],[-58.76312,-38.5734],[-58.76284,-38.57318],[-58.76257,-38.57295],[-58.76229,-38.57273],[-58.76202,-38.57251],[-58.76175,-38.5723],[-58.76148,-38.57208],[-58.76121,-38.57186],[-58.76094,-38.57165],[-58.76067,-38.57143],[-58.7604,-38.57121],[-58.76013,-38.57099],[-58.75986,-38.57078],[-58.75959,-38.57056],[-58.75932,-38.57034],[-58.75905,-38.57013],[-58.75878,-38.56991],[-58.75851,-38.56969],[-58.75873,-38.5695],[-58.75896,-38.5693],[-58.75918,-38.56911],[-58.75941,-38.56891],[-58.75914,-38.5687],[-58.75888,-38.5685],[-58.75862,-38.56829],[-58.75835,-38.56809],[-58.75809,-38.56788],[-58.75783,-38.56768],[-58.75756,-38.56747],[-58.75731,-38.56728],[-58.75707,-38.56709],[-58.75682,-38.56689],[-58.75657,-38.5667],[-58.75682,-38.56652],[-58.75706,-38.56635],[-58.75731,-38.56617],[-58.75755,-38.56599],[-58.75733,-38.56582],[-58.75711,-38.56564],[-58.75689,-38.56547],[-58.75672,-38.56534],[-58.75655,-38.56521],[-58.7568,-38.56502],[-58.75706,-38.56483],[-58.75731,-38.56464],[-58.75756,-38.56445],[-58.7578,-38.56427],[-58.75804,-38.56408],[-58.75829,-38.56389],[-58.75853,-38.5637],[-58.7588,-38.56349],[-58.75907,-38.56327],[-58.75925,-38.56313],[-58.75942,-38.563],[-58.75966,-38.56281],[-58.75991,-38.56263],[-58.76015,-38.56245],[-58.76039,-38.56227],[-58.76064,-38.56207],[-58.7609,-38.56188],[-58.76115,-38.56168],[-58.7614,-38.56149],[-58.76164,-38.5613],[-58.76189,-38.56112],[-58.76213,-38.56093],[-58.76237,-38.56075],[-58.76256,-38.5606],[-58.76276,-38.56045],[-58.76295,-38.5603],[-58.76316,-38.56014],[-58.76338,-38.55997],[-58.76357,-38.55982],[-58.76376,-38.55967],[-58.76396,-38.55952],[-58.76415,-38.55937],[-58.76435,-38.55923],[-58.76458,-38.55905],[-58.76482,-38.55887],[-58.76505,-38.55868],[-58.76529,-38.5585],[-58.76554,-38.55831],[-58.76578,-38.55812],[-58.76603,-38.55793],[-58.76627,-38.55775],[-58.76655,-38.55754],[-58.76682,-38.55733],[-58.76709,-38.55712],[-58.76736,-38.55691],[-58.76763,-38.5567],[-58.7679,-38.55649],[-58.76818,-38.55628],[-58.76841,-38.55609],[-58.76865,-38.55591],[-58.76889,-38.55573],[-58.76913,-38.55554],[-58.76937,-38.55536],[-58.7696,-38.55518],[-58.76961,-38.55519],[-58.76988,-38.55497],[-58.77016,-38.55476],[-58.77044,-38.55455],[-58.77072,-38.55434],[-58.77099,-38.55413],[-58.77127,-38.55391],[-58.77155,-38.5537],[-58.77182,-38.55349],[-58.7721,-38.55328],[-58.77238,-38.55307],[-58.77265,-38.55285],[-58.77293,-38.55264],[-58.77318,-38.55245],[-58.77343,-38.55226],[-58.77369,-38.55206],[-58.77394,-38.55187],[-58.77419,-38.55168],[-58.77447,-38.55146],[-58.77475,-38.55125],[-58.77503,-38.55104],[-58.7753,-38.55082],[-58.77558,-38.55061],[-58.77586,-38.5504],[-58.77614,-38.55018],[-58.77642,-38.54997],[-58.7767,-38.54975],[-58.77698,-38.54954],[-58.77726,-38.54933],[-58.77754,-38.54911],[-58.77782,-38.5489],[-58.7781,-38.54868],[-58.77838,-38.54847],[-58.77866,-38.54826],[-58.77893,-38.54804],[-58.77921,-38.54783],[-58.77949,-38.54762],[-58.77977,-38.5474],[-58.78005,-38.54719],[-58.78033,-38.54697],[-58.78061,-38.54676],[-58.78089,-38.54655],[-58.78117,-38.54633],[-58.78145,-38.54612],[-58.78173,-38.54591],[-58.78201,-38.54569],[-58.78228,-38.54548],[-58.78256,-38.54526],[-58.78228,-38.54504],[-58.78201,-38.54481],[-58.78173,-38.54459],[-58.78145,-38.54436],[-58.78117,-38.54413],[-58.78089,-38.54391],[-58.78061,-38.54368],[-58.78033,-38.54346],[-58.78005,-38.54323],[-58.77978,-38.54301],[-58.7795,-38.54278],[-58.77922,-38.54255],[-58.77894,-38.54233],[-58.77866,-38.5421],[-58.77838,-38.54188],[-58.7781,-38.54165],[-58.77782,-38.54142],[-58.77755,-38.5412],[-58.77727,-38.54097],[-58.77699,-38.54075],[-58.77671,-38.54052],[-58.77643,-38.5403],[-58.77615,-38.54007],[-58.77587,-38.53984],[-58.77559,-38.53962],[-58.77532,-38.53939],[-58.77504,-38.53917],[-58.77476,-38.53894],[-58.77448,-38.53871],[-58.7742,-38.53849],[-58.77392,-38.53826],[-58.77364,-38.53804],[-58.77336,-38.53781],[-58.77309,-38.53759],[-58.77281,-38.53736],[-58.77253,-38.53713],[-58.77225,-38.53691],[-58.77197,-38.53668],[-58.77169,-38.53646],[-58.77141,-38.53623],[-58.77113,-38.536],[-58.77086,-38.53578],[-58.77058,-38.53555],[-58.7703,-38.53533],[-58.77002,-38.5351],[-58.76974,-38.53487],[-58.76946,-38.53465],[-58.76918,-38.53442],[-58.7689,-38.5342],[-58.76863,-38.53397],[-58.76835,-38.53375],[-58.76807,-38.53352],[-58.76779,-38.53329],[-58.76751,-38.53307],[-58.76723,-38.53284],[-58.76695,-38.53262],[-58.76667,-38.53239],[-58.7664,-38.53216],[-58.76637,-38.53219],[-58.76609,-38.53197],[-58.76581,-38.53175],[-58.76554,-38.53153],[-58.76526,-38.53131],[-58.76498,-38.53109],[-58.7647,-38.53087],[-58.76443,-38.53065],[-58.76415,-38.53043],[-58.76387,-38.53021],[-58.76359,-38.52999],[-58.76331,-38.52977],[-58.76304,-38.52955],[-58.76276,-38.52933],[-58.76248,-38.52911],[-58.7622,-38.52889],[-58.76192,-38.52867],[-58.76165,-38.52845],[-58.76137,-38.52823],[-58.76109,-38.52801],[-58.76081,-38.52779],[-58.76053,-38.52757],[-58.76026,-38.52735],[-58.75998,-38.52712],[-58.7597,-38.5269],[-58.75942,-38.52668],[-58.75915,-38.52646],[-58.75887,-38.52624],[-58.75859,-38.52602],[-58.75831,-38.5258],[-58.75803,-38.52558],[-58.75776,-38.52536],[-58.75748,-38.52514],[-58.7572,-38.52492],[-58.75692,-38.5247],[-58.75664,-38.52448],[-58.75637,-38.52426],[-58.75609,-38.52404],[-58.75577,-38.52397],[-58.75543,-38.52402],[-58.75509,-38.52407],[-58.75484,-38.5242],[-58.7546,-38.52434],[-58.75437,-38.52451],[-58.75414,-38.52469],[-58.75391,-38.52486],[-58.75368,-38.52504],[-58.75341,-38.52523],[-58.75313,-38.52542],[-58.75286,-38.52562],[-58.75258,-38.52581],[-58.7523,-38.52601],[-58.75203,-38.5262],[-58.75175,-38.5264],[-58.75148,-38.52659],[-58.7512,-38.52679],[-58.75093,-38.52698],[-58.75065,-38.52677],[-58.75036,-38.52657],[-58.75008,-38.52636],[-58.7498,-38.52615],[-58.74952,-38.52594],[-58.74924,-38.52573],[-58.74896,-38.52552],[-58.74868,-38.52532],[-58.7484,-38.52511],[-58.74811,-38.5249],[-58.74783,-38.52469],[-58.74755,-38.52448],[-58.74727,-38.52427],[-58.74699,-38.52407],[-58.74671,-38.52386],[-58.74643,-38.52365],[-58.74615,-38.52344],[-58.74589,-38.52323],[-58.74563,-38.52301],[-58.74537,-38.5228],[-58.74512,-38.52259],[-58.74486,-38.52238],[-58.7446,-38.52216],[-58.74434,-38.52195],[-58.74409,-38.52174],[-58.74383,-38.52153],[-58.74357,-38.52131],[-58.74329,-38.52153],[-58.74301,-38.52174],[-58.74273,-38.52196],[-58.74245,-38.52218],[-58.74217,-38.52239],[-58.74189,-38.52261],[-58.7416,-38.52282],[-58.74132,-38.52304],[-58.74104,-38.52325],[-58.74076,-38.52347],[-58.74048,-38.52368],[-58.7402,-38.5239],[-58.73992,-38.52411],[-58.73964,-38.52433],[-58.73936,-38.52454],[-58.73908,-38.52476],[-58.73879,-38.52498],[-58.73851,-38.52519],[-58.73823,-38.52541],[-58.73795,-38.52562],[-58.73767,-38.52584],[-58.73739,-38.52605],[-58.73736,-38.52606],[-58.7372,-38.52618],[-58.73726,-38.52637],[-58.73734,-38.52661],[-58.73736,-38.52674],[-58.73739,-38.52681]]]]}},{"type":"Feature","properties":{"fna":"Claraz","fdc":"IGN/INDEC","sag":"IGN","tipo":"Planta urbana","ign":"areas_de_asentamientos_y_edificios_020105.9940"},"geometry":{"type":"MultiPolygon","coordinates":[[[[-59.28845,-37.87958],[-59.28838,-37.87993],[-59.2883,-37.88027],[-59.28823,-37.88061],[-59.28815,-37.88095],[-59.28808,-37.8813],[-59.28801,-37.88164],[-59.28793,-37.88198],[-59.28786,-37.88233],[-59.28778,-37.88267],[-59.28771,-37.88301],[-59.28763,-37.88335],[-59.28761,-37.88333],[-59.28754,-37.88363],[-59.28748,-37.88393],[-59.28741,-37.88422],[-59.28735,-37.88452],[-59.28728,-37.88482],[-59.28722,-37.88512],[-59.28716,-37.88543],[-59.2871,-37.88573],[-59.28688,-37.8857],[-59.28681,-37.88604],[-59.28674,-37.88638],[-59.28667,-37.88673],[-59.28659,-37.88707],[-59.28652,-37.88742],[-59.28645,-37.88776],[-59.28638,-37.88811],[-59.28631,-37.88845],[-59.28623,-37.88879],[-59.28616,-37.88914],[-59.28609,-37.88948],[-59.28602,-37.88983],[-59.28594,-37.89017],[-59.28587,-37.89052],[-59.2858,-37.89086],[-59.28573,-37.89121],[-59.28566,-37.89155],[-59.28558,-37.89189],[-59.28551,-37.89224],[-59.28544,-37.89258],[-59.28537,-37.89293],[-59.28529,-37.89327],[-59.28522,-37.89362],[-59.28515,-37.89396],[-59.28508,-37.89431],[-59.28501,-37.89465],[-59.28524,-37.89469],[-59.28517,-37.895],[-59.2851,-37.8953],[-59.28504,-37.8956],[-59.28497,-37.8959],[-59.2849,-37.8962],[-59.28483,-37.89651],[-59.28477,-37.89681],[-59.2847,-37.89713],[-59.28462,-37.89744],[-59.28455,-37.89776],[-59.28448,-37.89809],[-59.28442,-37.89837],[-59.28436,-37.89865],[-59.2844,-37.89864],[-59.28432,-37.89884],[-59.28425,-37.89918],[-59.28418,-37.89953],[-59.2841,-37.89987],[-59.28403,-37.90022],[-59.28396,-37.90056],[-59.28422,-37.90078],[-59.28448,-37.901],[-59.28474,-37.90122],[-59.285,-37.90144],[-59.28526,-37.90166],[-59.28552,-37.90188],[-59.28578,-37.9021],[-59.28604,-37.90232],[-59.2863,-37.90213],[-59.28656,-37.90193],[-59.28683,-37.90174],[-59.28709,-37.90154],[-59.28736,-37.90135],[-59.28762,-37.90115],[-59.28788,-37.90095],[-59.28815,-37.90076],[-59.28842,-37.90056],[-59.28868,-37.90036],[-59.28895,-37.90017],[-59.28917,-37.9],[-59.2894,-37.89984],[-59.28962,-37.89967],[-59.28985,-37.8995],[-59.2901,-37.89932],[-59.29036,-37.89913],[-59.29061,-37.89894],[-59.29086,-37.89876],[-59.29111,-37.89857],[-59.29136,-37.89839],[-59.2916,-37.89821],[-59.29185,-37.89802],[-59.29214,-37.89781],[-59.29243,-37.8976],[-59.29272,-37.89738],[-59.293,-37.89717],[-59.29329,-37.89696],[-59.29358,-37.89675],[-59.29387,-37.89653],[-59.29412,-37.89635],[-59.29436,-37.89617],[-59.29461,-37.89598],[-59.29486,-37.8958],[-59.29483,-37.89578],[-59.29511,-37.89557],[-59.29539,-37.89537],[-59.29566,-37.89517],[-59.29594,-37.89497],[-59.29622,-37.89476],[-59.29649,-37.89456],[-59.29677,-37.89436],[-59.29705,-37.89416],[-59.29732,-37.89395],[-59.2976,-37.89375],[-59.29788,-37.89355],[-59.29761,-37.89332],[-59.29735,-37.89309],[-59.29708,-37.89287],[-59.29682,-37.89264],[-59.29655,-37.89241],[-59.29629,-37.89218],[-59.29602,-37.89196],[-59.29575,-37.89173],[-59.29549,-37.8915],[-59.29522,-37.89127],[-59.29496,-37.89104],[-59.29469,-37.89082],[-59.29443,-37.89059],[-59.29416,-37.89036],[-59.29444,-37.89015],[-59.29471,-37.88995],[-59.29498,-37.88974],[-59.29525,-37.88953],[-59.29552,-37.88932],[-59.2958,-37.88912],[-59.29607,-37.88891],[-59.29634,-37.8887],[-59.29661,-37.88849],[-59.29688,-37.88829],[-59.29716,-37.88808],[-59.29743,-37.88787],[-59.2977,-37.88767],[-59.29797,-37.88746],[-59.29772,-37.88726],[-59.29748,-37.88705],[-59.29723,-37.88685],[-59.29698,-37.88665],[-59.29674,-37.88645],[-59.29649,-37.88625],[-59.2965,-37.88624],[-59.29623,-37.88602],[-59.29596,-37.8858],[-59.29569,-37.88558],[-59.29542,-37.88536],[-59.29516,-37.88513],[-59.29489,-37.88491],[-59.29462,-37.88469],[-59.29435,-37.88447],[-59.29408,-37.88425],[-59.29382,-37.88402],[-59.29355,-37.8838],[-59.29328,-37.88358],[-59.29301,-37.88336],[-59.29274,-37.88314],[-59.29247,-37.88291],[-59.29221,-37.88269],[-59.29194,-37.88247],[-59.29167,-37.88225],[-59.2914,-37.88202],[-59.29113,-37.8818],[-59.29087,-37.88158],[-59.2906,-37.88136],[-59.29033,-37.88114],[-59.29006,-37.88091],[-59.28979,-37.88069],[-59.28953,-37.88047],[-59.28926,-37.88025],[-59.28899,-37.88003],[-59.28872,-37.8798],[-59.28845,-37.87958]]]]}},{"type":"Feature","properties":{"fna":"Ramón Santamarina","fdc":"IGN/INDEC","sag":"IGN","tipo":"Planta urbana","ign":"areas_de_asentamientos_y_edificios_020105.9938"},"geometry":{"type":"MultiPolygon","coordinates":[[[[-59.32907,-38.44418],[-59.32908,-38.44441],[-59.3291,-38.44463],[-59.32875,-38.44465],[-59.32841,-38.44466],[-59.32806,-38.44467],[-59.32772,-38.44469],[-59.32737,-38.4447],[-59.32703,-38.44472],[-59.32669,-38.44473],[-59.32634,-38.44474],[-59.326,-38.44476],[-59.32565,-38.44477],[-59.32531,-38.44479],[-59.32496,-38.4448],[-59.32462,-38.44481],[-59.32427,-38.44483],[-59.32393,-38.44484],[-59.32359,-38.44486],[-59.32324,-38.44487],[-59.3229,-38.44488],[-59.32255,-38.4449],[-59.32221,-38.44491],[-59.32219,-38.44456],[-59.32217,-38.44421],[-59.32215,-38.44386],[-59.32213,-38.4435],[-59.32211,-38.44315],[-59.3221,-38.4428],[-59.32197,-38.44272],[-59.32164,-38.44273],[-59.32132,-38.44274],[-59.32099,-38.44275],[-59.32067,-38.44276],[-59.32034,-38.44278],[-59.32002,-38.44279],[-59.31969,-38.4428],[-59.31937,-38.4429],[-59.31924,-38.44282],[-59.31893,-38.44282],[-59.31861,-38.44283],[-59.31829,-38.44284],[-59.31798,-38.44285],[-59.318,-38.44318],[-59.31802,-38.44352],[-59.31805,-38.44385],[-59.31807,-38.44419],[-59.3181,-38.44452],[-59.31812,-38.44486],[-59.31814,-38.44519],[-59.31817,-38.44552],[-59.31819,-38.44586],[-59.31819,-38.44615],[-59.3182,-38.44644],[-59.3182,-38.44672],[-59.3182,-38.44701],[-59.31821,-38.4473],[-59.31788,-38.44731],[-59.31755,-38.44733],[-59.31722,-38.44734],[-59.3169,-38.44735],[-59.31691,-38.44765],[-59.31692,-38.44794],[-59.31693,-38.44824],[-59.31694,-38.44853],[-59.31697,-38.44881],[-59.317,-38.44909],[-59.31702,-38.44937],[-59.31705,-38.44964],[-59.31738,-38.44963],[-59.31772,-38.44962],[-59.31805,-38.4496],[-59.31838,-38.44959],[-59.31873,-38.44958],[-59.31908,-38.44957],[-59.31943,-38.44955],[-59.31978,-38.44954],[-59.32011,-38.44953],[-59.32045,-38.44951],[-59.32079,-38.4495],[-59.32113,-38.44949],[-59.32113,-38.44959],[-59.32115,-38.44994],[-59.32116,-38.45029],[-59.32118,-38.45063],[-59.3212,-38.45098],[-59.32121,-38.45133],[-59.32123,-38.45167],[-59.32125,-38.45202],[-59.32127,-38.45237],[-59.32128,-38.45272],[-59.32131,-38.45304],[-59.32134,-38.45337],[-59.32137,-38.4537],[-59.3214,-38.45402],[-59.32142,-38.45429],[-59.32144,-38.45457],[-59.32145,-38.45484],[-59.32147,-38.45511],[-59.32149,-38.45546],[-59.32152,-38.45582],[-59.32154,-38.45617],[-59.32156,-38.4565],[-59.32158,-38.45683],[-59.3216,-38.45716],[-59.32162,-38.45749],[-59.32164,-38.45782],[-59.32166,-38.45815],[-59.322,-38.45814],[-59.32233,-38.45813],[-59.32267,-38.45812],[-59.323,-38.4581],[-59.32334,-38.45809],[-59.32368,-38.45808],[-59.32401,-38.45807],[-59.32435,-38.45806],[-59.32448,-38.45798],[-59.32445,-38.45765],[-59.32442,-38.45732],[-59.32439,-38.45699],[-59.32436,-38.45666],[-59.32433,-38.45633],[-59.3243,-38.456],[-59.32427,-38.45567],[-59.32425,-38.45534],[-59.32422,-38.45501],[-59.32455,-38.455],[-59.32488,-38.45499],[-59.32522,-38.45498],[-59.32555,-38.45497],[-59.32553,-38.45469],[-59.32552,-38.45442],[-59.3255,-38.45414],[-59.32548,-38.45387],[-59.32577,-38.45386],[-59.32606,-38.45385],[-59.32636,-38.45384],[-59.32665,-38.45383],[-59.32694,-38.45382],[-59.32694,-38.45417],[-59.32694,-38.45453],[-59.32695,-38.45488],[-59.32729,-38.45487],[-59.32764,-38.45486],[-59.32799,-38.45484],[-59.32834,-38.45483],[-59.32868,-38.45482],[-59.32901,-38.4548],[-59.32935,-38.45479],[-59.32969,-38.45477],[-59.32971,-38.45507],[-59.32972,-38.45536],[-59.32974,-38.45565],[-59.32976,-38.45594],[-59.33011,-38.45593],[-59.33047,-38.45591],[-59.33083,-38.4559],[-59.33119,-38.45589],[-59.33153,-38.45586],[-59.33187,-38.45583],[-59.33221,-38.4558],[-59.33255,-38.45577],[-59.33289,-38.45574],[-59.33286,-38.45538],[-59.33283,-38.45502],[-59.3328,-38.45466],[-59.33279,-38.45431],[-59.33277,-38.45395],[-59.33276,-38.45359],[-59.33294,-38.45358],[-59.33312,-38.45358],[-59.33345,-38.45356],[-59.33379,-38.45355],[-59.33412,-38.45354],[-59.33445,-38.45353],[-59.33443,-38.45318],[-59.3344,-38.45283],[-59.33437,-38.45249],[-59.33434,-38.45214],[-59.33432,-38.45179],[-59.33429,-38.45145],[-59.33426,-38.4511],[-59.33424,-38.45075],[-59.33421,-38.45041],[-59.33418,-38.45006],[-59.33416,-38.44972],[-59.33413,-38.44937],[-59.3341,-38.44902],[-59.33408,-38.44868],[-59.33405,-38.44833],[-59.33402,-38.44798],[-59.33399,-38.44764],[-59.33397,-38.44729],[-59.33394,-38.44694],[-59.33391,-38.4466],[-59.33389,-38.44625],[-59.33386,-38.44591],[-59.33383,-38.44556],[-59.33381,-38.44521],[-59.33378,-38.44487],[-59.33375,-38.44452],[-59.33345,-38.44452],[-59.33314,-38.44453],[-59.33283,-38.44453],[-59.33253,-38.44454],[-59.33222,-38.44454],[-59.33219,-38.44419],[-59.33217,-38.44383],[-59.33214,-38.44348],[-59.33212,-38.44312],[-59.33209,-38.44276],[-59.33207,-38.44241],[-59.33172,-38.44242],[-59.33138,-38.44243],[-59.33103,-38.44245],[-59.33069,-38.44246],[-59.33034,-38.44248],[-59.32999,-38.44249],[-59.32965,-38.4425],[-59.3293,-38.44252],[-59.32896,-38.44253],[-59.32898,-38.44286],[-59.329,-38.44319],[-59.32902,-38.44352],[-59.32905,-38.44385],[-59.32907,-38.44418]]]]}},{"type":"Feature","properties":{"fna":"Nicanor Olivera","fdc":"IGN/INDEC","sag":"IGN","tipo":"Planta urbana","ign":"areas_de_asentamientos_y_edificios_020105.9939"},"geometry":{"type":"MultiPolygon","coordinates":[[[[-59.19026,-38.27817],[-59.1906,-38.27826],[-59.19094,-38.27836],[-59.19128,-38.27845],[-59.19162,-38.27855],[-59.19196,-38.27864],[-59.19231,-38.27874],[-59.19265,-38.27884],[-59.19299,-38.27893],[-59.19333,-38.27903],[-59.19367,-38.27912],[-59.19401,-38.27922],[-59.19435,-38.27931],[-59.19469,-38.27941],[-59.19503,-38.27951],[-59.19537,-38.2796],[-59.19571,-38.2797],[-59.19606,-38.27979],[-59.1964,-38.27989],[-59.19623,-38.28019],[-59.19606,-38.28049],[-59.19589,-38.28078],[-59.19573,-38.28108],[-59.19556,-38.28138],[-59.19539,-38.28168],[-59.19522,-38.28198],[-59.19554,-38.28208],[-59.19585,-38.28219],[-59.19617,-38.28229],[-59.19649,-38.2824],[-59.1968,-38.28251],[-59.19665,-38.2828],[-59.19649,-38.28309],[-59.19633,-38.28339],[-59.19618,-38.28368],[-59.19602,-38.28398],[-59.19587,-38.28427],[-59.19571,-38.28457],[-59.19556,-38.28486],[-59.1954,-38.28516],[-59.19573,-38.28527],[-59.19606,-38.28538],[-59.19638,-38.28549],[-59.19671,-38.2856],[-59.19704,-38.28571],[-59.19736,-38.28581],[-59.19769,-38.28592],[-59.19802,-38.28603],[-59.19835,-38.28614],[-59.1982,-38.28639],[-59.19805,-38.28664],[-59.1979,-38.28689],[-59.19776,-38.28714],[-59.19761,-38.28739],[-59.19794,-38.28749],[-59.19827,-38.28758],[-59.19861,-38.28768],[-59.19894,-38.28778],[-59.19927,-38.28787],[-59.19961,-38.28797],[-59.19994,-38.28807],[-59.20027,-38.28817],[-59.20061,-38.28826],[-59.20094,-38.28836],[-59.20127,-38.28846],[-59.2016,-38.28856],[-59.20194,-38.28865],[-59.20227,-38.28875],[-59.2026,-38.28885],[-59.20294,-38.28895],[-59.20327,-38.28904],[-59.2036,-38.28914],[-59.20393,-38.28924],[-59.20427,-38.28933],[-59.2046,-38.28943],[-59.20493,-38.28953],[-59.20527,-38.28963],[-59.2056,-38.28972],[-59.20593,-38.28982],[-59.20607,-38.2895],[-59.2062,-38.28918],[-59.20634,-38.28886],[-59.20647,-38.28854],[-59.20661,-38.28822],[-59.20674,-38.2879],[-59.20706,-38.288],[-59.20739,-38.2881],[-59.20771,-38.28821],[-59.20803,-38.28831],[-59.20836,-38.28841],[-59.20868,-38.28851],[-59.209,-38.28861],[-59.20933,-38.28872],[-59.20946,-38.2884],[-59.2096,-38.28808],[-59.20974,-38.28777],[-59.20987,-38.28745],[-59.21001,-38.28714],[-59.21015,-38.28682],[-59.21029,-38.28651],[-59.21062,-38.28658],[-59.21096,-38.28666],[-59.2113,-38.28673],[-59.21164,-38.28681],[-59.21198,-38.28688],[-59.21232,-38.28696],[-59.21265,-38.28703],[-59.2128,-38.28672],[-59.21294,-38.28641],[-59.21308,-38.2861],[-59.21323,-38.28579],[-59.21337,-38.28548],[-59.21351,-38.28517],[-59.21366,-38.28486],[-59.2138,-38.28455],[-59.21395,-38.28424],[-59.21409,-38.28392],[-59.21423,-38.28361],[-59.21438,-38.2833],[-59.21452,-38.28299],[-59.21466,-38.28268],[-59.21481,-38.28237],[-59.21495,-38.28206],[-59.21509,-38.28175],[-59.21524,-38.28144],[-59.21491,-38.28137],[-59.21459,-38.2813],[-59.21427,-38.28123],[-59.21394,-38.28116],[-59.21362,-38.28109],[-59.2133,-38.28102],[-59.2134,-38.28074],[-59.2135,-38.28045],[-59.21361,-38.28016],[-59.21347,-38.28012],[-59.21356,-38.27994],[-59.21365,-38.27975],[-59.21332,-38.27966],[-59.21299,-38.27956],[-59.21266,-38.27946],[-59.21233,-38.27936],[-59.21201,-38.27926],[-59.21168,-38.27917],[-59.21135,-38.27907],[-59.21102,-38.27897],[-59.21115,-38.27871],[-59.21128,-38.27846],[-59.2114,-38.2782],[-59.21153,-38.27795],[-59.21119,-38.27787],[-59.21086,-38.2778],[-59.21052,-38.27772],[-59.21018,-38.27764],[-59.20984,-38.27756],[-59.2095,-38.27748],[-59.20917,-38.27741],[-59.20883,-38.27733],[-59.20849,-38.27725],[-59.20815,-38.27717],[-59.20781,-38.2771],[-59.20748,-38.27702],[-59.20714,-38.27694],[-59.2068,-38.27686],[-59.20646,-38.27679],[-59.20612,-38.27671],[-59.20612,-38.27671],[-59.206,-38.27696],[-59.20588,-38.27721],[-59.20576,-38.27746],[-59.20564,-38.27771],[-59.20543,-38.27764],[-59.2053,-38.27788],[-59.20518,-38.27812],[-59.20505,-38.27836],[-59.20473,-38.27827],[-59.2044,-38.27817],[-59.20407,-38.27808],[-59.20375,-38.27798],[-59.20342,-38.27789],[-59.2031,-38.27779],[-59.20277,-38.2777],[-59.20245,-38.2776],[-59.20212,-38.27751],[-59.20179,-38.27741],[-59.20147,-38.27732],[-59.20114,-38.27722],[-59.20082,-38.27713],[-59.20049,-38.27703],[-59.20016,-38.27694],[-59.19984,-38.27684],[-59.19968,-38.2771],[-59.19953,-38.27736],[-59.1994,-38.2776],[-59.19927,-38.27784],[-59.19914,-38.27808],[-59.19901,-38.27832],[-59.19873,-38.27824],[-59.19846,-38.27815],[-59.19818,-38.27807],[-59.19791,-38.27798],[-59.1976,-38.27788],[-59.19729,-38.27779],[-59.19698,-38.27769],[-59.19667,-38.27759],[-59.19635,-38.27749],[-59.19603,-38.27739],[-59.19571,-38.27729],[-59.19539,-38.27719],[-59.19507,-38.27709],[-59.19475,-38.27699],[-59.19443,-38.27689],[-59.19411,-38.27679],[-59.19377,-38.27668],[-59.19343,-38.27657],[-59.19309,-38.27646],[-59.19275,-38.27635],[-59.19241,-38.27624],[-59.19207,-38.27613],[-59.19172,-38.27602],[-59.19138,-38.27591],[-59.19123,-38.27621],[-59.19109,-38.27651],[-59.19094,-38.27681],[-59.19079,-38.2771],[-59.19064,-38.2774],[-59.19049,-38.2777],[-59.19034,-38.278],[-59.19026,-38.27817]]]]}},{"type":"Feature","properties":{"fna":"Juan N. Fernández","fdc":"IGN/INDEC","sag":"IGN","tipo":"Planta urbana","ign":"areas_de_asentamientos_y_edificios_020105.9941"},"geometry":{"type":"MultiPolygon","coordinates":[[[[-59.2601,-37.99898],[-59.26003,-37.99929],[-59.25997,-37.99959],[-59.2599,-37.99989],[-59.25984,-38.0002],[-59.25977,-38.0005],[-59.25971,-38.0008],[-59.25965,-38.00111],[-59.25931,-38.00106],[-59.25897,-38.00102],[-59.25863,-38.00097],[-59.25829,-38.00093],[-59.25795,-38.00089],[-59.25762,-38.00084],[-59.25729,-38.0008],[-59.25696,-38.00076],[-59.2569,-38.00102],[-59.25685,-38.00129],[-59.25679,-38.00155],[-59.25674,-38.00182],[-59.25667,-38.00214],[-59.2566,-38.00247],[-59.25658,-38.00282],[-59.25656,-38.00317],[-59.25653,-38.00352],[-59.25651,-38.00387],[-59.25649,-38.00422],[-59.25647,-38.00457],[-59.25644,-38.00492],[-59.25642,-38.00528],[-59.2564,-38.00563],[-59.25637,-38.00598],[-59.25635,-38.00633],[-59.25633,-38.00668],[-59.25631,-38.00703],[-59.25628,-38.00738],[-59.25626,-38.00773],[-59.2566,-38.00774],[-59.25694,-38.00775],[-59.25729,-38.00776],[-59.25763,-38.00777],[-59.25797,-38.00778],[-59.25831,-38.00779],[-59.25866,-38.0078],[-59.259,-38.00781],[-59.25897,-38.00816],[-59.25893,-38.00851],[-59.2589,-38.00886],[-59.25887,-38.00921],[-59.25883,-38.00956],[-59.2588,-38.00992],[-59.25877,-38.01027],[-59.25873,-38.01062],[-59.2587,-38.01097],[-59.25867,-38.01132],[-59.25863,-38.01167],[-59.2586,-38.01202],[-59.25895,-38.01207],[-59.25931,-38.01212],[-59.25966,-38.01216],[-59.25962,-38.01241],[-59.25982,-38.01243],[-59.26002,-38.01245],[-59.25999,-38.01277],[-59.25997,-38.01308],[-59.25994,-38.0134],[-59.25992,-38.01372],[-59.25989,-38.01404],[-59.25987,-38.01435],[-59.25984,-38.01467],[-59.26018,-38.0147],[-59.26053,-38.01472],[-59.26087,-38.01474],[-59.26121,-38.01477],[-59.26155,-38.01479],[-59.26189,-38.01482],[-59.26224,-38.01484],[-59.26258,-38.01487],[-59.26267,-38.01455],[-59.26277,-38.01423],[-59.26287,-38.01391],[-59.26296,-38.01359],[-59.26306,-38.01327],[-59.26315,-38.01295],[-59.26325,-38.01263],[-59.26335,-38.01231],[-59.26344,-38.01199],[-59.26377,-38.012],[-59.26409,-38.01202],[-59.26441,-38.01204],[-59.26474,-38.01206],[-59.26474,-38.01176],[-59.26474,-38.01146],[-59.26474,-38.01115],[-59.26475,-38.01085],[-59.2651,-38.01091],[-59.26544,-38.01098],[-59.26579,-38.01104],[-59.26614,-38.0111],[-59.26649,-38.01116],[-59.26684,-38.01122],[-59.26719,-38.01128],[-59.26753,-38.01134],[-59.26788,-38.01141],[-59.26783,-38.01152],[-59.2681,-38.01174],[-59.26837,-38.01197],[-59.26864,-38.0122],[-59.26891,-38.01243],[-59.26918,-38.01265],[-59.26945,-38.01288],[-59.26972,-38.01311],[-59.26999,-38.01334],[-59.27007,-38.01301],[-59.27014,-38.01269],[-59.27022,-38.01237],[-59.27029,-38.01205],[-59.27036,-38.01172],[-59.27044,-38.0114],[-59.2701,-38.01136],[-59.26976,-38.01132],[-59.26942,-38.01127],[-59.26908,-38.01123],[-59.26874,-38.01119],[-59.2684,-38.01114],[-59.26806,-38.0111],[-59.26772,-38.01106],[-59.26778,-38.01079],[-59.26783,-38.01052],[-59.26789,-38.01025],[-59.26794,-38.00998],[-59.268,-38.00971],[-59.26806,-38.00943],[-59.26811,-38.00916],[-59.26817,-38.00888],[-59.26823,-38.00862],[-59.26828,-38.00835],[-59.26834,-38.00808],[-59.26839,-38.00782],[-59.26845,-38.00754],[-59.26851,-38.00726],[-59.26856,-38.00698],[-59.26862,-38.0067],[-59.26868,-38.00644],[-59.26855,-38.00636],[-59.26859,-38.00601],[-59.26863,-38.00566],[-59.26868,-38.00532],[-59.26872,-38.00497],[-59.26876,-38.00462],[-59.26905,-38.00462],[-59.26907,-38.00453],[-59.26932,-38.00456],[-59.26957,-38.0046],[-59.26982,-38.00463],[-59.27001,-38.00463],[-59.27021,-38.00463],[-59.27028,-38.00429],[-59.27035,-38.00395],[-59.27042,-38.00361],[-59.27049,-38.00326],[-59.27056,-38.00292],[-59.27064,-38.00258],[-59.27035,-38.00254],[-59.27007,-38.0025],[-59.26979,-38.00246],[-59.26951,-38.00242],[-59.26954,-38.00224],[-59.26922,-38.00221],[-59.26889,-38.00218],[-59.26857,-38.00215],[-59.26824,-38.00212],[-59.26792,-38.00209],[-59.26759,-38.00206],[-59.26727,-38.00203],[-59.26734,-38.00169],[-59.26741,-38.00135],[-59.26749,-38.00101],[-59.26756,-38.00068],[-59.26764,-38.00034],[-59.26771,-38],[-59.26771,-38.0],[-59.26773,-37.99966],[-59.26774,-37.99933],[-59.26776,-37.999],[-59.2674,-37.99894],[-59.26705,-37.99889],[-59.2667,-37.99883],[-59.26635,-37.99877],[-59.26599,-37.99872],[-59.26564,-37.99866],[-59.26529,-37.9986],[-59.26494,-37.99855],[-59.26458,-37.99849],[-59.26423,-37.99843],[-59.26388,-37.99837],[-59.26352,-37.99832],[-59.26317,-37.99826],[-59.26282,-37.9982],[-59.26247,-37.99815],[-59.26211,-37.99809],[-59.26176,-37.99803],[-59.26141,-37.99798],[-59.26106,-37.99792],[-59.2607,-37.99786],[-59.26035,-37.99781],[-59.26029,-37.9981],[-59.26022,-37.99839],[-59.26016,-37.99869],[-59.2601,-37.99898]]],[[[-59.26994,-37.99815],[-59.27015,-37.99819],[-59.27037,-37.99824],[-59.27039,-37.99812],[-59.2702,-37.99809],[-59.27,-37.99807],[-59.26994,-37.99815]]]]}},{"type":"Feature","properties":{"fna":"Energía","fdc":"IGN/INDEC","sag":"IGN","tipo":"Planta urbana","ign":"areas_de_asentamientos_y_edificios_020105.10086"},"geometry":{"type":"MultiPolygon","coordinates":[[[[-59.3797,-38.56726],[-59.37942,-38.56704],[-59.37915,-38.56681],[-59.37887,-38.56659],[-59.3786,-38.56637],[-59.37833,-38.56615],[-59.37805,-38.56592],[-59.37778,-38.5657],[-59.3775,-38.56548],[-59.37723,-38.56526],[-59.37695,-38.56503],[-59.37668,-38.56481],[-59.37641,-38.56459],[-59.37613,-38.56437],[-59.37586,-38.56414],[-59.37558,-38.56392],[-59.37531,-38.5637],[-59.37504,-38.56348],[-59.37476,-38.56325],[-59.37449,-38.56303],[-59.37421,-38.56281],[-59.37394,-38.56259],[-59.37366,-38.56236],[-59.37339,-38.56214],[-59.37312,-38.56192],[-59.37284,-38.5617],[-59.37257,-38.56148],[-59.37229,-38.56125],[-59.37202,-38.56103],[-59.37175,-38.56081],[-59.37147,-38.56059],[-59.37114,-38.56046],[-59.3708,-38.56033],[-59.37047,-38.5602],[-59.37013,-38.56006],[-59.3698,-38.55993],[-59.36946,-38.5598],[-59.36913,-38.55967],[-59.36879,-38.55954],[-59.36846,-38.55941],[-59.36812,-38.55928],[-59.36779,-38.55915],[-59.36745,-38.55902],[-59.36712,-38.55889],[-59.36678,-38.55876],[-59.36645,-38.55863],[-59.36611,-38.5585],[-59.36578,-38.55837],[-59.36544,-38.55824],[-59.36511,-38.55811],[-59.36477,-38.55798],[-59.36444,-38.55785],[-59.3641,-38.55772],[-59.36377,-38.55759],[-59.36343,-38.55746],[-59.3631,-38.55733],[-59.36276,-38.5572],[-59.36243,-38.55707],[-59.36209,-38.55694],[-59.36176,-38.55681],[-59.36142,-38.55668],[-59.36109,-38.55655],[-59.36075,-38.55642],[-59.36042,-38.55629],[-59.36008,-38.55616],[-59.35975,-38.55603],[-59.35941,-38.5559],[-59.35907,-38.55577],[-59.35874,-38.55564],[-59.3584,-38.55551],[-59.35807,-38.55538],[-59.35773,-38.55525],[-59.3574,-38.55512],[-59.35706,-38.55499],[-59.35673,-38.55486],[-59.35639,-38.55473],[-59.35606,-38.5546],[-59.35572,-38.55447],[-59.35539,-38.55434],[-59.35505,-38.55421],[-59.35472,-38.55408],[-59.35438,-38.55395],[-59.35405,-38.55382],[-59.35371,-38.55369],[-59.35338,-38.55356],[-59.35304,-38.55343],[-59.35271,-38.5533],[-59.35237,-38.55317],[-59.35203,-38.55326],[-59.35169,-38.55335],[-59.35135,-38.55344],[-59.35101,-38.55353],[-59.35067,-38.55362],[-59.35033,-38.55371],[-59.34999,-38.5538],[-59.34965,-38.55389],[-59.34931,-38.55399],[-59.34897,-38.55408],[-59.34863,-38.55417],[-59.34829,-38.55426],[-59.34799,-38.55444],[-59.3477,-38.55463],[-59.3474,-38.55481],[-59.34711,-38.555],[-59.34681,-38.55518],[-59.34652,-38.55537],[-59.34622,-38.55555],[-59.34592,-38.55574],[-59.34563,-38.55592],[-59.34533,-38.55611],[-59.34504,-38.55629],[-59.34474,-38.55648],[-59.34444,-38.55666],[-59.34415,-38.55685],[-59.3445,-38.55689],[-59.34485,-38.55693],[-59.3452,-38.55698],[-59.34555,-38.55702],[-59.34591,-38.55706],[-59.34626,-38.55711],[-59.34661,-38.55715],[-59.34696,-38.55719],[-59.34731,-38.55724],[-59.34766,-38.55728],[-59.34801,-38.55732],[-59.34836,-38.55736],[-59.34872,-38.55741],[-59.34907,-38.55745],[-59.34942,-38.55749],[-59.34977,-38.55754],[-59.35012,-38.55758],[-59.35047,-38.55762],[-59.35082,-38.55767],[-59.35117,-38.55771],[-59.35153,-38.55775],[-59.35188,-38.5578],[-59.35223,-38.55784],[-59.35258,-38.55788],[-59.35293,-38.55793],[-59.35328,-38.55797],[-59.35363,-38.55801],[-59.35398,-38.55805],[-59.3543,-38.55817],[-59.35461,-38.55828],[-59.35492,-38.5584],[-59.35523,-38.55851],[-59.35554,-38.55863],[-59.35534,-38.55891],[-59.35514,-38.55918],[-59.35494,-38.55946],[-59.35474,-38.55974],[-59.35454,-38.56002],[-59.35435,-38.56029],[-59.35415,-38.56057],[-59.35395,-38.56085],[-59.35375,-38.56112],[-59.35355,-38.5614],[-59.35335,-38.56168],[-59.35368,-38.5618],[-59.35401,-38.56193],[-59.35434,-38.56205],[-59.35467,-38.56217],[-59.355,-38.5623],[-59.35533,-38.56242],[-59.35566,-38.56254],[-59.35599,-38.56267],[-59.35632,-38.56279],[-59.35665,-38.56291],[-59.35698,-38.56304],[-59.35731,-38.56316],[-59.35764,-38.56328],[-59.35798,-38.56341],[-59.35831,-38.56353],[-59.35864,-38.56366],[-59.35897,-38.56378],[-59.3593,-38.5639],[-59.35963,-38.56403],[-59.35996,-38.56415],[-59.36029,-38.56427],[-59.36062,-38.5644],[-59.36095,-38.56452],[-59.36128,-38.56464],[-59.36161,-38.56477],[-59.36194,-38.56489],[-59.36227,-38.56501],[-59.36246,-38.56472],[-59.36266,-38.56443],[-59.36285,-38.56413],[-59.36305,-38.56384],[-59.36325,-38.56355],[-59.36344,-38.56325],[-59.36364,-38.56296],[-59.36383,-38.56267],[-59.36403,-38.56237],[-59.36422,-38.56208],[-59.36453,-38.56219],[-59.36484,-38.5623],[-59.36515,-38.56241],[-59.36546,-38.56252],[-59.36577,-38.56263],[-59.36607,-38.56274],[-59.36638,-38.56285],[-59.36669,-38.56296],[-59.367,-38.56307],[-59.36731,-38.56318],[-59.36762,-38.56329],[-59.36795,-38.56343],[-59.36827,-38.56357],[-59.3686,-38.56371],[-59.36893,-38.56385],[-59.36926,-38.56399],[-59.36959,-38.56413],[-59.36992,-38.56427],[-59.37025,-38.56441],[-59.37058,-38.56455],[-59.3709,-38.56469],[-59.37123,-38.56483],[-59.37156,-38.56497],[-59.37189,-38.56511],[-59.37222,-38.56524],[-59.37255,-38.56538],[-59.37288,-38.56552],[-59.3732,-38.56566],[-59.37353,-38.5658],[-59.37386,-38.56594],[-59.37419,-38.56608],[-59.37452,-38.56622],[-59.37485,-38.56636],[-59.37518,-38.5665],[-59.37551,-38.56664],[-59.37583,-38.56678],[-59.37616,-38.56692],[-59.37649,-38.56706],[-59.37682,-38.5672],[-59.37715,-38.56734],[-59.37748,-38.56748],[-59.37781,-38.56762],[-59.37814,-38.56776],[-59.37846,-38.5679],[-59.37879,-38.56804],[-59.37912,-38.56818],[-59.37927,-38.56795],[-59.37941,-38.56772],[-59.37955,-38.56749],[-59.3797,-38.56726]]]]}},{"type":"Feature","properties":{"fna":"Necochea - Quequén","fdc":"IGN/INDEC","sag":"IGN","tipo":"Planta urbana","ign":"areas_de_asentamientos_y_edificios_020105.10589"},"geometry":{"type":"MultiPolygon","coordinates":[[[[-58.6856,-38.51929],[-58.68588,-38.51952],[-58.68615,-38.51974],[-58.68642,-38.51997],[-58.68669,-38.5202],[-58.68696,-38.52043],[-58.68724,-38.52065],[-58.68751,-38.52088],[-58.68778,-38.52111],[-58.68805,-38.52134],[-58.68832,-38.52157],[-58.68859,-38.52179],[-58.68887,-38.52202],[-58.68914,-38.52225],[-58.68941,-38.52248],[-58.68968,-38.5227],[-58.68968,-38.52271],[-58.68992,-38.5229],[-58.69017,-38.52309],[-58.69041,-38.52329],[-58.69065,-38.52348],[-58.69089,-38.52368],[-58.69113,-38.52387],[-58.69133,-38.52403],[-58.69153,-38.52419],[-58.69181,-38.52441],[-58.69208,-38.52463],[-58.69236,-38.52485],[-58.69263,-38.52506],[-58.69291,-38.52528],[-58.69318,-38.5255],[-58.69346,-38.52572],[-58.69373,-38.52594],[-58.69401,-38.52616],[-58.69428,-38.52637],[-58.69456,-38.52659],[-58.69483,-38.52681],[-58.69511,-38.52703],[-58.69538,-38.52725],[-58.6951,-38.52745],[-58.69483,-38.52765],[-58.69455,-38.52786],[-58.69427,-38.52806],[-58.69399,-38.52827],[-58.69372,-38.52847],[-58.69344,-38.52867],[-58.69316,-38.52888],[-58.69288,-38.52908],[-58.6926,-38.52929],[-58.69233,-38.52949],[-58.69205,-38.52969],[-58.69177,-38.5299],[-58.69149,-38.5301],[-58.69176,-38.53033],[-58.69202,-38.53056],[-58.69228,-38.53079],[-58.69255,-38.53101],[-58.69281,-38.53124],[-58.69308,-38.53147],[-58.69334,-38.5317],[-58.69361,-38.53193],[-58.69387,-38.53215],[-58.69413,-38.53238],[-58.6944,-38.53261],[-58.69466,-38.53284],[-58.69493,-38.53307],[-58.69519,-38.53329],[-58.69546,-38.53352],[-58.69572,-38.53375],[-58.69598,-38.53398],[-58.69625,-38.53421],[-58.69651,-38.53443],[-58.69678,-38.53466],[-58.69656,-38.53483],[-58.69634,-38.53499],[-58.69612,-38.53516],[-58.6959,-38.53532],[-58.69567,-38.5355],[-58.69545,-38.53568],[-58.69522,-38.53586],[-58.69499,-38.53604],[-58.69472,-38.53624],[-58.69445,-38.53645],[-58.69417,-38.53665],[-58.6939,-38.53685],[-58.69368,-38.53702],[-58.69346,-38.53718],[-58.69324,-38.53735],[-58.69302,-38.53751],[-58.69274,-38.53773],[-58.69247,-38.53794],[-58.69219,-38.53816],[-58.69191,-38.53838],[-58.69164,-38.53859],[-58.69136,-38.53881],[-58.69108,-38.53902],[-58.69085,-38.5392],[-58.69061,-38.53937],[-58.69038,-38.53955],[-58.69014,-38.53972],[-58.68991,-38.5399],[-58.68969,-38.54006],[-58.68947,-38.54023],[-58.68926,-38.5404],[-58.68904,-38.54056],[-58.68879,-38.54075],[-58.68854,-38.54094],[-58.68828,-38.54114],[-58.68803,-38.54133],[-58.68778,-38.54152],[-58.68753,-38.54171],[-58.68728,-38.54191],[-58.68703,-38.5421],[-58.68678,-38.54228],[-58.68654,-38.54246],[-58.6863,-38.54264],[-58.68606,-38.54283],[-58.68617,-38.54292],[-58.68596,-38.54313],[-58.68587,-38.54337],[-58.68577,-38.54361],[-58.68579,-38.5438],[-58.68581,-38.54399],[-58.68598,-38.54424],[-58.68622,-38.54444],[-58.68645,-38.54463],[-58.68669,-38.54482],[-58.68693,-38.54502],[-58.68717,-38.54521],[-58.6874,-38.54541],[-58.68764,-38.5456],[-58.68788,-38.54579],[-58.68811,-38.54598],[-58.68835,-38.54617],[-58.68861,-38.54639],[-58.68887,-38.5466],[-58.68913,-38.54681],[-58.6894,-38.54703],[-58.68966,-38.54724],[-58.68992,-38.54745],[-58.69018,-38.54766],[-58.69007,-38.54775],[-58.68981,-38.54795],[-58.68955,-38.54815],[-58.68929,-38.54836],[-58.68902,-38.54856],[-58.68876,-38.54876],[-58.6885,-38.54896],[-58.68824,-38.54917],[-58.68852,-38.54939],[-58.6888,-38.54962],[-58.68909,-38.54984],[-58.68937,-38.55006],[-58.68965,-38.55029],[-58.68993,-38.55051],[-58.69021,-38.55074],[-58.69048,-38.55095],[-58.69075,-38.55117],[-58.69103,-38.55139],[-58.6913,-38.55161],[-58.69157,-38.55182],[-58.69184,-38.55204],[-58.69212,-38.55226],[-58.69239,-38.55248],[-58.69267,-38.5527],[-58.69295,-38.55292],[-58.69323,-38.55315],[-58.6935,-38.55337],[-58.69378,-38.55359],[-58.69406,-38.55381],[-58.69434,-38.55403],[-58.69461,-38.55425],[-58.69489,-38.55447],[-58.69517,-38.5547],[-58.69544,-38.55492],[-58.69572,-38.55514],[-58.696,-38.55536],[-58.69574,-38.55556],[-58.69547,-38.55576],[-58.69521,-38.55597],[-58.69495,-38.55617],[-58.69469,-38.55637],[-58.69443,-38.55658],[-58.69417,-38.55678],[-58.69391,-38.55698],[-58.69365,-38.55719],[-58.69339,-38.55739],[-58.69313,-38.55759],[-58.69339,-38.55781],[-58.69365,-38.55802],[-58.69392,-38.55823],[-58.69418,-38.55844],[-58.69444,-38.55866],[-58.69471,-38.55887],[-58.69497,-38.55908],[-58.69471,-38.55929],[-58.69444,-38.55949],[-58.69418,-38.55969],[-58.69392,-38.5599],[-58.69365,-38.5601],[-58.69339,-38.56031],[-58.69312,-38.56051],[-58.69286,-38.56071],[-58.6926,-38.56092],[-58.69233,-38.56112],[-58.69207,-38.56133],[-58.69183,-38.56151],[-58.69159,-38.56169],[-58.69136,-38.56187],[-58.69112,-38.56206],[-58.69083,-38.56228],[-58.69055,-38.5625],[-58.69026,-38.56272],[-58.68998,-38.56294],[-58.68971,-38.56315],[-58.68943,-38.56336],[-58.68922,-38.56353],[-58.68947,-38.56374],[-58.68972,-38.56396],[-58.68997,-38.56418],[-58.69022,-38.5644],[-58.69048,-38.56461],[-58.69073,-38.56483],[-58.69098,-38.56505],[-58.69071,-38.56526],[-58.69043,-38.56547],[-58.69016,-38.56569],[-58.68988,-38.5659],[-58.68961,-38.56611],[-58.68933,-38.56632],[-58.68906,-38.56654],[-58.68879,-38.56675],[-58.68851,-38.56696],[-58.68824,-38.56717],[-58.68796,-38.56739],[-58.68769,-38.5676],[-58.68742,-38.56781],[-58.68714,-38.56802],[-58.68687,-38.56824],[-58.68659,-38.56845],[-58.68632,-38.56866],[-58.68604,-38.56887],[-58.68577,-38.56909],[-58.6855,-38.5693],[-58.68522,-38.56951],[-58.68498,-38.56935],[-58.68474,-38.56918],[-58.6845,-38.56902],[-58.68426,-38.56886],[-58.684,-38.56907],[-58.68374,-38.56929],[-58.68348,-38.56951],[-58.68321,-38.56973],[-58.683,-38.56955],[-58.68278,-38.56936],[-58.68256,-38.56918],[-58.68235,-38.569],[-58.68215,-38.56917],[-58.68196,-38.56933],[-58.68176,-38.5695],[-58.68141,-38.56944],[-58.68106,-38.56939],[-58.68071,-38.56934],[-58.68036,-38.56928],[-58.68001,-38.56923],[-58.67966,-38.56917],[-58.67931,-38.56912],[-58.67896,-38.56907],[-58.67862,-38.56901],[-58.67827,-38.56896],[-58.67792,-38.5689],[-58.67757,-38.56885],[-58.67722,-38.5688],[-58.67687,-38.56874],[-58.67652,-38.56869],[-58.67617,-38.56864],[-58.67582,-38.56858],[-58.67547,-38.56853],[-58.67512,-38.56847],[-58.67477,-38.56842],[-58.67442,-38.56837],[-58.67407,-38.56831],[-58.67372,-38.56826],[-58.67337,-38.56821],[-58.67302,-38.56815],[-58.67267,-38.5681],[-58.67232,-38.56804],[-58.67197,-38.56799],[-58.67163,-38.56794],[-58.67128,-38.56788],[-58.67093,-38.56783],[-58.67058,-38.56778],[-58.67023,-38.56772],[-58.66996,-38.56769],[-58.66969,-38.56767],[-58.66942,-38.56764],[-58.66914,-38.56761],[-58.66921,-38.56736],[-58.66928,-38.56712],[-58.66936,-38.56683],[-58.66903,-38.56677],[-58.66869,-38.56671],[-58.66836,-38.56665],[-58.66802,-38.56659],[-58.66769,-38.56653],[-58.66735,-38.56647],[-58.66702,-38.56641],[-58.66668,-38.56635],[-58.66635,-38.56629],[-58.66601,-38.56623],[-58.66568,-38.56617],[-58.66534,-38.56611],[-58.66501,-38.56605],[-58.66467,-38.56599],[-58.66434,-38.56593],[-58.66421,-38.56626],[-58.66408,-38.56659],[-58.66396,-38.56692],[-58.66383,-38.56725],[-58.66371,-38.56758],[-58.66358,-38.56791],[-58.66345,-38.56824],[-58.66333,-38.56857],[-58.6632,-38.5689],[-58.66308,-38.56923],[-58.66295,-38.56956],[-58.66282,-38.56989],[-58.6627,-38.57022],[-58.66269,-38.57022],[-58.6627,-38.57022],[-58.66271,-38.57022],[-58.66272,-38.57021],[-58.66277,-38.5702],[-58.66279,-38.57019],[-58.6628,-38.57019],[-58.66284,-38.57018],[-58.66285,-38.57018],[-58.6629,-38.57017],[-58.6629,-38.57017],[-58.66294,-38.57017],[-58.66298,-38.57017],[-58.66301,-38.57016],[-58.66306,-38.57016],[-58.66309,-38.57016],[-58.66311,-38.57016],[-58.66313,-38.57017],[-58.66316,-38.57018],[-58.66319,-38.5702],[-58.66322,-38.57021],[-58.66324,-38.57022],[-58.66326,-38.57023],[-58.66327,-38.57023],[-58.66331,-38.57026],[-58.66334,-38.57026],[-58.66335,-38.57026],[-58.66336,-38.57027],[-58.66336,-38.57027],[-58.6634,-38.5703],[-58.66342,-38.57031],[-58.66343,-38.57032],[-58.66346,-38.57033],[-58.66349,-38.57034],[-58.66351,-38.57035],[-58.66354,-38.57035],[-58.66355,-38.57035],[-58.66357,-38.57036],[-58.66363,-38.57036],[-58.66364,-38.57037],[-58.66367,-38.57037],[-58.6637,-38.57037],[-58.66374,-38.57037],[-58.66377,-38.57037],[-58.6638,-38.57038],[-58.66383,-38.5704],[-58.66386,-38.57042],[-58.66387,-38.57042],[-58.66389,-38.57043],[-58.66392,-38.57044],[-58.66396,-38.57045],[-58.664,-38.57046],[-58.66404,-38.57046],[-58.66409,-38.57046],[-58.66414,-38.57045],[-58.66418,-38.57044],[-58.66421,-38.57044],[-58.66426,-38.57043],[-58.66429,-38.57042],[-58.66433,-38.57041],[-58.66438,-38.57041],[-58.66445,-38.57041],[-58.66446,-38.57041],[-58.6645,-38.57041],[-58.66455,-38.57043],[-58.66458,-38.57044],[-58.66461,-38.57045],[-58.66465,-38.57045],[-58.66469,-38.57044],[-58.66472,-38.57043],[-58.66477,-38.57043],[-58.6648,-38.57042],[-58.66482,-38.57042],[-58.66483,-38.57042],[-58.66485,-38.57042],[-58.66488,-38.57041],[-58.66491,-38.57041],[-58.66495,-38.57041],[-58.66498,-38.57041],[-58.665,-38.57041],[-58.66504,-38.57042],[-58.66507,-38.57044],[-58.66509,-38.57045],[-58.66511,-38.57047],[-58.66516,-38.57048],[-58.6652,-38.57048],[-58.66522,-38.57048],[-58.66524,-38.57046],[-58.66525,-38.57043],[-58.66527,-38.57042],[-58.66527,-38.57041],[-58.66527,-38.57039],[-58.66529,-38.57039],[-58.66533,-38.57038],[-58.6654,-38.57037],[-58.66545,-38.57036],[-58.66547,-38.57036],[-58.66549,-38.57035],[-58.66556,-38.57036],[-58.66557,-38.57038],[-58.66561,-38.5704],[-58.66565,-38.57041],[-58.66567,-38.57042],[-58.66571,-38.57043],[-58.66575,-38.57043],[-58.66576,-38.57042],[-58.66577,-38.57042],[-58.66579,-38.57042],[-58.66582,-38.57041],[-58.66586,-38.57041],[-58.66588,-38.57041],[-58.66588,-38.57043],[-58.66589,-38.57044],[-58.6659,-38.57045],[-58.66593,-38.57046],[-58.66594,-38.57046],[-58.66598,-38.57047],[-58.66598,-38.57047],[-58.66598,-38.57047],[-58.666,-38.57047],[-58.666,-38.57047],[-58.66602,-38.57048],[-58.66604,-38.5705],[-58.66606,-38.5705],[-58.66608,-38.5705],[-58.6661,-38.57051],[-58.66611,-38.57051],[-58.66613,-38.5705],[-58.66616,-38.57049],[-58.66618,-38.57049],[-58.66623,-38.5705],[-58.66624,-38.57051],[-58.66625,-38.57051],[-58.66626,-38.57053],[-58.66628,-38.57054],[-58.66632,-38.57054],[-58.66635,-38.57054],[-58.66636,-38.57054],[-58.66639,-38.57054],[-58.66642,-38.57054],[-58.66646,-38.57054],[-58.66647,-38.57054],[-58.66649,-38.57054],[-58.6665,-38.57054],[-58.66653,-38.57052],[-58.66655,-38.57051],[-58.66657,-38.57051],[-58.6666,-38.5705],[-58.66661,-38.5705],[-58.66662,-38.5705],[-58.66664,-38.5705],[-58.66665,-38.57051],[-58.66668,-38.57052],[-58.6667,-38.57053],[-58.66672,-38.57053],[-58.66676,-38.57053],[-58.66682,-38.57051],[-58.66685,-38.57049],[-58.66686,-38.57048],[-58.66687,-38.57047],[-58.6669,-38.57045],[-58.6669,-38.57044],[-58.66696,-38.57044],[-58.66699,-38.57044],[-58.66703,-38.57044],[-58.66704,-38.57044],[-58.66707,-38.57044],[-58.66711,-38.57045],[-58.66714,-38.57045],[-58.66718,-38.57045],[-58.66721,-38.57045],[-58.66725,-38.57045],[-58.66728,-38.57044],[-58.66729,-38.57044],[-58.66733,-38.57044],[-58.66734,-38.57044],[-58.66738,-38.57044],[-58.66741,-38.57044],[-58.66746,-38.57044],[-58.6675,-38.57043],[-58.66755,-38.57042],[-58.66759,-38.57042],[-58.66762,-38.57042],[-58.66765,-38.57042],[-58.66769,-38.57043],[-58.66772,-38.57043],[-58.66776,-38.57043],[-58.6678,-38.57043],[-58.66784,-38.57043],[-58.66791,-38.57043],[-58.66796,-38.57043],[-58.66797,-38.57043],[-58.66801,-38.57043],[-58.66805,-38.57043],[-58.66809,-38.57043],[-58.6681,-38.57044],[-58.66811,-38.57044],[-58.66815,-38.57044],[-58.66821,-38.57046],[-58.66825,-38.57047],[-58.66828,-38.57049],[-58.66832,-38.57051],[-58.66836,-38.57053],[-58.6684,-38.57055],[-58.66844,-38.57056],[-58.66851,-38.57056],[-58.66856,-38.57056],[-58.66859,-38.57056],[-58.66862,-38.57056],[-58.66863,-38.57056],[-58.66866,-38.57056],[-58.66872,-38.57056],[-58.66875,-38.57056],[-58.66876,-38.57056],[-58.6688,-38.57056],[-58.66882,-38.57056],[-58.66883,-38.57056],[-58.66886,-38.57056],[-58.66889,-38.57056],[-58.66893,-38.57058],[-58.66896,-38.57059],[-58.66899,-38.5706],[-58.66902,-38.57062],[-58.66904,-38.57063],[-58.66908,-38.57064],[-58.66913,-38.57065],[-58.6692,-38.57066],[-58.66924,-38.57066],[-58.66926,-38.57067],[-58.6693,-38.57069],[-58.66934,-38.57071],[-58.66938,-38.57072],[-58.66942,-38.57073],[-58.66945,-38.57073],[-58.66949,-38.57075],[-58.66954,-38.57076],[-58.66957,-38.57076],[-58.6696,-38.57077],[-58.66965,-38.57078],[-58.66971,-38.57078],[-58.66974,-38.5708],[-58.66979,-38.57081],[-58.66982,-38.57083],[-58.66987,-38.57084],[-58.66992,-38.57085],[-58.66996,-38.57086],[-58.67,-38.57086],[-58.67004,-38.57087],[-58.67009,-38.57087],[-58.67012,-38.57087],[-58.67013,-38.57087],[-58.67017,-38.57087],[-58.67021,-38.57087],[-58.67024,-38.57087],[-58.67028,-38.57087],[-58.67033,-38.57087],[-58.67035,-38.57087],[-58.67038,-38.57088],[-58.67041,-38.57089],[-58.67046,-38.5709],[-58.67048,-38.57091],[-58.67051,-38.57091],[-58.67056,-38.57092],[-58.67059,-38.57092],[-58.67062,-38.57092],[-58.67063,-38.57092],[-58.67066,-38.57092],[-58.67067,-38.57092],[-58.6707,-38.57092],[-58.67073,-38.57092],[-58.67078,-38.57092],[-58.67081,-38.57092],[-58.67085,-38.57092],[-58.67089,-38.57092],[-58.67093,-38.57093],[-58.67099,-38.57093],[-58.67101,-38.57094],[-58.67102,-38.57095],[-58.67105,-38.57096],[-58.67107,-38.57097],[-58.67111,-38.57097],[-58.67114,-38.57098],[-58.67115,-38.57098],[-58.67118,-38.57098],[-58.67121,-38.57098],[-58.67124,-38.57098],[-58.67127,-38.57098],[-58.6713,-38.57099],[-58.67133,-38.57099],[-58.67137,-38.57099],[-58.67139,-38.571],[-58.67143,-38.57101],[-58.67147,-38.57102],[-58.67152,-38.57103],[-58.67157,-38.57104],[-58.6716,-38.57104],[-58.67165,-38.57105],[-58.67166,-38.57105],[-58.67171,-38.57105],[-58.67176,-38.57107],[-58.67179,-38.57107],[-58.67184,-38.57107],[-58.67187,-38.57109],[-58.6719,-38.5711],[-58.67193,-38.57111],[-58.67195,-38.57112],[-58.67198,-38.57113],[-58.672,-38.57114],[-58.67203,-38.57115],[-58.67204,-38.57115],[-58.67215,-38.57119],[-58.67218,-38.5712],[-58.67227,-38.57122],[-58.67236,-38.57123],[-58.67243,-38.57124],[-58.67248,-38.57124],[-58.67253,-38.57126],[-58.67258,-38.57126],[-58.67261,-38.57128],[-58.67267,-38.5713],[-58.67272,-38.57131],[-58.67273,-38.57131],[-58.67277,-38.57134],[-58.67282,-38.57134],[-58.67287,-38.57135],[-58.67288,-38.57135],[-58.67293,-38.57135],[-58.67294,-38.57135],[-58.673,-38.57136],[-58.67301,-38.57136],[-58.67311,-38.57137],[-58.67312,-38.57137],[-58.67317,-38.57138],[-58.6732,-38.57139],[-58.67321,-38.57139],[-58.67326,-38.57141],[-58.67332,-38.57143],[-58.67338,-38.57145],[-58.67348,-38.57147],[-58.67354,-38.57147],[-58.6736,-38.57149],[-58.67368,-38.57151],[-58.67376,-38.57154],[-58.67384,-38.57155],[-58.6739,-38.57155],[-58.67398,-38.57158],[-58.67407,-38.5716],[-58.67414,-38.57161],[-58.67414,-38.57162],[-58.67418,-38.57163],[-58.67419,-38.57164],[-58.67424,-38.57165],[-58.6743,-38.57167],[-58.67431,-38.57167],[-58.67445,-38.57171],[-58.6745,-38.57172],[-58.67454,-38.57172],[-58.67456,-38.57174],[-58.67459,-38.57175],[-58.67465,-38.57175],[-58.67468,-38.57177],[-58.67473,-38.57179],[-58.67477,-38.57181],[-58.67482,-38.57184],[-58.67486,-38.57185],[-58.67493,-38.57187],[-58.675,-38.57188],[-58.67501,-38.57189],[-58.67506,-38.57191],[-58.67508,-38.57192],[-58.67509,-38.57194],[-58.67509,-38.57194],[-58.67509,-38.57195],[-58.67511,-38.57198],[-58.67515,-38.57203],[-58.6752,-38.57205],[-58.67523,-38.57207],[-58.67527,-38.57209],[-58.67532,-38.57209],[-58.67535,-38.57209],[-58.67537,-38.57209],[-58.67541,-38.57208],[-58.67546,-38.57208],[-58.67547,-38.57208],[-58.6755,-38.57208],[-58.67531,-38.57203],[-58.67511,-38.57198],[-58.67517,-38.57194],[-58.67536,-38.57196],[-58.67555,-38.57198],[-58.67587,-38.57203],[-58.67613,-38.57206],[-58.6764,-38.57214],[-58.67673,-38.57222],[-58.67692,-38.57226],[-58.67711,-38.5723],[-58.6774,-38.57234],[-58.67761,-38.57236],[-58.67782,-38.57238],[-58.67817,-38.5724],[-58.67851,-38.57242],[-58.67884,-38.57243],[-58.67917,-38.57245],[-58.67936,-38.57249],[-58.67971,-38.57257],[-58.68001,-38.57262],[-58.68025,-38.57262],[-58.68058,-38.5726],[-58.68084,-38.57261],[-58.68097,-38.57262],[-58.68121,-38.57267],[-58.68148,-38.57274],[-58.68177,-38.57278],[-58.68205,-38.57277],[-58.68235,-38.57282],[-58.68264,-38.57286],[-58.68294,-38.57291],[-58.68319,-38.57294],[-58.68344,-38.57297],[-58.68377,-38.57298],[-58.68399,-38.57301],[-58.68421,-38.57303],[-58.68451,-38.57307],[-58.6848,-38.57311],[-58.68509,-38.57314],[-58.68534,-38.57318],[-58.6856,-38.57322],[-58.68586,-38.57326],[-58.68613,-38.57331],[-58.68639,-38.57335],[-58.68671,-38.57339],[-58.68703,-38.57343],[-58.68736,-38.57347],[-58.68771,-38.57352],[-58.68806,-38.57357],[-58.68836,-38.57361],[-58.68867,-38.57365],[-58.68898,-38.5737],[-58.68932,-38.57372],[-58.68963,-38.57373],[-58.68994,-38.57375],[-58.69022,-38.57376],[-58.69049,-38.57378],[-58.69078,-38.57379],[-58.69107,-38.57381],[-58.69136,-38.57382],[-58.69164,-38.57384],[-58.69187,-38.57388],[-58.69209,-38.57393],[-58.69243,-38.57398],[-58.69277,-38.57403],[-58.69311,-38.57408],[-58.69344,-38.57413],[-58.69378,-38.57418],[-58.69412,-38.57423],[-58.69445,-38.57428],[-58.69479,-38.57433],[-58.69466,-38.57458],[-58.69452,-38.57483],[-58.69439,-38.57508],[-58.69425,-38.57533],[-58.69452,-38.57541],[-58.69478,-38.57549],[-58.69504,-38.57557],[-58.6953,-38.57565],[-58.69548,-38.5757],[-58.69565,-38.57574],[-58.69583,-38.57581],[-58.69601,-38.57587],[-58.69617,-38.57597],[-58.69633,-38.57606],[-58.69644,-38.57616],[-58.6965,-38.57629],[-58.6965,-38.57649],[-58.6965,-38.57669],[-58.69652,-38.57705],[-58.69653,-38.57741],[-58.69655,-38.57776],[-58.69656,-38.57812],[-58.69658,-38.57847],[-58.6966,-38.57882],[-58.69662,-38.57917],[-58.69664,-38.57952],[-58.69666,-38.57986],[-58.69666,-38.57994],[-58.69667,-38.58003],[-58.69667,-38.58004],[-58.69667,-38.58004],[-58.69667,-38.58007],[-58.69667,-38.58009],[-58.69667,-38.58012],[-58.69667,-38.58016],[-58.69667,-38.58017],[-58.69667,-38.58021],[-58.69667,-38.58022],[-58.69667,-38.58023],[-58.69667,-38.58024],[-58.69667,-38.58028],[-58.69667,-38.58031],[-58.69667,-38.58034],[-58.69667,-38.58037],[-58.69667,-38.5804],[-58.69667,-38.58042],[-58.69666,-38.58043],[-58.69666,-38.58046],[-58.69666,-38.58049],[-58.69666,-38.58052],[-58.69666,-38.58055],[-58.69667,-38.58058],[-58.69667,-38.58059],[-58.69667,-38.58063],[-58.69668,-38.58068],[-58.69669,-38.58072],[-58.6967,-38.58076],[-58.69671,-38.58079],[-58.69671,-38.58082],[-58.69671,-38.58084],[-58.69671,-38.58088],[-58.6967,-38.58092],[-58.6967,-38.58094],[-58.6967,-38.58096],[-58.69669,-38.58099],[-58.69669,-38.58102],[-58.69669,-38.58105],[-58.69667,-38.58108],[-58.69667,-38.58111],[-58.69667,-38.58113],[-58.69667,-38.58114],[-58.69667,-38.58117],[-58.69666,-38.58121],[-58.69666,-38.58124],[-58.69666,-38.58128],[-58.69666,-38.58131],[-58.69666,-38.58131],[-58.69665,-38.58134],[-58.69664,-38.58137],[-58.69662,-38.58139],[-58.6966,-38.58141],[-58.69659,-38.58142],[-58.69657,-38.58143],[-58.69656,-38.58144],[-58.69654,-38.58147],[-58.69653,-38.58149],[-58.6965,-38.58152],[-58.69648,-38.58155],[-58.69646,-38.58157],[-58.69646,-38.58159],[-58.69645,-38.5816],[-58.69641,-38.58164],[-58.69632,-38.58175],[-58.69629,-38.58186],[-58.69639,-38.58194],[-58.69654,-38.58197],[-58.6966,-38.58194],[-58.69663,-38.58188],[-58.69667,-38.58186],[-58.6967,-38.58182],[-58.69674,-38.58179],[-58.69679,-38.58164],[-58.69682,-38.58152],[-58.69685,-38.58136],[-58.6969,-38.58127],[-58.69695,-38.58103],[-58.69693,-38.58067],[-58.69691,-38.5804],[-58.69695,-38.58026],[-58.69699,-38.58013],[-58.69699,-38.57997],[-58.697,-38.57983],[-58.69703,-38.5797],[-58.69702,-38.57956],[-58.697,-38.57935],[-58.697,-38.5792],[-58.697,-38.57901],[-58.697,-38.57883],[-58.69701,-38.57861],[-58.69702,-38.57846],[-58.69698,-38.57827],[-58.69701,-38.57804],[-58.69705,-38.57793],[-58.69718,-38.57776],[-58.69723,-38.57765],[-58.69727,-38.57741],[-58.69736,-38.57729],[-58.69758,-38.57716],[-58.69783,-38.57702],[-58.69816,-38.57701],[-58.69848,-38.577],[-58.69881,-38.57699],[-58.69914,-38.57697],[-58.69943,-38.57697],[-58.69966,-38.57696],[-58.69988,-38.57694],[-58.70018,-38.57693],[-58.70047,-38.57691],[-58.70074,-38.57691],[-58.70101,-38.5769],[-58.70137,-38.57688],[-58.70172,-38.57686],[-58.70205,-38.57683],[-58.70224,-38.5768],[-58.70243,-38.57678],[-58.70263,-38.57677],[-58.70284,-38.57677],[-58.7031,-38.57672],[-58.70336,-38.57668],[-58.70367,-38.57658],[-58.70395,-38.57639],[-58.70423,-38.57621],[-58.70451,-38.57602],[-58.7048,-38.57583],[-58.70508,-38.57565],[-58.70536,-38.57546],[-58.70565,-38.57528],[-58.70588,-38.57522],[-58.70612,-38.57516],[-58.70618,-38.57515],[-58.70624,-38.57513],[-58.70627,-38.57515],[-58.70657,-38.57504],[-58.70688,-38.57494],[-58.70718,-38.57484],[-58.70748,-38.57474],[-58.70778,-38.57464],[-58.70808,-38.57453],[-58.70838,-38.57443],[-58.7086,-38.57431],[-58.70884,-38.57421],[-58.70908,-38.57411],[-58.70939,-38.57399],[-58.7097,-38.57386],[-58.71001,-38.57373],[-58.71033,-38.57361],[-58.71064,-38.57348],[-58.71095,-38.57335],[-58.71126,-38.57323],[-58.71157,-38.5731],[-58.71189,-38.57297],[-58.7122,-38.57285],[-58.71244,-38.57277],[-58.71269,-38.57269],[-58.71293,-38.57262],[-58.7131,-38.57242],[-58.71327,-38.57222],[-58.71345,-38.57203],[-58.71339,-38.57195],[-58.71354,-38.57177],[-58.71368,-38.57159],[-58.71379,-38.57143],[-58.71388,-38.57125],[-58.71403,-38.57112],[-58.71409,-38.57104],[-58.71425,-38.57073],[-58.71431,-38.57046],[-58.71437,-38.57029],[-58.71433,-38.57021],[-58.7142,-38.57014],[-58.71422,-38.57001],[-58.71431,-38.56993],[-58.71424,-38.56978],[-58.71417,-38.56948],[-58.71413,-38.56921],[-58.71415,-38.56921],[-58.71414,-38.56917],[-58.71402,-38.56889],[-58.71395,-38.56876],[-58.71379,-38.56855],[-58.71374,-38.56845],[-58.71368,-38.56838],[-58.71361,-38.56831],[-58.71355,-38.56821],[-58.71349,-38.56812],[-58.71344,-38.56802],[-58.71343,-38.56801],[-58.71342,-38.56798],[-58.71342,-38.56795],[-58.71339,-38.56792],[-58.71335,-38.56789],[-58.71328,-38.56784],[-58.71324,-38.56779],[-58.71319,-38.56776],[-58.71316,-38.56772],[-58.71314,-38.56769],[-58.71309,-38.56764],[-58.71302,-38.56758],[-58.71298,-38.56754],[-58.71295,-38.56748],[-58.71292,-38.56745],[-58.71286,-38.56741],[-58.71282,-38.56738],[-58.71279,-38.56735],[-58.71277,-38.56729],[-58.71274,-38.56721],[-58.71268,-38.56716],[-58.71265,-38.56712],[-58.7126,-38.56708],[-58.71255,-38.56705],[-58.71251,-38.56698],[-58.71249,-38.5669],[-58.71244,-38.56675],[-58.7124,-38.56668],[-58.71236,-38.56663],[-58.71231,-38.56658],[-58.71224,-38.5665],[-58.71219,-38.5664],[-58.71216,-38.56634],[-58.71208,-38.5662],[-58.712,-38.56609],[-58.71205,-38.56597],[-58.71207,-38.56579],[-58.71204,-38.56573],[-58.712,-38.56564],[-58.71198,-38.56559],[-58.71196,-38.56553],[-58.71194,-38.56547],[-58.71189,-38.56542],[-58.71189,-38.56539],[-58.71187,-38.56533],[-58.71183,-38.56527],[-58.7118,-38.5652],[-58.71177,-38.56511],[-58.71173,-38.56501],[-58.71169,-38.56497],[-58.71166,-38.56492],[-58.71161,-38.56488],[-58.71154,-38.56483],[-58.71144,-38.56477],[-58.71137,-38.56476],[-58.71129,-38.56473],[-58.71125,-38.56467],[-58.71119,-38.56461],[-58.71112,-38.56458],[-58.71108,-38.56455],[-58.71103,-38.56446],[-58.711,-38.56439],[-58.71094,-38.56435],[-58.71085,-38.56432],[-58.71075,-38.56428],[-58.71081,-38.56426],[-58.71091,-38.56423],[-58.71102,-38.56421],[-58.7111,-38.56418],[-58.71121,-38.5641],[-58.71128,-38.56406],[-58.71141,-38.564],[-58.71161,-38.56389],[-58.71169,-38.56386],[-58.71181,-38.56382],[-58.71199,-38.56376],[-58.71213,-38.56371],[-58.71221,-38.56363],[-58.71223,-38.56358],[-58.7122,-38.56348],[-58.71218,-38.56345],[-58.71233,-38.56341],[-58.7124,-38.5635],[-58.71247,-38.56348],[-58.71251,-38.56343],[-58.7125,-38.56338],[-58.71246,-38.5633],[-58.71245,-38.56325],[-58.71248,-38.56322],[-58.71258,-38.56318],[-58.71265,-38.56314],[-58.71268,-38.5631],[-58.71269,-38.56303],[-58.7127,-38.56296],[-58.71273,-38.56291],[-58.71274,-38.56287],[-58.71281,-38.56293],[-58.71287,-38.563],[-58.71295,-38.56306],[-58.713,-38.56311],[-58.71306,-38.56314],[-58.71313,-38.56316],[-58.71318,-38.56319],[-58.71325,-38.56323],[-58.71331,-38.56319],[-58.71327,-38.56316],[-58.71328,-38.56312],[-58.71324,-38.56307],[-58.71319,-38.56304],[-58.71315,-38.563],[-58.71314,-38.56293],[-58.71314,-38.56285],[-58.71316,-38.56282],[-58.71323,-38.56278],[-58.71328,-38.56276],[-58.71332,-38.56275],[-58.71335,-38.56271],[-58.71338,-38.56266],[-58.71346,-38.56258],[-58.71355,-38.56255],[-58.71366,-38.56254],[-58.71375,-38.5625],[-58.71382,-38.56248],[-58.71388,-38.56241],[-58.71392,-38.56238],[-58.71409,-38.56233],[-58.71425,-38.56232],[-58.71445,-38.56228],[-58.71455,-38.56226],[-58.71462,-38.56225],[-58.71468,-38.56223],[-58.71472,-38.56226],[-58.71477,-38.56231],[-58.71483,-38.56234],[-58.71493,-38.56235],[-58.71505,-38.56233],[-58.71515,-38.56231],[-58.71525,-38.56228],[-58.71536,-38.56226],[-58.71539,-38.56229],[-58.71546,-38.56233],[-58.71549,-38.5623],[-58.71551,-38.56224],[-58.71558,-38.56222],[-58.71579,-38.5622],[-58.71599,-38.56217],[-58.71611,-38.56215],[-58.71622,-38.56215],[-58.71631,-38.56216],[-58.71639,-38.56217],[-58.71647,-38.56214],[-58.71659,-38.56213],[-58.71669,-38.56213],[-58.71683,-38.56213],[-58.71696,-38.56214],[-58.71713,-38.56215],[-58.71722,-38.56216],[-58.7173,-38.56217],[-58.71737,-38.56219],[-58.71739,-38.56222],[-58.71734,-38.56224],[-58.71721,-38.56223],[-58.7171,-38.56225],[-58.71703,-38.56227],[-58.71699,-38.56231],[-58.717,-38.56234],[-58.71709,-38.56234],[-58.7172,-38.56233],[-58.71732,-38.56233],[-58.71746,-38.56231],[-58.71754,-38.56229],[-58.71757,-38.56225],[-58.71764,-38.56222],[-58.71772,-38.56219],[-58.7178,-38.56217],[-58.71791,-38.56214],[-58.71799,-38.56212],[-58.71808,-38.5621],[-58.71821,-38.56203],[-58.71831,-38.56198],[-58.71847,-38.56195],[-58.71857,-38.56191],[-58.71871,-38.56187],[-58.7189,-38.56178],[-58.71896,-38.56172],[-58.71902,-38.56166],[-58.71908,-38.56159],[-58.71913,-38.56151],[-58.71916,-38.56139],[-58.71918,-38.56125],[-58.71922,-38.5612],[-58.7193,-38.56115],[-58.71937,-38.5611],[-58.71953,-38.56098],[-58.7196,-38.56089],[-58.7197,-38.56074],[-58.71978,-38.56061],[-58.71985,-38.56043],[-58.71987,-38.5603],[-58.71991,-38.56013],[-58.71996,-38.56003],[-58.71996,-38.55992],[-58.71995,-38.55982],[-58.71994,-38.55968],[-58.71989,-38.55958],[-58.71985,-38.5595],[-58.71983,-38.55938],[-58.71979,-38.55929],[-58.71979,-38.55921],[-58.71973,-38.55909],[-58.71971,-38.55899],[-58.71966,-38.55892],[-58.71963,-38.55886],[-58.71957,-38.55872],[-58.71953,-38.5586],[-58.71951,-38.55851],[-58.7195,-38.55839],[-58.71946,-38.5583],[-58.71939,-38.55813],[-58.71933,-38.55801],[-58.71919,-38.55785],[-58.71916,-38.55774],[-58.71918,-38.55768],[-58.71915,-38.55756],[-58.7191,-38.55749],[-58.71909,-38.5574],[-58.7191,-38.55731],[-58.71906,-38.55724],[-58.71901,-38.55714],[-58.71896,-38.55699],[-58.71892,-38.55687],[-58.7189,-38.55676],[-58.71884,-38.55647],[-58.71885,-38.55631],[-58.71893,-38.55609],[-58.71901,-38.55593],[-58.71906,-38.55582],[-58.71907,-38.55576],[-58.71903,-38.55564],[-58.719,-38.55555],[-58.71905,-38.55548],[-58.71908,-38.55541],[-58.71915,-38.55531],[-58.71921,-38.5552],[-58.71921,-38.55505],[-58.71921,-38.55494],[-58.71924,-38.55483],[-58.71933,-38.55475],[-58.71941,-38.55465],[-58.7194,-38.55454],[-58.71939,-38.55445],[-58.71926,-38.55439],[-58.71916,-38.5543],[-58.71922,-38.55425],[-58.71927,-38.55428],[-58.71937,-38.55432],[-58.71946,-38.55437],[-58.71957,-38.55444],[-58.71972,-38.55441],[-58.71984,-38.55436],[-58.71989,-38.55435],[-58.71996,-38.55431],[-58.71996,-38.55427],[-58.71994,-38.55424],[-58.72005,-38.55419],[-58.72021,-38.55415],[-58.72036,-38.55412],[-58.7205,-38.55403],[-58.72062,-38.55396],[-58.72078,-38.55393],[-58.72094,-38.55392],[-58.72124,-38.55387],[-58.72143,-38.5538],[-58.72163,-38.55373],[-58.72181,-38.55364],[-58.72202,-38.55356],[-58.72212,-38.55352],[-58.72237,-38.55342],[-58.7226,-38.55329],[-58.72276,-38.55322],[-58.723,-38.55309],[-58.72318,-38.55298],[-58.7233,-38.5529],[-58.72343,-38.55284],[-58.72359,-38.55276],[-58.72378,-38.55269],[-58.724,-38.55258],[-58.7242,-38.55245],[-58.72439,-38.55233],[-58.72453,-38.55223],[-58.7247,-38.55214],[-58.72486,-38.55204],[-58.72496,-38.55194],[-58.72499,-38.55184],[-58.725,-38.55179],[-58.72502,-38.55177],[-58.72507,-38.55181],[-58.72517,-38.5518],[-58.72528,-38.55171],[-58.72546,-38.55159],[-58.72554,-38.55153],[-58.72563,-38.55146],[-58.72588,-38.55129],[-58.72605,-38.5512],[-58.72622,-38.55111],[-58.72643,-38.551],[-58.72652,-38.5509],[-58.72667,-38.55081],[-58.72674,-38.55075],[-58.72682,-38.5507],[-58.72691,-38.55062],[-58.72702,-38.55051],[-58.72713,-38.55038],[-58.72721,-38.55024],[-58.72727,-38.55013],[-58.72732,-38.55004],[-58.7274,-38.54991],[-58.7274,-38.54979],[-58.7275,-38.54966],[-58.72755,-38.54957],[-58.72763,-38.54937],[-58.72764,-38.54917],[-58.72765,-38.54897],[-58.72768,-38.54871],[-58.72766,-38.54849],[-58.72763,-38.54826],[-58.72761,-38.54808],[-58.72759,-38.5479],[-58.72752,-38.54757],[-58.72743,-38.54737],[-58.72734,-38.54717],[-58.72718,-38.54701],[-58.72701,-38.54684],[-58.72684,-38.54669],[-58.72668,-38.54654],[-58.72667,-38.54627],[-58.72656,-38.54603],[-58.72647,-38.54588],[-58.72639,-38.54572],[-58.72648,-38.54565],[-58.72651,-38.5455],[-58.72658,-38.54519],[-58.72673,-38.54495],[-58.72693,-38.5447],[-58.72716,-38.54446],[-58.72736,-38.54426],[-58.72762,-38.54403],[-58.72776,-38.54389],[-58.72789,-38.54374],[-58.72812,-38.54353],[-58.72834,-38.54332],[-58.72846,-38.54318],[-58.72858,-38.54304],[-58.72873,-38.54289],[-58.72888,-38.54274],[-58.72905,-38.54254],[-58.72923,-38.54235],[-58.72936,-38.54219],[-58.7295,-38.54203],[-58.72959,-38.54184],[-58.72967,-38.54174],[-58.72977,-38.54154],[-58.72977,-38.54136],[-58.72976,-38.54118],[-58.72963,-38.54091],[-58.72951,-38.54064],[-58.72938,-38.54037],[-58.72925,-38.54019],[-58.72912,-38.54],[-58.72892,-38.53978],[-58.72873,-38.5396],[-58.72854,-38.53943],[-58.72833,-38.53928],[-58.72811,-38.53914],[-58.72792,-38.53901],[-58.72772,-38.53888],[-58.72742,-38.53879],[-58.72708,-38.53872],[-58.72685,-38.53867],[-58.72662,-38.53852],[-58.72661,-38.53851],[-58.72627,-38.53846],[-58.72593,-38.53842],[-58.72559,-38.53837],[-58.72525,-38.53832],[-58.72491,-38.53828],[-58.72456,-38.53823],[-58.7243,-38.53801],[-58.72404,-38.53779],[-58.72377,-38.53756],[-58.72351,-38.53734],[-58.72325,-38.53712],[-58.72298,-38.5369],[-58.72272,-38.53667],[-58.72245,-38.53645],[-58.72219,-38.53623],[-58.72193,-38.536],[-58.72166,-38.53578],[-58.7214,-38.53556],[-58.72113,-38.53533],[-58.72087,-38.53511],[-58.72061,-38.53489],[-58.72034,-38.53467],[-58.72008,-38.53444],[-58.71981,-38.53421],[-58.71953,-38.53398],[-58.71926,-38.53375],[-58.71898,-38.53352],[-58.71871,-38.53329],[-58.71844,-38.53306],[-58.71816,-38.53282],[-58.71789,-38.53259],[-58.71761,-38.53281],[-58.71733,-38.53303],[-58.71705,-38.53324],[-58.71677,-38.53346],[-58.71648,-38.53368],[-58.7162,-38.53389],[-58.71592,-38.53411],[-58.71564,-38.53433],[-58.71537,-38.53411],[-58.71509,-38.53388],[-58.71482,-38.53366],[-58.71454,-38.53344],[-58.71427,-38.53321],[-58.714,-38.53299],[-58.71372,-38.53277],[-58.71345,-38.53255],[-58.71317,-38.53232],[-58.7129,-38.5321],[-58.71262,-38.53188],[-58.71235,-38.53165],[-58.71208,-38.53143],[-58.7118,-38.53121],[-58.71208,-38.53099],[-58.71236,-38.53076],[-58.71264,-38.53054],[-58.71293,-38.53032],[-58.71321,-38.53009],[-58.71349,-38.52987],[-58.71377,-38.52965],[-58.71405,-38.52942],[-58.71377,-38.5292],[-58.7135,-38.52898],[-58.71323,-38.52875],[-58.71295,-38.52853],[-58.71268,-38.5283],[-58.7124,-38.52808],[-58.71213,-38.52786],[-58.71185,-38.52763],[-58.71158,-38.52741],[-58.7113,-38.52719],[-58.71103,-38.52696],[-58.71075,-38.52674],[-58.71048,-38.52651],[-58.7102,-38.52629],[-58.70993,-38.52607],[-58.70966,-38.52584],[-58.70938,-38.52562],[-58.70911,-38.52539],[-58.70883,-38.52517],[-58.70856,-38.52495],[-58.70828,-38.52472],[-58.70801,-38.5245],[-58.70773,-38.52428],[-58.70746,-38.52405],[-58.70718,-38.52383],[-58.70691,-38.5236],[-58.70663,-38.52338],[-58.70636,-38.52316],[-58.70608,-38.52293],[-58.70581,-38.52271],[-58.70554,-38.52248],[-58.70526,-38.52226],[-58.70499,-38.52204],[-58.70471,-38.52181],[-58.70444,-38.52159],[-58.70416,-38.52137],[-58.70389,-38.52114],[-58.70361,-38.52092],[-58.70334,-38.52069],[-58.70306,-38.52047],[-58.70279,-38.52025],[-58.70251,-38.52002],[-58.70224,-38.5198],[-58.70197,-38.51958],[-58.70169,-38.51935],[-58.70142,-38.51913],[-58.70114,-38.5189],[-58.70087,-38.51868],[-58.70059,-38.51846],[-58.70032,-38.51823],[-58.70004,-38.51801],[-58.69977,-38.51778],[-58.69949,-38.51756],[-58.69922,-38.51734],[-58.69894,-38.51711],[-58.69867,-38.51689],[-58.69839,-38.51667],[-58.69812,-38.51644],[-58.69785,-38.51622],[-58.69757,-38.51643],[-58.6973,-38.51665],[-58.69703,-38.51687],[-58.69676,-38.51708],[-58.69648,-38.5173],[-58.69621,-38.51752],[-58.69594,-38.51773],[-58.69567,-38.51795],[-58.69539,-38.51817],[-58.69512,-38.51838],[-58.69485,-38.5186],[-58.69458,-38.51882],[-58.6943,-38.51903],[-58.69403,-38.51925],[-58.69376,-38.51947],[-58.69348,-38.51924],[-58.69321,-38.51902],[-58.69293,-38.5188],[-58.69266,-38.51857],[-58.69238,-38.51835],[-58.69211,-38.51812],[-58.69183,-38.5179],[-58.69156,-38.51768],[-58.69128,-38.51745],[-58.69101,-38.51723],[-58.69074,-38.51701],[-58.69046,-38.51678],[-58.69019,-38.51656],[-58.68991,-38.51633],[-58.68964,-38.51611],[-58.68937,-38.51632],[-58.6891,-38.51653],[-58.68883,-38.51675],[-58.68856,-38.51696],[-58.68829,-38.51717],[-58.68802,-38.51738],[-58.68775,-38.51759],[-58.68749,-38.5178],[-58.68722,-38.51802],[-58.68695,-38.51823],[-58.68668,-38.51844],[-58.68641,-38.51865],[-58.68614,-38.51886],[-58.68587,-38.51908],[-58.6856,-38.51929]]]]}}]}
