{"type":"FeatureCollection","features":[{"type":"Feature","properties":{"highway":"trunk","name":"Ruta Nacional 228","ref":"RN228","osm":"way/22919425"},"geometry":{"type":"LineString","coordinates":[[-58.75608,-38.52362],[-58.75615,-38.52385],[-58.75622,-38.52399],[-58.75632,-38.52413],[-58.75704,-38.52473],[-58.75725,-38.52496]]}},{"type":"Feature","properties":{"highway":"trunk","ref":"RN228;RP86;076-09","osm":"way/41080277"},"geometry":{"type":"LineString","coordinates":[[-58.75536,-38.52398],[-58.75519,-38.52393],[-58.75505,-38.52384],[-58.75495,-38.52372],[-58.75491,-38.52358],[-58.75491,-38.52348],[-58.75496,-38.52335],[-58.75505,-38.52323],[-58.75518,-38.52314],[-58.75534,-38.52309],[-58.75551,-38.52307],[-58.7556,-38.52308],[-58.75578,-38.52313],[-58.75593,-38.52322],[-58.75604,-38.52335],[-58.75608,-38.52349],[-58.75608,-38.52362],[-58.75602,-38.52374],[-58.75592,-38.52385],[-58.75579,-38.52393],[-58.75563,-38.52398],[-58.75546,-38.524],[-58.75536,-38.52398]]}},{"type":"Feature","properties":{"highway":"trunk","name":"Ruta Nacional 228","ref":"RN228","osm":"way/41080283"},"geometry":{"type":"LineString","coordinates":[[-58.75725,-38.52496],[-58.75959,-38.52682],[-58.75993,-38.5271],[-58.76077,-38.52776],[-58.76341,-38.52986],[-58.76391,-38.53025],[-58.76581,-38.53179]]}},{"type":"Feature","properties":{"highway":"trunk","name":"Ruta Nacional 228","ref":"RN228","osm":"way/41080284"},"geometry":{"type":"LineString","coordinates":[[-58.75725,-38.52496],[-58.75694,-38.52478],[-58.75621,-38.52418],[-58.756,-38.52408],[-58.75578,-38.52403],[-58.75564,-38.52402],[-58.75546,-38.524]]}},{"type":"Feature","properties":{"highway":"primary","name":"Ruta Provincial 227","ref":"RP227","osm":"way/88819568"},"geometry":{"type":"LineString","coordinates":[[-58.67547,-38.38485],[-58.67514,-38.38568],[-58.67331,-38.39139],[-58.67276,-38.393],[-58.67227,-38.3945],[-58.67131,-38.39733],[-58.66917,-38.4035],[-58.66726,-38.40914],[-58.66592,-38.41274],[-58.65916,-38.43338],[-58.65902,-38.434],[-58.65893,-38.43448],[-58.65888,-38.43491],[-58.65887,-38.43546],[-58.6589,-38.43605],[-58.65898,-38.43663],[-58.6591,-38.43719],[-58.65931,-38.4379],[-58.65972,-38.43915],[-58.66312,-38.44979],[-58.66366,-38.45135],[-58.66457,-38.45419],[-58.66574,-38.45793],[-58.66742,-38.46304],[-58.66773,-38.46403],[-58.67548,-38.48797],[-58.68003,-38.50202],[-58.68101,-38.50509],[-58.68212,-38.50845],[-58.68242,-38.50926],[-58.68266,-38.50981],[-58.6829,-38.51023],[-58.68329,-38.51078],[-58.68363,-38.51128],[-58.68399,-38.51168],[-58.68439,-38.51205],[-58.68517,-38.51273],[-58.68701,-38.51413],[-58.68967,-38.51623],[-58.69292,-38.51885],[-58.69378,-38.51956],[-58.69512,-38.52067],[-58.69672,-38.52169],[-58.69821,-38.52273],[-58.6985,-38.52296]]}},{"type":"Feature","properties":{"highway":"primary","name":"Ruta Provincial 86 Gobernador Valentín Vergara","ref":"RP86","osm":"way/93673725"},"geometry":{"type":"LineString","coordinates":[[-58.75741,-38.52201],[-58.75731,-38.52216],[-58.75645,-38.52284],[-58.75631,-38.52298],[-58.75622,-38.52311],[-58.75616,-38.52325],[-58.75608,-38.52349]]}},{"type":"Feature","properties":{"highway":"primary","name":"Ruta Provincial 86 Gobernador Valentín Vergara","ref":"RP86","osm":"way/93673728"},"geometry":{"type":"LineString","coordinates":[[-58.7556,-38.52308],[-58.75598,-38.52296],[-58.75619,-38.52286],[-58.75634,-38.52274],[-58.7572,-38.52211],[-58.75741,-38.52201]]}},{"type":"Feature","properties":{"highway":"trunk","name":"Ruta Provincial 88 Ministro Pablo González Escarra","ref":"RP88","osm":"way/108705204"},"geometry":{"type":"LineString","coordinates":[[-58.46115,-38.42805],[-58.47161,-38.4314],[-58.47902,-38.43378],[-58.48516,-38.43575],[-58.48591,-38.43604],[-58.48741,-38.43666],[-58.49033,-38.43793],[-58.49277,-38.43895],[-58.50897,-38.44589],[-58.51597,-38.44889],[-58.5161,-38.44894],[-58.53317,-38.45582],[-58.53493,-38.45652],[-58.56051,-38.46793],[-58.56441,-38.46966],[-58.57737,-38.4753],[-58.57827,-38.47574],[-58.57873,-38.47599],[-58.57904,-38.47619],[-58.59242,-38.48468],[-58.60649,-38.49357],[-58.60708,-38.49393],[-58.60789,-38.49431],[-58.61483,-38.49719],[-58.62127,-38.49986],[-58.62146,-38.49994],[-58.62829,-38.50271],[-58.63555,-38.50575],[-58.63735,-38.50651],[-58.63821,-38.50688],[-58.63882,-38.50719],[-58.63947,-38.50758],[-58.64,-38.50794],[-58.64057,-38.50835],[-58.64113,-38.50881],[-58.64387,-38.51092],[-58.65048,-38.51609],[-58.65873,-38.52254],[-58.66415,-38.52676],[-58.66624,-38.52838],[-58.66738,-38.52931],[-58.66969,-38.53128],[-58.67,-38.53149]]}},{"type":"Feature","properties":{"highway":"trunk","name":"Ruta Nacional 228","ref":"RN228","osm":"way/110407398"},"geometry":{"type":"LineString","coordinates":[[-59.37015,-38.55983],[-59.37048,-38.55993],[-59.37072,-38.55997],[-59.37102,-38.55993]]}},{"type":"Feature","properties":{"highway":"trunk","name":"Ruta Nacional 228","ref":"RN228","osm":"way/110407407"},"geometry":{"type":"LineString","coordinates":[[-59.37247,-38.56047],[-59.37213,-38.56046],[-59.37196,-38.56048],[-59.37181,-38.56055]]}},{"type":"Feature","properties":{"highway":"trunk","ref":"RN228;RP72;RP75","osm":"way/110407408"},"geometry":{"type":"LineString","coordinates":[[-59.37193,-38.56024],[-59.37192,-38.56035],[-59.37188,-38.56046],[-59.37181,-38.56055],[-59.37177,-38.56059],[-59.37166,-38.56066],[-59.37152,-38.56071],[-59.37138,-38.56073],[-59.37129,-38.56072],[-59.37117,-38.5607],[-59.37106,-38.56066],[-59.37096,-38.5606],[-59.37088,-38.56053],[-59.37083,-38.56044],[-59.3708,-38.56035],[-59.37079,-38.56025],[-59.37081,-38.56016],[-59.37086,-38.56007],[-59.37093,-38.55999],[-59.37102,-38.55993],[-59.37115,-38.55987],[-59.37131,-38.55984],[-59.37146,-38.55984],[-59.37161,-38.55988],[-59.37175,-38.55995],[-59.37185,-38.56005],[-59.37191,-38.56016],[-59.37193,-38.56024]]}},{"type":"Feature","properties":{"highway":"trunk","name":"Ruta Nacional 228","ref":"RN228","osm":"way/110407409"},"geometry":{"type":"LineString","coordinates":[[-59.37193,-38.56024],[-59.372,-38.56028],[-59.37211,-38.56036],[-59.37227,-38.56042],[-59.37247,-38.56047]]}},{"type":"Feature","properties":{"highway":"trunk","name":"Ruta Nacional 228","ref":"RN228","osm":"way/110407410"},"geometry":{"type":"LineString","coordinates":[[-59.3708,-38.56035],[-59.37073,-38.56019],[-59.37062,-38.56008],[-59.37043,-38.55998],[-59.37015,-38.55983]]}},{"type":"Feature","properties":{"highway":"trunk","name":"Ruta Nacional 228","ref":"RN228","osm":"way/111747404"},"geometry":{"type":"LineString","coordinates":[[-58.77159,-38.53246],[-58.77523,-38.53244],[-58.77734,-38.5324],[-58.77823,-38.53239],[-58.78293,-38.53232],[-58.79904,-38.53205],[-58.81207,-38.53186],[-58.82527,-38.53167],[-58.82938,-38.5316],[-58.83995,-38.53146],[-58.85154,-38.53126],[-58.86318,-38.53106],[-58.86442,-38.53106],[-58.89706,-38.53048],[-58.92967,-38.52997],[-58.94356,-38.52973],[-58.94406,-38.52972],[-58.95275,-38.52957],[-58.96501,-38.5294],[-58.96793,-38.52936],[-58.96837,-38.52935],[-58.9794,-38.52917],[-58.98209,-38.52913],[-58.99026,-38.529],[-59.00524,-38.52876],[-59.0261,-38.52838],[-59.03841,-38.52816],[-59.07002,-38.52758],[-59.07315,-38.52755],[-59.07635,-38.52761],[-59.07822,-38.52767],[-59.08012,-38.52775],[-59.08336,-38.52798],[-59.08502,-38.52812],[-59.08667,-38.52826],[-59.09007,-38.52864],[-59.10651,-38.53047],[-59.1232,-38.53241],[-59.14092,-38.53444],[-59.15404,-38.53588],[-59.15769,-38.53629]]}},{"type":"Feature","properties":{"highway":"trunk","name":"Ruta Nacional 228","ref":"RN228","osm":"way/111747422"},"geometry":{"type":"LineString","coordinates":[[-58.76581,-38.53179],[-58.7662,-38.53203],[-58.7664,-38.53215],[-58.76657,-38.53222],[-58.76676,-38.53229],[-58.76697,-38.53234],[-58.76724,-38.53241],[-58.7675,-38.53245],[-58.76772,-38.53249],[-58.76847,-38.53249]]}},{"type":"Feature","properties":{"highway":"trunk","ref":"RP227;076-09","osm":"way/111772724"},"geometry":{"type":"LineString","coordinates":[[-58.70272,-38.53057],[-58.70259,-38.53057],[-58.70249,-38.53056],[-58.70241,-38.53053],[-58.70232,-38.53048],[-58.70228,-38.53044],[-58.70224,-38.53037],[-58.70223,-38.5303],[-58.70221,-38.53018],[-58.70223,-38.53013],[-58.70236,-38.52999],[-58.70244,-38.52992],[-58.70252,-38.52986],[-58.70264,-38.52979],[-58.70275,-38.52972],[-58.7029,-38.52967],[-58.70299,-38.52964],[-58.70309,-38.52965],[-58.70318,-38.52967],[-58.70328,-38.52971],[-58.70335,-38.52975],[-58.70339,-38.5298],[-58.70342,-38.52986],[-58.70343,-38.52995],[-58.70343,-38.53006],[-58.70338,-38.53015]]}},{"type":"Feature","properties":{"highway":"trunk","name":"Avenida Circunvalación","ref":"076-09","osm":"way/111772731"},"geometry":{"type":"LineString","coordinates":[[-58.75491,-38.52348],[-58.75478,-38.52308],[-58.75471,-38.52296],[-58.75462,-38.52284],[-58.75369,-38.52184],[-58.75344,-38.52146]]}},{"type":"Feature","properties":{"highway":"trunk","name":"Avenida Circunvalación","ref":"076-09","osm":"way/111772739"},"geometry":{"type":"LineString","coordinates":[[-58.70734,-38.52649],[-58.70699,-38.52683],[-58.70673,-38.52708],[-58.70633,-38.52754],[-58.70614,-38.52775],[-58.70575,-38.52809],[-58.70468,-38.5289],[-58.7044,-38.52911],[-58.70381,-38.52957],[-58.70374,-38.52963],[-58.70367,-38.5297],[-58.70362,-38.52976],[-58.70343,-38.53006]]}},{"type":"Feature","properties":{"highway":"trunk","name":"Avenida Circunvalación","ref":"076-09","osm":"way/111772741"},"geometry":{"type":"LineString","coordinates":[[-58.70299,-38.52964],[-58.70339,-38.52948],[-58.7035,-38.52941],[-58.70365,-38.5293],[-58.70443,-38.52869],[-58.70553,-38.52786],[-58.70599,-38.52752],[-58.70627,-38.52728],[-58.70653,-38.52707],[-58.70684,-38.52684],[-58.70734,-38.52649]]}},{"type":"Feature","properties":{"highway":"primary","name":"Ruta Provincial 227","ref":"RP227","osm":"way/111772745"},"geometry":{"type":"LineString","coordinates":[[-58.70201,-38.52924],[-58.70219,-38.52948],[-58.70226,-38.52954],[-58.70234,-38.52958],[-58.70243,-38.52962],[-58.70254,-38.52965],[-58.70265,-38.52966],[-58.70277,-38.52967],[-58.7029,-38.52967]]}},{"type":"Feature","properties":{"highway":"trunk","name":"Avenida Circunvalación","ref":"076-09","osm":"way/111772747"},"geometry":{"type":"LineString","coordinates":[[-58.70734,-38.52649],[-58.70898,-38.52524]]}},{"type":"Feature","properties":{"highway":"trunk","name":"Avenida Circunvalación","ref":"076-09","osm":"way/111772805"},"geometry":{"type":"LineString","coordinates":[[-58.68612,-38.54285],[-58.68703,-38.54215],[-58.68816,-38.54127],[-58.689,-38.54063],[-58.68902,-38.54061],[-58.68991,-38.5399],[-58.69108,-38.53902],[-58.69297,-38.53755],[-58.69491,-38.5361],[-58.69687,-38.53461],[-58.69886,-38.53308],[-58.70081,-38.53156],[-58.70176,-38.53085]]}},{"type":"Feature","properties":{"highway":"trunk","ref":"RP88;076-09","osm":"way/111772812"},"geometry":{"type":"LineString","coordinates":[[-58.68549,-38.54404],[-58.68533,-38.54411],[-58.68516,-38.54414],[-58.685,-38.54412],[-58.68482,-38.54406],[-58.68477,-38.54403],[-58.68467,-38.54396],[-58.68457,-38.54382],[-58.68454,-38.54367],[-58.68454,-38.54363],[-58.68459,-38.54349],[-58.68469,-38.54337],[-58.68482,-38.54328],[-58.68499,-38.54322],[-58.68513,-38.54321],[-58.68528,-38.54322],[-58.68544,-38.54328],[-58.68558,-38.54337],[-58.68567,-38.54348],[-58.68572,-38.54362],[-58.68573,-38.5437],[-58.68569,-38.54383],[-58.68561,-38.54395],[-58.68549,-38.54404]]}},{"type":"Feature","properties":{"highway":"trunk","name":"Ruta Provincial 88 Ministro Pablo González Escarra","ref":"RP88","osm":"way/111772813"},"geometry":{"type":"LineString","coordinates":[[-58.6844,-38.54307],[-58.68447,-38.54311],[-58.68456,-38.54315],[-58.68469,-38.54318],[-58.68499,-38.54322]]}},{"type":"Feature","properties":{"highway":"primary","name":"Ruta Provincial 227","ref":"RP227","osm":"way/111772820"},"geometry":{"type":"LineString","coordinates":[[-58.6985,-38.52296],[-58.69876,-38.52319],[-58.69909,-38.52351],[-58.69942,-38.52391],[-58.69966,-38.52423],[-58.69986,-38.52457],[-58.70015,-38.52514]]}},{"type":"Feature","properties":{"highway":"primary","name":"Ruta Provincial 227","ref":"RP227","osm":"way/111773261"},"geometry":{"type":"LineString","coordinates":[[-58.70178,-38.52871],[-58.70201,-38.52924]]}},{"type":"Feature","properties":{"highway":"trunk","name":"Avenida Circunvalación","ref":"076-09","osm":"way/111773362"},"geometry":{"type":"LineString","coordinates":[[-58.74052,-38.51499],[-58.74172,-38.51511]]}},{"type":"Feature","properties":{"highway":"trunk","name":"Ruta Nacional 228","ref":"RN228","osm":"way/134030212"},"geometry":{"type":"LineString","coordinates":[[-58.76841,-38.53257],[-58.7677,-38.53259],[-58.76735,-38.53256],[-58.76706,-38.53251],[-58.76679,-38.53241]]}},{"type":"Feature","properties":{"highway":"trunk","name":"Avenida Circunvalación","ref":"076-09","osm":"way/188990996"},"geometry":{"type":"LineString","coordinates":[[-58.75344,-38.52146],[-58.7538,-38.52178],[-58.75475,-38.52279],[-58.7549,-38.5229],[-58.75505,-38.52296],[-58.75551,-38.52307]]}},{"type":"Feature","properties":{"highway":"trunk","name":"Ruta Provincial 88 Ministro Pablo González Escarra","ref":"RP88","osm":"way/188991001"},"geometry":{"type":"LineString","coordinates":[[-58.68454,-38.54363],[-58.6845,-38.54348],[-58.68444,-38.54337],[-58.68438,-38.54329],[-58.68423,-38.54316]]}},{"type":"Feature","properties":{"highway":"primary","name":"Ruta Provincial 227","ref":"RP227","osm":"way/188991002"},"geometry":{"type":"LineString","coordinates":[[-58.70223,-38.53013],[-58.70225,-38.53005],[-58.70224,-38.52996],[-58.70223,-38.52985],[-58.70221,-38.52977],[-58.70216,-38.52959],[-58.70201,-38.52924]]}},{"type":"Feature","properties":{"highway":"trunk","name":"Ruta Nacional 228","ref":"RN228","osm":"way/192166416"},"geometry":{"type":"LineString","coordinates":[[-59.31517,-38.55379],[-59.33018,-38.55543],[-59.33935,-38.55642],[-59.34026,-38.5565],[-59.34044,-38.55651],[-59.3416,-38.55651],[-59.34228,-38.55647],[-59.34292,-38.55641],[-59.34364,-38.55629],[-59.34429,-38.55614],[-59.34517,-38.55591],[-59.34651,-38.55544],[-59.34752,-38.55496],[-59.34785,-38.55479],[-59.34817,-38.55463],[-59.34918,-38.55409],[-59.34991,-38.55376],[-59.35019,-38.55365],[-59.3505,-38.55355],[-59.35096,-38.55342],[-59.35126,-38.55336],[-59.35152,-38.55332],[-59.35192,-38.55329],[-59.35232,-38.5533],[-59.35267,-38.55335],[-59.35304,-38.55342],[-59.35341,-38.5535],[-59.35384,-38.55363],[-59.35429,-38.55379],[-59.36084,-38.55628],[-59.36946,-38.55957]]}},{"type":"Feature","properties":{"highway":"trunk","name":"Ruta Nacional 228","ref":"RN228","osm":"way/192166421"},"geometry":{"type":"LineString","coordinates":[[-59.31501,-38.55377],[-59.31517,-38.55379]]}},{"type":"Feature","properties":{"highway":"primary","name":"Ruta Provincial 86 Gobernador Valentín Vergara","ref":"RP86","osm":"way/192941516"},"geometry":{"type":"LineString","coordinates":[[-59.3234,-38.06525],[-59.32294,-38.06553]]}},{"type":"Feature","properties":{"highway":"primary","name":"Ruta Provincial 86 Gobernador Valentín Vergara","ref":"RP86","osm":"way/192941517"},"geometry":{"type":"LineString","coordinates":[[-59.54447,-37.91399],[-59.544,-37.91421]]}},{"type":"Feature","properties":{"highway":"primary","name":"Ruta Provincial 86 Gobernador Valentín Vergara","ref":"RP86","osm":"way/192941518"},"geometry":{"type":"LineString","coordinates":[[-59.32294,-38.06553],[-59.3197,-38.0676],[-59.30625,-38.07597],[-59.30441,-38.07712],[-59.30059,-38.07951],[-59.29778,-38.08127],[-59.29355,-38.08392],[-59.29299,-38.08429],[-59.29239,-38.08472],[-59.29193,-38.08508],[-59.29063,-38.08618],[-59.28976,-38.08697],[-59.28896,-38.0877],[-59.28883,-38.08783],[-59.28556,-38.09075],[-59.28088,-38.095],[-59.27611,-38.09933],[-59.26481,-38.10951],[-59.26053,-38.11339],[-59.25437,-38.11896],[-59.2538,-38.11947],[-59.25355,-38.11972],[-59.25339,-38.11991],[-59.24378,-38.13255],[-59.24344,-38.13296],[-59.24311,-38.13332],[-59.24285,-38.13358],[-59.24264,-38.13377],[-59.24215,-38.13414],[-59.24155,-38.13452],[-59.23821,-38.13666],[-59.2378,-38.13693],[-59.23543,-38.13843],[-59.23329,-38.13981],[-59.2328,-38.14014],[-59.2323,-38.1405],[-59.2319,-38.14086],[-59.23147,-38.14128],[-59.23119,-38.14162],[-59.23096,-38.14195],[-59.23065,-38.14246],[-59.2223,-38.158],[-59.22222,-38.15814],[-59.22041,-38.16152],[-59.21946,-38.16326],[-59.21811,-38.16577],[-59.21677,-38.16827],[-59.21532,-38.17098],[-59.21343,-38.17448],[-59.21253,-38.17612],[-59.21153,-38.178],[-59.21042,-38.18008],[-59.21025,-38.1804],[-59.20953,-38.1817],[-59.20921,-38.18224],[-59.20892,-38.18263],[-59.20863,-38.18296],[-59.2083,-38.18327],[-59.20798,-38.18355],[-59.20758,-38.18387],[-59.2071,-38.1842],[-59.20659,-38.18449],[-59.2061,-38.18472],[-59.20521,-38.18505],[-59.20316,-38.18586]]}},{"type":"Feature","properties":{"highway":"primary","name":"Ruta Provincial 86 Gobernador Valentín Vergara","ref":"RP86","osm":"way/192941519"},"geometry":{"type":"LineString","coordinates":[[-59.544,-37.91421],[-59.53305,-37.91896],[-59.50805,-37.92979],[-59.49777,-37.93426],[-59.49707,-37.93459],[-59.49642,-37.93491],[-59.4957,-37.9353],[-59.4952,-37.93562],[-59.49458,-37.93606],[-59.49388,-37.93663],[-59.49016,-37.93956],[-59.44853,-37.97231],[-59.43043,-37.98596],[-59.4288,-37.98719],[-59.40297,-38.00635],[-59.39782,-38.0102],[-59.39574,-38.0118],[-59.39227,-38.01431],[-59.3896,-38.01629],[-59.38712,-38.01813],[-59.38229,-38.02171],[-59.37256,-38.02937],[-59.36961,-38.03172],[-59.36597,-38.03448],[-59.36362,-38.03623],[-59.36223,-38.03723],[-59.36055,-38.03848],[-59.35979,-38.03904],[-59.35674,-38.04151],[-59.349,-38.04789],[-59.34696,-38.04959],[-59.34285,-38.05293],[-59.34236,-38.05328],[-59.34184,-38.05364],[-59.34122,-38.05405],[-59.33842,-38.05581],[-59.32837,-38.06214],[-59.3234,-38.06525]]}},{"type":"Feature","properties":{"highway":"trunk","name":"Avenida Circunvalación","ref":"076-09","osm":"way/320527144"},"geometry":{"type":"LineString","coordinates":[[-58.70184,-38.53093],[-58.7009,-38.53169],[-58.69959,-38.53269],[-58.69897,-38.53316],[-58.69698,-38.5347],[-58.69505,-38.5362],[-58.69406,-38.53694],[-58.69309,-38.53766],[-58.69231,-38.53827],[-58.69108,-38.53922],[-58.69004,-38.54001],[-58.68913,-38.54071],[-58.68911,-38.54072],[-58.68623,-38.54293]]}},{"type":"Feature","properties":{"highway":"primary","name":"Ruta Provincial 86 Gobernador Valentín Vergara","ref":"RP86","osm":"way/335277415"},"geometry":{"type":"LineString","coordinates":[[-59.8041,-37.69068],[-59.80147,-37.69281],[-59.79811,-37.69541],[-59.79121,-37.70065],[-59.78787,-37.70324],[-59.78321,-37.70681],[-59.78111,-37.70847],[-59.77648,-37.71205],[-59.76605,-37.71999],[-59.75715,-37.72692],[-59.74098,-37.73962],[-59.72183,-37.7547],[-59.721,-37.75539],[-59.72049,-37.75591],[-59.72006,-37.7564],[-59.71939,-37.75729],[-59.71887,-37.7581],[-59.71849,-37.75883],[-59.71773,-37.76034],[-59.7166,-37.7626],[-59.7149,-37.76593],[-59.71416,-37.76739],[-59.71307,-37.76948],[-59.71008,-37.77543],[-59.70788,-37.77973],[-59.70574,-37.78396],[-59.70386,-37.78757],[-59.69913,-37.79696],[-59.69859,-37.79794],[-59.69805,-37.79881],[-59.69568,-37.80234],[-59.69202,-37.80747],[-59.69144,-37.80829],[-59.6878,-37.81348],[-59.68319,-37.82004],[-59.67969,-37.82492],[-59.67925,-37.8254],[-59.67885,-37.82578],[-59.67844,-37.82616],[-59.67785,-37.8266],[-59.66313,-37.83665],[-59.64493,-37.8491],[-59.62671,-37.86154],[-59.61441,-37.86995],[-59.61089,-37.87233],[-59.58634,-37.88899],[-59.56744,-37.90184],[-59.56001,-37.90689],[-59.55923,-37.90737],[-59.55839,-37.90785],[-59.55781,-37.90814],[-59.54447,-37.91399]]}},{"type":"Feature","properties":{"highway":"trunk","name":"Avenida Circunvalación","ref":"076-09","osm":"way/368380146"},"geometry":{"type":"LineString","coordinates":[[-58.74172,-38.51511],[-58.74323,-38.51527],[-58.74411,-38.5154],[-58.7448,-38.51554],[-58.7454,-38.5157],[-58.74591,-38.51586],[-58.74634,-38.51602],[-58.7465,-38.51609],[-58.74694,-38.51627],[-58.74745,-38.51651],[-58.74794,-38.51681],[-58.74842,-38.51717],[-58.75246,-38.52048],[-58.7527,-38.52069],[-58.75344,-38.52146]]}},{"type":"Feature","properties":{"highway":"trunk","name":"Avenida Circunvalación","ref":"076-09","osm":"way/621346734"},"geometry":{"type":"LineString","coordinates":[[-58.70898,-38.52524],[-58.71584,-38.51993],[-58.72252,-38.51489],[-58.72318,-38.5145],[-58.72385,-38.51418],[-58.72442,-38.51397],[-58.72502,-38.51381],[-58.72576,-38.51367],[-58.72646,-38.51362],[-58.72725,-38.51362],[-58.72841,-38.5137],[-58.73049,-38.51392],[-58.73826,-38.51475],[-58.74052,-38.51499]]}},{"type":"Feature","properties":{"highway":"primary","name":"Ruta Provincial 86 Gobernador Valentín Vergara","ref":"RP86","osm":"way/629379088"},"geometry":{"type":"LineString","coordinates":[[-59.20316,-38.18586],[-59.20187,-38.18636]]}},{"type":"Feature","properties":{"highway":"primary","name":"Ruta Provincial 86 Gobernador Valentín Vergara","ref":"RP86","osm":"way/629379089"},"geometry":{"type":"LineString","coordinates":[[-59.20187,-38.18636],[-59.20017,-38.18699],[-59.19955,-38.18726],[-59.19906,-38.18752],[-59.19867,-38.18777],[-59.19826,-38.18809],[-59.19785,-38.18841],[-59.19759,-38.18867],[-59.1973,-38.18896],[-59.19707,-38.18926],[-59.19688,-38.18952],[-59.19661,-38.18997],[-59.19639,-38.19038],[-59.19609,-38.19098],[-59.19513,-38.19291],[-59.19503,-38.19311],[-59.19401,-38.19519],[-59.19348,-38.19628],[-59.1921,-38.19914],[-59.19096,-38.20149],[-59.19087,-38.20166],[-59.19072,-38.20198],[-59.19016,-38.20311],[-59.18937,-38.2045],[-59.18909,-38.20492],[-59.18873,-38.20539],[-59.18838,-38.20579],[-59.18806,-38.20611],[-59.18743,-38.20671],[-59.18178,-38.21137],[-59.17218,-38.21919],[-59.16498,-38.22511],[-59.15962,-38.22948],[-59.15617,-38.2323],[-59.15604,-38.23241],[-59.14477,-38.24167],[-59.14443,-38.24195],[-59.14421,-38.24214],[-59.14406,-38.24226],[-59.14323,-38.24294],[-59.13569,-38.24913],[-59.12449,-38.25822],[-59.12143,-38.26079],[-59.1194,-38.26249],[-59.1179,-38.26375],[-59.11621,-38.26531],[-59.11572,-38.26574],[-59.10038,-38.27955],[-59.09981,-38.28007],[-59.09668,-38.2829],[-59.09336,-38.28581],[-59.0884,-38.29033],[-59.08408,-38.29411],[-59.08004,-38.29774],[-59.07841,-38.29923],[-59.07779,-38.29979],[-59.07723,-38.30027],[-59.07641,-38.30084],[-59.0757,-38.30129],[-59.07497,-38.30167],[-59.07423,-38.30199],[-59.07102,-38.30326],[-59.06374,-38.30604],[-59.05882,-38.30803],[-59.05802,-38.30835],[-59.0485,-38.3121],[-59.03284,-38.31824],[-59.01658,-38.32457],[-59.01481,-38.32523],[-59.01369,-38.32568],[-59.01251,-38.32621],[-59.01191,-38.32651],[-59.01137,-38.32685],[-59.0088,-38.32872],[-59.00558,-38.33123],[-59.00118,-38.33461],[-58.99986,-38.33562],[-58.99566,-38.33889],[-58.99286,-38.34103],[-58.99176,-38.34189],[-58.98873,-38.34422],[-58.98624,-38.34614],[-58.98305,-38.34863],[-58.98049,-38.35058],[-58.97762,-38.35281],[-58.97386,-38.35572],[-58.97111,-38.35786],[-58.96982,-38.35887],[-58.94326,-38.37939],[-58.93593,-38.38506],[-58.93345,-38.38695],[-58.9301,-38.38954],[-58.92638,-38.39245],[-58.92421,-38.39409],[-58.91974,-38.39753],[-58.91459,-38.40149],[-58.91439,-38.40164],[-58.91,-38.40504],[-58.90507,-38.40884],[-58.90501,-38.40888],[-58.90307,-38.41038],[-58.89536,-38.41637],[-58.89188,-38.419],[-58.89115,-38.41958],[-58.89063,-38.42004],[-58.88997,-38.42072],[-58.88703,-38.42451],[-58.88659,-38.42492],[-58.88619,-38.42527],[-58.88552,-38.42575],[-58.8849,-38.42612],[-58.88423,-38.42647],[-58.88135,-38.42778],[-58.88035,-38.42823],[-58.87953,-38.42867],[-58.8789,-38.42901],[-58.87809,-38.42954],[-58.87689,-38.43043],[-58.87331,-38.43324],[-58.86671,-38.4383],[-58.85498,-38.44742],[-58.84752,-38.45314],[-58.8401,-38.45891],[-58.83702,-38.46131],[-58.82706,-38.46897],[-58.81685,-38.4768],[-58.81355,-38.47938],[-58.81175,-38.48071],[-58.81045,-38.4817],[-58.80674,-38.48454],[-58.80057,-38.48926],[-58.78909,-38.49803],[-58.7882,-38.49871],[-58.78789,-38.49896],[-58.78744,-38.49933],[-58.78657,-38.50006],[-58.7862,-38.50037],[-58.7795,-38.50552],[-58.77127,-38.51176],[-58.76686,-38.51502],[-58.76536,-38.5161],[-58.76384,-38.51719],[-58.75741,-38.52201]]}},{"type":"Feature","properties":{"highway":"trunk","name":"Ruta Nacional 228","ref":"RN228","osm":"way/631345369"},"geometry":{"type":"LineString","coordinates":[[-59.15769,-38.53629],[-59.15785,-38.53631]]}},{"type":"Feature","properties":{"highway":"trunk","name":"Ruta Nacional 228","ref":"RN228","osm":"way/631345370"},"geometry":{"type":"LineString","coordinates":[[-59.15785,-38.53631],[-59.16173,-38.53673],[-59.17164,-38.53786],[-59.20308,-38.54144],[-59.20635,-38.5418],[-59.20712,-38.54189],[-59.26021,-38.54777],[-59.29949,-38.55207],[-59.31501,-38.55377]]}},{"type":"Feature","properties":{"highway":"primary","name":"Ruta Provincial 227","ref":"RP227","osm":"way/675373967"},"geometry":{"type":"LineString","coordinates":[[-58.70033,-38.5255],[-58.70044,-38.52574]]}},{"type":"Feature","properties":{"highway":"primary","name":"Ruta Provincial 227","ref":"RP227","osm":"way/675373968"},"geometry":{"type":"LineString","coordinates":[[-58.70015,-38.52514],[-58.70033,-38.5255]]}},{"type":"Feature","properties":{"highway":"primary","name":"Ruta Provincial 227","ref":"RP227","osm":"way/675373969"},"geometry":{"type":"LineString","coordinates":[[-58.70044,-38.52574],[-58.70067,-38.52625]]}},{"type":"Feature","properties":{"highway":"primary","name":"Ruta Provincial 227","ref":"RP227","osm":"way/675373970"},"geometry":{"type":"LineString","coordinates":[[-58.70067,-38.52625],[-58.70178,-38.52871]]}},{"type":"Feature","properties":{"highway":"trunk","name":"Ruta Provincial 88 Ministro Pablo González Escarra","ref":"RP88","osm":"way/780264404"},"geometry":{"type":"LineString","coordinates":[[-58.67,-38.53149],[-58.67046,-38.5318],[-58.67191,-38.53296],[-58.67404,-38.53469],[-58.67769,-38.53767],[-58.6813,-38.54059],[-58.68259,-38.54163],[-58.68415,-38.54291]]}},{"type":"Feature","properties":{"highway":"trunk","name":"Ruta Provincial 88 Ministro Pablo González Escarra","ref":"RP88","osm":"way/780264405"},"geometry":{"type":"LineString","coordinates":[[-58.68415,-38.54291],[-58.6844,-38.54307]]}},{"type":"Feature","properties":{"highway":"trunk","name":"Ruta Provincial 88 Ministro Pablo González Escarra","ref":"RP88","osm":"way/780264406"},"geometry":{"type":"LineString","coordinates":[[-58.68423,-38.54316],[-58.68403,-38.54299]]}},{"type":"Feature","properties":{"highway":"trunk","name":"Ruta Provincial 88 Ministro Pablo González Escarra","ref":"RP88","osm":"way/780264407"},"geometry":{"type":"LineString","coordinates":[[-58.68403,-38.54299],[-58.6837,-38.54272],[-58.68353,-38.54259],[-58.68235,-38.54163],[-58.68127,-38.54074],[-58.67719,-38.53743],[-58.67552,-38.53608],[-58.67393,-38.53478],[-58.67388,-38.53473],[-58.67023,-38.53174],[-58.67,-38.53149]]}},{"type":"Feature","properties":{"highway":"trunk","ref":"RP227;076-09","osm":"way/963254498"},"geometry":{"type":"LineString","coordinates":[[-58.70338,-38.53015],[-58.70334,-38.53021],[-58.70327,-38.53028],[-58.70321,-38.53033],[-58.703,-38.53046],[-58.70286,-38.53053],[-58.70272,-38.53057]]}},{"type":"Feature","properties":{"highway":"trunk","name":"Avenida Circunvalación","ref":"076-09","osm":"way/963254499"},"geometry":{"type":"LineString","coordinates":[[-58.70272,-38.53057],[-58.70255,-38.53061],[-58.70235,-38.53068],[-58.70217,-38.53075],[-58.70201,-38.53083],[-58.70184,-38.53093]]}},{"type":"Feature","properties":{"highway":"trunk","name":"Ruta Nacional 228","ref":"RN228","osm":"way/1246242729"},"geometry":{"type":"LineString","coordinates":[[-58.76852,-38.53257],[-58.76841,-38.53257]]}},{"type":"Feature","properties":{"highway":"trunk","name":"Ruta Nacional 228","ref":"RN228","osm":"way/1246242730"},"geometry":{"type":"LineString","coordinates":[[-58.76942,-38.53257],[-58.76852,-38.53257]]}},{"type":"Feature","properties":{"highway":"trunk","name":"Ruta Nacional 228","ref":"RN228","osm":"way/1246242733"},"geometry":{"type":"LineString","coordinates":[[-58.76847,-38.53249],[-58.77021,-38.53246],[-58.77067,-38.53248]]}},{"type":"Feature","properties":{"highway":"trunk","name":"Ruta Nacional 228","ref":"RN228","osm":"way/1246242734"},"geometry":{"type":"LineString","coordinates":[[-58.77067,-38.53248],[-58.77016,-38.53256],[-58.76942,-38.53257]]}},{"type":"Feature","properties":{"highway":"trunk","name":"Ruta Nacional 228","ref":"RN228","osm":"way/1246242735"},"geometry":{"type":"LineString","coordinates":[[-58.76679,-38.53241],[-58.76662,-38.53235],[-58.76644,-38.53226],[-58.76628,-38.53217],[-58.76608,-38.53204],[-58.76581,-38.53179]]}},{"type":"Feature","properties":{"highway":"trunk","name":"Ruta Nacional 228","ref":"RN228","osm":"way/1562215689"},"geometry":{"type":"LineString","coordinates":[[-59.37247,-38.56047],[-59.37295,-38.56048],[-59.37352,-38.56046]]}},{"type":"Feature","properties":{"highway":"trunk","name":"Ruta Nacional 228","ref":"RN228","osm":"way/1562215692"},"geometry":{"type":"LineString","coordinates":[[-59.36946,-38.55957],[-59.37015,-38.55983]]}},{"type":"Feature","properties":{"highway":"trunk","name":"Ruta Nacional 228","ref":"RN228","osm":"way/1562215693"},"geometry":{"type":"LineString","coordinates":[[-58.77067,-38.53248],[-58.77081,-38.53247],[-58.77116,-38.53247],[-58.77159,-38.53246]]}},{"type":"Feature","properties":{"highway":"trunk","name":"Avenida Circunvalación","ref":"076-09","osm":"way/1562215696"},"geometry":{"type":"LineString","coordinates":[[-58.70176,-38.53085],[-58.70191,-38.53069],[-58.70199,-38.53058],[-58.70208,-38.53042],[-58.70221,-38.53018]]}},{"type":"Feature","properties":{"highway":"trunk","name":"Avenida Circunvalación","ref":"076-09","osm":"way/1562215697"},"geometry":{"type":"LineString","coordinates":[[-58.68623,-38.54293],[-58.68593,-38.54316],[-58.68584,-38.54326],[-58.68579,-38.54335],[-58.68572,-38.54362]]}},{"type":"Feature","properties":{"highway":"trunk","name":"Avenida Circunvalación","ref":"076-09","osm":"way/1562215698"},"geometry":{"type":"LineString","coordinates":[[-58.68528,-38.54322],[-58.6855,-38.54317],[-58.68568,-38.54311],[-58.68591,-38.54299],[-58.68612,-38.54285]]}}]}
