{"type":"FeatureCollection","features":[{"type":"Feature","properties":{"fna":"Puente Colgante Presidente Hipólito Yrigoyen","gna":"Puente Colgante","nam":"Presidente Hipólito Yrigoyen","fdc":"Portal Municipio de Necochea","sag":"IGN","tipo":"Puente","ign":"puntos_de_cruces_y_enlaces_AQ040.102136"},"geometry":{"type":"Point","coordinates":[-58.72596,-38.55185]}},{"type":"Feature","properties":{"fna":"Puente Dardo Rocha","gna":"Puente","nam":"Dardo Rocha","fdc":"Portal Municipio de Necochea","sag":"IGN","tipo":"Puente","ign":"puntos_de_cruces_y_enlaces_AQ040.102137"},"geometry":{"type":"Point","coordinates":[-58.71972,-38.56228]}},{"type":"Feature","properties":{"fdc":"IGN","sag":"IGN","tipo":"Puente","ign":"puntos_de_cruces_y_enlaces_AQ040.103753"},"geometry":{"type":"Point","coordinates":[-59.51254,-38.02662]}},{"type":"Feature","properties":{"fdc":"IGN","sag":"IGN","tipo":"Puente","ign":"puntos_de_cruces_y_enlaces_AQ040.103754"},"geometry":{"type":"Point","coordinates":[-59.33731,-38.09061]}},{"type":"Feature","properties":{"fdc":"IGN","sag":"IGN","tipo":"Puente","ign":"puntos_de_cruces_y_enlaces_AQ040.103755"},"geometry":{"type":"Point","coordinates":[-59.33105,-38.08356]}},{"type":"Feature","properties":{"fdc":"IGN","sag":"IGN","tipo":"Puente","ign":"puntos_de_cruces_y_enlaces_AQ040.103756"},"geometry":{"type":"Point","coordinates":[-59.32325,-38.06546]}},{"type":"Feature","properties":{"fdc":"IGN","sag":"IGN","tipo":"Puente","ign":"puntos_de_cruces_y_enlaces_AQ040.103765"},"geometry":{"type":"Point","coordinates":[-58.9528,-38.16526]}},{"type":"Feature","properties":{"fdc":"IGN","sag":"IGN","tipo":"Puente","ign":"puntos_de_cruces_y_enlaces_AQ040.103767"},"geometry":{"type":"Point","coordinates":[-59.11672,-38.1978]}},{"type":"Feature","properties":{"fdc":"IGN","sag":"IGN","tipo":"Puente","ign":"puntos_de_cruces_y_enlaces_AQ040.103768"},"geometry":{"type":"Point","coordinates":[-59.1115,-38.21989]}},{"type":"Feature","properties":{"fdc":"IGN","sag":"IGN","tipo":"Puente","ign":"puntos_de_cruces_y_enlaces_AQ040.103769"},"geometry":{"type":"Point","coordinates":[-59.20236,-38.186]}},{"type":"Feature","properties":{"fdc":"IGN","sag":"IGN","tipo":"Puente","ign":"puntos_de_cruces_y_enlaces_AQ040.103775"},"geometry":{"type":"Point","coordinates":[-59.34879,-38.29512]}},{"type":"Feature","properties":{"fdc":"IGN","sag":"IGN","tipo":"Puente","ign":"puntos_de_cruces_y_enlaces_AQ040.103776"},"geometry":{"type":"Point","coordinates":[-59.25927,-38.29208]}},{"type":"Feature","properties":{"fdc":"IGN","sag":"IGN","tipo":"Puente","ign":"puntos_de_cruces_y_enlaces_AQ040.109983"},"geometry":{"type":"Point","coordinates":[-58.76154,-38.46067]}},{"type":"Feature","properties":{"fna":"Puente Intendente Municipal Dr. Domingo José Taraborelli","gna":"Puente","nam":"Intendente Municipal Dr. Domingo José Taraborelli","fdc":"IGN/Ley provincial Nº 12480","sag":"IGN","tipo":"Puente","ign":"puntos_de_cruces_y_enlaces_AQ040.109984"},"geometry":{"type":"Point","coordinates":[-58.74034,-38.51504]}},{"type":"Feature","properties":{"fdc":"IGN","sag":"IGN","tipo":"Vado","ign":"puntos_de_cruces_y_enlaces_BH070.108093"},"geometry":{"type":"Point","coordinates":[-59.35465,-38.11433]}},{"type":"Feature","properties":{"fdc":"IGN","sag":"IGN","tipo":"Vado","ign":"puntos_de_cruces_y_enlaces_BH070.108094"},"geometry":{"type":"Point","coordinates":[-59.20135,-38.06648]}}]}
