{"type":"FeatureCollection","features":[{"type":"Feature","properties":{"fna":"Puerto Quequén","gna":"Puerto","nam":"Quequén","fdc":"IGN/Min. de Transporte","sag":"IGN","tipo":"Puerto","ign":"puntos_de_puertos_y_muelles_BB005.246"},"geometry":{"type":"Point","coordinates":[-58.70264,-38.5766]}},{"type":"Feature","properties":{"fdc":"IGN","sag":"IGN","tipo":"Rompeolas","ign":"lineas_de_puertos_y_muelles_BB041.729"},"geometry":{"type":"MultiLineString","coordinates":[[[-58.70138,-38.58123],[-58.69783,-38.58391],[-58.693,-38.58562],[-58.68947,-38.58793]]]}},{"type":"Feature","properties":{"fdc":"IGN","sag":"IGN","tipo":"Rompeolas","ign":"lineas_de_puertos_y_muelles_BB041.730"},"geometry":{"type":"MultiLineString","coordinates":[[[-58.69665,-38.57908],[-58.69679,-38.58098],[-58.6965,-38.58186]]]}},{"type":"Feature","properties":{"fdc":"IGN","sag":"IGN","tipo":"Rompeolas","ign":"puntos_de_puertos_y_muelles_BB041.198"},"geometry":{"type":"Point","coordinates":[-58.69311,-38.58567]}},{"type":"Feature","properties":{"fdc":"IGN","sag":"IGN","tipo":"Rompeolas","ign":"puntos_de_puertos_y_muelles_BB041.204"},"geometry":{"type":"Point","coordinates":[-58.69668,-38.57925]}},{"type":"Feature","properties":{"fna":"Faro Quequén","gna":"Faro","nam":"Quequén","fdc":"IGN/SHN","sag":"IGN","tipo":"Faro","ign":"ayuda_a_la_navegacion_BC050.384"},"geometry":{"type":"Point","coordinates":[-58.68918,-38.56711]}},{"type":"Feature","properties":{"fna":"Baliza Escollera Sur","gna":"Baliza","nam":"Escollera Sur","fdc":"IGN/SHN","sag":"IGN","tipo":"Baliza","ign":"ayuda_a_la_navegacion_BC101.398"},"geometry":{"type":"Point","coordinates":[-58.68956,-38.58778]}},{"type":"Feature","properties":{"fna":"Baliza Escollera Norte","gna":"Baliza","nam":"Escollera Norte","fdc":"IGN/SHN","sag":"IGN","tipo":"Baliza","ign":"ayuda_a_la_navegacion_BC101.399"},"geometry":{"type":"Point","coordinates":[-58.69651,-38.58181]}},{"type":"Feature","properties":{"fna":"Estación Quequén","gna":"Estación","nam":"Quequén","fdc":"IGN/SHN","sag":"IGN","tipo":"Mareógrafo","ign":"mareas_y_corrientes_BG020.39"},"geometry":{"type":"Point","coordinates":[-58.70599,-38.57523]}}]}
