{"type":"FeatureCollection","features":[{"type":"Feature","properties":{"rtn":"228","typ":40,"rst":1,"hct":1,"fdc":"Dirección Nacional de Vialidad","sag":"IGN","tipo":"Ruta nacional","ign":"vial_nacional.630"},"geometry":{"type":"MultiLineString","coordinates":[[[-58.77075,-38.53251],[-58.77108,-38.53249],[-58.77523,-38.53247],[-58.77734,-38.53243],[-58.79877,-38.53208],[-58.81207,-38.53186],[-58.82527,-38.53167],[-58.82938,-38.5316],[-58.83995,-38.53146],[-58.85154,-38.53126],[-58.86318,-38.53106],[-58.86442,-38.53106],[-58.89706,-38.53048],[-58.92967,-38.52997],[-58.94356,-38.52973],[-58.9555,-38.52952],[-58.96793,-38.52936],[-58.98036,-38.52916],[-59.00524,-38.52876],[-59.0261,-38.52838],[-59.03841,-38.52816],[-59.07002,-38.52758],[-59.07229,-38.52756],[-59.07315,-38.52755],[-59.07635,-38.52761],[-59.07822,-38.52767],[-59.08012,-38.52775],[-59.08336,-38.52798],[-59.08502,-38.52812],[-59.08667,-38.52826],[-59.09007,-38.52864],[-59.10623,-38.53047],[-59.10639,-38.53049],[-59.1232,-38.53241],[-59.14092,-38.53444],[-59.15404,-38.53588],[-59.15769,-38.53629],[-59.15785,-38.53631],[-59.16173,-38.53673],[-59.17164,-38.53786],[-59.20308,-38.54144],[-59.20635,-38.5418],[-59.20712,-38.54189],[-59.22923,-38.54434],[-59.26021,-38.54777],[-59.29949,-38.55207],[-59.31501,-38.55377],[-59.31517,-38.55379],[-59.33018,-38.55543],[-59.33935,-38.55642],[-59.34026,-38.5565],[-59.34044,-38.55651],[-59.34147,-38.55652],[-59.34228,-38.55647],[-59.34292,-38.55641],[-59.34364,-38.55629],[-59.34429,-38.55614],[-59.34517,-38.55591],[-59.34651,-38.55544],[-59.34752,-38.55496],[-59.34785,-38.55479],[-59.34817,-38.55463],[-59.34918,-38.55409],[-59.34991,-38.55376],[-59.35019,-38.55365],[-59.3505,-38.55355],[-59.35096,-38.55342],[-59.35126,-38.55336],[-59.35152,-38.55332],[-59.3519,-38.55331],[-59.35229,-38.55332],[-59.35265,-38.55336],[-59.35302,-38.55343],[-59.35339,-38.55352],[-59.35382,-38.55365],[-59.35427,-38.5538],[-59.37015,-38.55983]]]}},{"type":"Feature","properties":{"rtn":"228","typ":40,"rst":1,"hct":1,"fdc":"Dirección Nacional de Vialidad","sag":"IGN","tipo":"Ruta nacional","ign":"vial_nacional.631"},"geometry":{"type":"MultiLineString","coordinates":[[[-58.76563,-38.53172],[-58.76592,-38.53189],[-58.76641,-38.5322],[-58.76689,-38.53237],[-58.76727,-38.53246],[-58.76771,-38.5325],[-58.76844,-38.5325],[-58.76967,-38.53248],[-58.77075,-38.53251]]]}},{"type":"Feature","properties":{"rtn":"228","typ":40,"rst":1,"hct":1,"fdc":"Dirección Nacional de Vialidad","sag":"IGN","tipo":"Ruta nacional","ign":"vial_nacional.632"},"geometry":{"type":"MultiLineString","coordinates":[[[-58.77075,-38.53251],[-58.77016,-38.53256],[-58.76942,-38.53257],[-58.76848,-38.53259],[-58.76837,-38.5326],[-58.7677,-38.53259],[-58.76721,-38.53255],[-58.76674,-38.53243],[-58.76634,-38.53226],[-58.76584,-38.53193],[-58.76563,-38.53172]]]}},{"type":"Feature","properties":{"rtn":"228","typ":40,"rst":1,"hct":1,"fdc":"Dirección Nacional de Vialidad","sag":"IGN","tipo":"Ruta nacional","ign":"vial_nacional.633"},"geometry":{"type":"MultiLineString","coordinates":[[[-58.75725,-38.52496],[-58.75959,-38.52682],[-58.75993,-38.5271],[-58.76077,-38.52776],[-58.76341,-38.52986],[-58.76397,-38.53027],[-58.76563,-38.53172]]]}},{"type":"Feature","properties":{"rtn":"228","typ":40,"rst":1,"hct":1,"fdc":"Dirección Nacional de Vialidad","sag":"IGN","tipo":"Ruta nacional","ign":"vial_nacional.634"},"geometry":{"type":"MultiLineString","coordinates":[[[-58.75725,-38.52496],[-58.75694,-38.52478],[-58.75621,-38.52418],[-58.756,-38.52408],[-58.75578,-38.52403],[-58.75564,-38.52402],[-58.75546,-38.524]]]}},{"type":"Feature","properties":{"rtn":"228","typ":40,"rst":1,"hct":1,"fdc":"Dirección Nacional de Vialidad","sag":"IGN","tipo":"Ruta nacional","ign":"vial_nacional.635"},"geometry":{"type":"MultiLineString","coordinates":[[[-58.75608,-38.52362],[-58.75615,-38.52385],[-58.75622,-38.52399],[-58.75632,-38.52413],[-58.75704,-38.52473],[-58.75725,-38.52496]]]}},{"type":"Feature","properties":{"rtn":"227","typ":40,"rst":1,"hct":2,"fdc":"DVP Buenos Aires","sag":"IGN","tipo":"Ruta provincial","ign":"vial_provincial.2899"},"geometry":{"type":"MultiLineString","coordinates":[[[-58.70207,-38.52937],[-58.70219,-38.52948],[-58.70226,-38.52954],[-58.70234,-38.52958],[-58.70243,-38.52962],[-58.70254,-38.52965],[-58.70265,-38.52966],[-58.70277,-38.52967],[-58.7029,-38.52967]]]}},{"type":"Feature","properties":{"rtn":"227","typ":40,"rst":1,"hct":2,"fdc":"DVP Buenos Aires","sag":"IGN","tipo":"Ruta provincial","ign":"vial_provincial.2900"},"geometry":{"type":"MultiLineString","coordinates":[[[-58.70223,-38.53013],[-58.70225,-38.53005],[-58.70224,-38.52996],[-58.70223,-38.52985],[-58.70221,-38.52977],[-58.70216,-38.52959],[-58.70207,-38.52937]]]}},{"type":"Feature","properties":{"rtn":"227","typ":40,"rst":1,"hct":2,"fdc":"DVP Buenos Aires","sag":"IGN","tipo":"Ruta provincial","ign":"vial_provincial.2901"},"geometry":{"type":"MultiLineString","coordinates":[[[-58.67509,-38.38581],[-58.6733,-38.39136],[-58.67278,-38.39304],[-58.67229,-38.39446],[-58.67135,-38.39731],[-58.66718,-38.40946],[-58.65972,-38.43175],[-58.65927,-38.433],[-58.65919,-38.43323],[-58.65915,-38.43335],[-58.65898,-38.43401],[-58.65887,-38.43479],[-58.65887,-38.43549],[-58.65893,-38.43601],[-58.65901,-38.4366],[-58.65915,-38.43724],[-58.65971,-38.43909],[-58.66319,-38.44985],[-58.6675,-38.46314],[-58.66777,-38.46403],[-58.68006,-38.50199],[-58.68106,-38.50511],[-58.6821,-38.50832],[-58.68246,-38.50928],[-58.68271,-38.50982],[-58.68294,-38.51022],[-58.68334,-38.51086],[-58.68403,-38.51168],[-58.68512,-38.51267],[-58.68702,-38.51415],[-58.68977,-38.51633],[-58.69287,-38.5188],[-58.69377,-38.51954],[-58.69668,-38.52171],[-58.69834,-38.52282],[-58.69854,-38.52297],[-58.69879,-38.52319],[-58.69919,-38.52359],[-58.69956,-38.52403],[-58.69972,-38.52426],[-58.69991,-38.52459],[-58.70019,-38.52516],[-58.70034,-38.52548],[-58.70051,-38.52588],[-58.70066,-38.52621],[-58.70124,-38.52758],[-58.70175,-38.52861],[-58.70207,-38.52937]]]}},{"type":"Feature","properties":{"rtn":"30","typ":40,"rst":3,"hct":2,"fdc":"DVP Buenos Aires","sag":"IGN","tipo":"Ruta provincial","ign":"vial_provincial.3115"},"geometry":{"type":"MultiLineString","coordinates":[[[-59.18905,-37.54784],[-59.18946,-37.55273],[-59.18995,-37.55827],[-59.19081,-37.57067],[-59.1915,-37.57953],[-59.19237,-37.59069],[-59.19247,-37.59204],[-59.19314,-37.60142],[-59.19352,-37.60554],[-59.19352,-37.60615],[-59.19359,-37.60648],[-59.19372,-37.60675],[-59.19448,-37.60775],[-59.197,-37.61175],[-59.19709,-37.61195],[-59.19714,-37.61213],[-59.19714,-37.61232],[-59.19712,-37.61249],[-59.19536,-37.61463],[-59.1951,-37.61499],[-59.1949,-37.6153],[-59.19409,-37.6177],[-59.19397,-37.61817],[-59.1938,-37.61842],[-59.19349,-37.61878],[-59.19107,-37.62168],[-59.18729,-37.62626],[-59.17951,-37.63554],[-59.17933,-37.63571],[-59.17918,-37.63596],[-59.17897,-37.63633],[-59.17406,-37.64724],[-59.17369,-37.64784],[-59.16979,-37.65167],[-59.16959,-37.65192],[-59.16945,-37.65218],[-59.16672,-37.65935],[-59.16588,-37.66154],[-59.16585,-37.66205],[-59.16703,-37.67304],[-59.16754,-37.6772],[-59.16782,-37.67959],[-59.16818,-37.68278],[-59.1681,-37.68299],[-59.16797,-37.68317],[-59.16776,-37.68337],[-59.16502,-37.68586],[-59.16476,-37.68607],[-59.15912,-37.69099],[-59.15693,-37.69282],[-59.15622,-37.69342],[-59.15491,-37.69445],[-59.15464,-37.69473],[-59.15258,-37.69714],[-59.15236,-37.6973],[-59.15213,-37.69739],[-59.1515,-37.69763],[-59.14657,-37.6998],[-59.14079,-37.70245],[-59.14022,-37.70271],[-59.13992,-37.70293],[-59.13676,-37.70601],[-59.13599,-37.70689],[-59.13544,-37.70714],[-59.12431,-37.71328],[-59.12348,-37.71371],[-59.12153,-37.71474],[-59.12115,-37.71504],[-59.11923,-37.71707],[-59.11832,-37.71789],[-59.11779,-37.71816],[-59.11727,-37.71839],[-59.11683,-37.7185],[-59.11634,-37.71854],[-59.11556,-37.71847],[-59.10985,-37.71761],[-59.10922,-37.71758],[-59.10886,-37.71762],[-59.10851,-37.71777],[-59.10246,-37.72246],[-59.10134,-37.72343],[-59.10074,-37.72392],[-59.09977,-37.72462],[-59.09913,-37.72512],[-59.09874,-37.72523],[-59.09844,-37.72518],[-59.09786,-37.72471],[-59.09761,-37.72464],[-59.0974,-37.72469],[-59.09737,-37.72472],[-59.09736,-37.72473],[-59.09696,-37.72514],[-59.09655,-37.72564],[-59.09583,-37.72722],[-59.09557,-37.72738],[-59.09527,-37.72741],[-59.09502,-37.72729],[-59.09263,-37.72598],[-59.09078,-37.72512],[-59.0881,-37.72403],[-59.08768,-37.72395],[-59.08742,-37.72398],[-59.08617,-37.72411],[-59.08487,-37.72427],[-59.08451,-37.72438],[-59.08304,-37.72519],[-59.0822,-37.72568],[-59.08165,-37.72609],[-59.07993,-37.72761],[-59.07903,-37.72837],[-59.07865,-37.72854],[-59.07727,-37.72906],[-59.07448,-37.73038],[-59.07412,-37.73059],[-59.07357,-37.73103],[-59.06879,-37.73647],[-59.06869,-37.73667],[-59.06861,-37.73689],[-59.06828,-37.74058],[-59.06839,-37.74086],[-59.07355,-37.74685],[-59.07362,-37.74707],[-59.07357,-37.74725],[-59.05895,-37.75848],[-59.04298,-37.77072],[-59.04293,-37.77074],[-59.04289,-37.77073],[-59.04283,-37.77072],[-59.04277,-37.77069],[-59.03045,-37.7606],[-59.03033,-37.76054],[-59.03025,-37.76053],[-59.03014,-37.76052],[-59.03004,-37.76054],[-59.02996,-37.76058],[-59.02496,-37.76442],[-59.0147,-37.77237],[-59.01357,-37.77321],[-59.01188,-37.77448],[-59.01018,-37.7758],[-59.00775,-37.77764],[-59.00551,-37.77933],[-59.00454,-37.78011],[-59.00234,-37.7818],[-58.99997,-37.78358],[-58.99751,-37.78546],[-58.99727,-37.78565],[-58.99719,-37.78577],[-58.99717,-37.78584],[-58.99716,-37.78596],[-58.99716,-37.78608],[-58.99726,-37.78622],[-58.99805,-37.78688],[-58.99962,-37.78814],[-58.99972,-37.78824],[-58.99979,-37.78832],[-58.99982,-37.78841],[-58.99982,-37.78851],[-58.99971,-37.78866],[-58.99672,-37.79092],[-58.99397,-37.79302],[-58.99153,-37.79494],[-58.98894,-37.79693],[-58.98679,-37.7986],[-58.98672,-37.79872],[-58.9867,-37.79879],[-58.9867,-37.79897],[-58.98681,-37.7991],[-58.98752,-37.79964],[-58.98766,-37.79976],[-58.98775,-37.79987],[-58.98773,-37.79999],[-58.98763,-37.8001],[-58.98655,-37.80093],[-58.98508,-37.80206],[-58.98274,-37.80386],[-58.97972,-37.80616],[-58.97724,-37.80812],[-58.97389,-37.8107],[-58.97236,-37.81188],[-58.97222,-37.81198],[-58.97212,-37.81199],[-58.97205,-37.81197],[-58.97195,-37.81192],[-58.97036,-37.8107],[-58.96809,-37.80891],[-58.968,-37.80883],[-58.96792,-37.80878],[-58.96782,-37.80874],[-58.96773,-37.80874],[-58.96763,-37.80878],[-58.96749,-37.80885],[-58.9659,-37.81006],[-58.96393,-37.81161],[-58.9613,-37.81364],[-58.95844,-37.81589],[-58.95546,-37.81819],[-58.95242,-37.82058],[-58.95029,-37.82225],[-58.94674,-37.82501],[-58.9446,-37.82674],[-58.94444,-37.82685],[-58.9443,-37.8269],[-58.94413,-37.82689],[-58.94387,-37.82679],[-58.94125,-37.82547],[-58.93721,-37.82354],[-58.93694,-37.82342],[-58.93671,-37.82339],[-58.93192,-37.82294],[-58.92634,-37.82243],[-58.92616,-37.82242],[-58.92597,-37.82244],[-58.92527,-37.82268],[-58.925,-37.82276],[-58.92474,-37.82278],[-58.9246,-37.82278],[-58.92445,-37.82278],[-58.92428,-37.82273],[-58.92393,-37.82247],[-58.92221,-37.82109],[-58.922,-37.821],[-58.92171,-37.82085],[-58.92025,-37.81964],[-58.92016,-37.81958],[-58.92008,-37.81957],[-58.92001,-37.81958],[-58.91994,-37.81961],[-58.91982,-37.81975],[-58.91869,-37.82146],[-58.91843,-37.82191],[-58.91805,-37.82317],[-58.91777,-37.82371],[-58.91759,-37.82396],[-58.91587,-37.82534],[-58.9132,-37.82752],[-58.9098,-37.83024],[-58.90733,-37.83228],[-58.90405,-37.83496],[-58.90167,-37.83683],[-58.90165,-37.83687],[-58.90165,-37.83691],[-58.90166,-37.83698],[-58.9017,-37.83705]]]}},{"type":"Feature","properties":{"rtn":"88","typ":40,"rst":1,"hct":2,"fdc":"DVP Buenos Aires","sag":"IGN","tipo":"Ruta provincial","ign":"vial_provincial.3900"},"geometry":{"type":"MultiLineString","coordinates":[[[-58.67006,-38.53147],[-58.67096,-38.53218],[-58.67143,-38.53257],[-58.67189,-38.53296],[-58.67239,-38.53338],[-58.67404,-38.53469],[-58.67769,-38.53767],[-58.6813,-38.54059],[-58.68259,-38.54163],[-58.68415,-38.54291],[-58.68447,-38.54311],[-58.68469,-38.54318],[-58.68499,-38.54322]]]}},{"type":"Feature","properties":{"rtn":"72","typ":40,"rst":1,"hct":2,"fdc":"DVP Buenos Aires","sag":"IGN","tipo":"Ruta provincial","ign":"vial_provincial.3725"},"geometry":{"type":"MultiLineString","coordinates":[[[-60.04606,-38.6958],[-60.03033,-38.69491],[-60.02121,-38.69441],[-60.01871,-38.69471],[-60.01692,-38.69495],[-60.01589,-38.69498],[-60.01478,-38.69497],[-60.01363,-38.69492],[-60.01101,-38.69475],[-60.00743,-38.69444],[-60.00538,-38.69423],[-60.00287,-38.69392],[-60.001,-38.69372],[-60.00092,-38.69372],[-60.00084,-38.69371],[-59.98884,-38.69307],[-59.98414,-38.69282],[-59.98079,-38.69268],[-59.97954,-38.69267],[-59.97892,-38.69266],[-59.95973,-38.69244],[-59.94994,-38.69232],[-59.93354,-38.69209],[-59.92065,-38.69193],[-59.91673,-38.69187],[-59.91278,-38.69169],[-59.90042,-38.69103],[-59.87835,-38.68988],[-59.87814,-38.68987],[-59.86667,-38.68928],[-59.85549,-38.68872],[-59.83242,-38.68743],[-59.82286,-38.68694],[-59.82116,-38.68684],[-59.81546,-38.68653],[-59.81495,-38.6865],[-59.80089,-38.68576],[-59.79738,-38.68555],[-59.79366,-38.68535],[-59.79246,-38.68529],[-59.79081,-38.6852],[-59.78633,-38.68496],[-59.78425,-38.68486],[-59.78407,-38.68483],[-59.7833,-38.68474],[-59.78165,-38.68447],[-59.78126,-38.68439],[-59.77571,-38.6833],[-59.77002,-38.68222],[-59.76685,-38.68161],[-59.76638,-38.68152],[-59.75346,-38.67905],[-59.75159,-38.67869],[-59.70892,-38.67044],[-59.69135,-38.66704],[-59.69084,-38.66695],[-59.68342,-38.66548],[-59.66923,-38.66272],[-59.65273,-38.65873],[-59.6524,-38.65865],[-59.64579,-38.65702],[-59.61518,-38.64955],[-59.61468,-38.64942],[-59.61453,-38.64938],[-59.61283,-38.64895],[-59.60787,-38.64776],[-59.60642,-38.6474],[-59.60428,-38.64687],[-59.59481,-38.64454],[-59.59409,-38.64432],[-59.57669,-38.63778],[-59.57641,-38.63767],[-59.54684,-38.62658],[-59.54649,-38.62645],[-59.5298,-38.62023],[-59.51972,-38.61647],[-59.51816,-38.61589],[-59.5151,-38.61474],[-59.49392,-38.60684],[-59.49266,-38.60638],[-59.47901,-38.60127],[-59.4457,-38.5888],[-59.44521,-38.58862],[-59.43828,-38.58605],[-59.43682,-38.58557],[-59.42376,-38.58167],[-59.40008,-38.57459],[-59.38854,-38.57114],[-59.38399,-38.56978],[-59.3827,-38.5693],[-59.38219,-38.56905],[-59.38153,-38.56868],[-59.38079,-38.56818],[-59.37965,-38.56722],[-59.37261,-38.56133],[-59.37217,-38.5611],[-59.37144,-38.5607]]]}},{"type":"Feature","properties":{"rtn":"80","typ":40,"rst":3,"hct":2,"fdc":"DVP Buenos Aires","sag":"IGN","tipo":"Ruta provincial","ign":"vial_provincial.3836"},"geometry":{"type":"MultiLineString","coordinates":[[[-59.42176,-37.70736],[-59.42121,-37.70781],[-59.40076,-37.7243],[-59.38001,-37.74087],[-59.36892,-37.74981],[-59.36504,-37.75294],[-59.3647,-37.75307],[-59.36419,-37.75311],[-59.36391,-37.7531],[-59.36354,-37.75302],[-59.3628,-37.75258],[-59.36262,-37.75248],[-59.36242,-37.75243],[-59.3623,-37.75245],[-59.36222,-37.7525],[-59.36212,-37.75254],[-59.36192,-37.75273],[-59.3618,-37.75278],[-59.36167,-37.7528],[-59.36158,-37.7528],[-59.3615,-37.75278],[-59.3613,-37.7527],[-59.35936,-37.75076],[-59.35911,-37.75063],[-59.35891,-37.75058],[-59.35863,-37.75051],[-59.35813,-37.75045],[-59.35777,-37.75046],[-59.35752,-37.75055],[-59.35724,-37.7507],[-59.35439,-37.75317],[-59.34323,-37.76412],[-59.31974,-37.7871],[-59.3193,-37.78765],[-59.31222,-37.79461],[-59.31214,-37.79464],[-59.31205,-37.79463],[-59.31178,-37.79446],[-59.31161,-37.79435],[-59.3115,-37.79433],[-59.31141,-37.79434],[-59.31131,-37.79437],[-59.31122,-37.79442],[-59.30975,-37.79587],[-59.3078,-37.79779],[-59.30558,-37.80011],[-59.30485,-37.8011],[-59.30452,-37.80162],[-59.30428,-37.80214],[-59.30394,-37.80298],[-59.30278,-37.80831],[-59.29982,-37.82238],[-59.29952,-37.82353],[-59.2989,-37.82642],[-59.29704,-37.83515],[-59.29346,-37.85217],[-59.2933,-37.85291],[-59.29334,-37.8531],[-59.29341,-37.85325],[-59.29362,-37.85346],[-59.29376,-37.85356],[-59.29381,-37.85362],[-59.29383,-37.85368],[-59.29385,-37.85374],[-59.29385,-37.85381],[-59.29384,-37.85401],[-59.29319,-37.85697],[-59.28961,-37.87411],[-59.28951,-37.87458],[-59.28842,-37.87956],[-59.28764,-37.88333],[-59.28725,-37.88514],[-59.28717,-37.8856],[-59.28716,-37.88568],[-59.28717,-37.88573],[-59.2872,-37.88577],[-59.28723,-37.88583],[-59.28724,-37.88591],[-59.28721,-37.88613],[-59.28704,-37.8868],[-59.28691,-37.88747],[-59.28668,-37.88853],[-59.28664,-37.88878],[-59.28637,-37.89014],[-59.28607,-37.89146],[-59.28595,-37.89205],[-59.28577,-37.89285],[-59.28557,-37.89379],[-59.28549,-37.89412],[-59.28534,-37.89468],[-59.28516,-37.89539],[-59.28483,-37.8968],[-59.28467,-37.89741],[-59.28452,-37.89807],[-59.28396,-37.90056],[-59.28274,-37.90635],[-59.28225,-37.90865],[-59.2804,-37.91715],[-59.27768,-37.9303],[-59.27529,-37.94157],[-59.27521,-37.94192],[-59.27512,-37.94234],[-59.27414,-37.94702],[-59.27302,-37.95225],[-59.27253,-37.95451],[-59.27132,-37.96021],[-59.27012,-37.96589],[-59.26998,-37.96703],[-59.26959,-37.96875],[-59.26943,-37.96927],[-59.26922,-37.96998],[-59.26855,-37.97322],[-59.26832,-37.97432],[-59.26751,-37.97821],[-59.26695,-37.98081],[-59.26612,-37.98465],[-59.26445,-37.99243],[-59.26435,-37.99293],[-59.2635,-37.99723],[-59.26305,-37.99936],[-59.26282,-38.00043],[-59.26264,-38.00122],[-59.26267,-38.0013],[-59.26271,-38.00135],[-59.26277,-38.00141],[-59.26279,-38.00152],[-59.26257,-38.00258],[-59.26234,-38.00364],[-59.26211,-38.0047],[-59.26189,-38.00574],[-59.26186,-38.00588],[-59.26163,-38.00694],[-59.26141,-38.00798],[-59.26117,-38.00908],[-59.26095,-38.01013],[-59.26092,-38.01027],[-59.26072,-38.01121],[-59.26049,-38.01225],[-59.26026,-38.01334],[-59.26004,-38.01438],[-59.25982,-38.01536]]]}},{"type":"Feature","properties":{"rtn":"85","typ":40,"rst":1,"hct":2,"fdc":"DVP Buenos Aires","sag":"IGN","tipo":"Ruta provincial","ign":"vial_provincial.3868"},"geometry":{"type":"MultiLineString","coordinates":[[[-59.20692,-38.2808],[-59.20298,-38.27959],[-59.20169,-38.27922],[-59.20042,-38.27883],[-59.19906,-38.27841],[-59.19886,-38.27834],[-59.19778,-38.27802],[-59.19648,-38.2776],[-59.19397,-38.27678],[-59.19119,-38.27591],[-59.18438,-38.2739],[-59.18062,-38.2726],[-59.17954,-38.27211],[-59.17861,-38.27166],[-59.17697,-38.27081],[-59.17499,-38.2697],[-59.17396,-38.26921],[-59.17342,-38.26888],[-59.17188,-38.26764],[-59.17118,-38.26706],[-59.17061,-38.26651],[-59.17019,-38.26605],[-59.16435,-38.25943],[-59.15801,-38.2518],[-59.15703,-38.25072],[-59.15595,-38.24978],[-59.1552,-38.24917],[-59.15195,-38.24703],[-59.14416,-38.24208]]]}},{"type":"Feature","properties":{"rtn":"86","typ":40,"rst":1,"hct":2,"fdc":"DVP Buenos Aires","sag":"IGN","tipo":"Ruta provincial","ign":"vial_provincial.3899"},"geometry":{"type":"MultiLineString","coordinates":[[[-59.85795,-37.64912],[-59.85668,-37.65009],[-59.8562,-37.65047],[-59.84725,-37.65731],[-59.84256,-37.66092],[-59.83918,-37.66356],[-59.83581,-37.66615],[-59.83515,-37.66666],[-59.83241,-37.66878],[-59.82906,-37.67139],[-59.82799,-37.6722],[-59.82674,-37.67316],[-59.82561,-37.67385],[-59.82541,-37.67399],[-59.82426,-37.67461],[-59.82363,-37.675],[-59.82344,-37.67512],[-59.82248,-37.67588],[-59.82221,-37.67608],[-59.82173,-37.67645],[-59.82111,-37.67694],[-59.82089,-37.67715],[-59.82028,-37.67772],[-59.82019,-37.67783],[-59.82012,-37.67791],[-59.82003,-37.67801],[-59.81989,-37.67815],[-59.81949,-37.67855],[-59.81862,-37.67942],[-59.81557,-37.68184],[-59.81527,-37.68206],[-59.81499,-37.68228],[-59.81183,-37.68473],[-59.81013,-37.68605],[-59.81001,-37.68615],[-59.80918,-37.68677],[-59.80836,-37.68739],[-59.80749,-37.68807],[-59.80703,-37.68844],[-59.80494,-37.69005],[-59.8048,-37.69017],[-59.80411,-37.69073],[-59.80143,-37.69278],[-59.79807,-37.69537],[-59.79116,-37.70061],[-59.7879,-37.70322],[-59.78321,-37.70683],[-59.7811,-37.70847],[-59.77764,-37.71114],[-59.77647,-37.71206],[-59.76611,-37.72001],[-59.75729,-37.72692],[-59.72183,-37.7547],[-59.721,-37.75539],[-59.72006,-37.7564],[-59.71939,-37.75729],[-59.71887,-37.7581],[-59.71773,-37.76034],[-59.7166,-37.7626],[-59.7149,-37.76593],[-59.71416,-37.76739],[-59.71307,-37.76948],[-59.71162,-37.77231],[-59.71008,-37.77543],[-59.70788,-37.77973],[-59.70574,-37.78396],[-59.70386,-37.78757],[-59.69913,-37.79696],[-59.69805,-37.79881],[-59.69568,-37.80234],[-59.69202,-37.80747],[-59.69144,-37.80829],[-59.6878,-37.81348],[-59.68319,-37.82004],[-59.67969,-37.82492],[-59.67785,-37.8266],[-59.66313,-37.83665],[-59.64493,-37.8491],[-59.62671,-37.86154],[-59.61441,-37.86995],[-59.61089,-37.87233],[-59.58637,-37.88903],[-59.56017,-37.90689],[-59.55844,-37.90791],[-59.55789,-37.90819],[-59.54447,-37.91399],[-59.544,-37.91421],[-59.53305,-37.91896],[-59.50805,-37.92979],[-59.49777,-37.93426],[-59.49642,-37.93491],[-59.4957,-37.9353],[-59.49524,-37.93564],[-59.49388,-37.93663],[-59.49016,-37.93956],[-59.44861,-37.9723],[-59.4288,-37.98719],[-59.40297,-38.00635],[-59.39782,-38.0102],[-59.39574,-38.0118],[-59.39227,-38.01431],[-59.3896,-38.01629],[-59.38712,-38.01813],[-59.38229,-38.02171],[-59.37256,-38.02937],[-59.36961,-38.03172],[-59.36597,-38.03448],[-59.36362,-38.03623],[-59.36223,-38.03723],[-59.36055,-38.03848],[-59.35979,-38.03904],[-59.35674,-38.04151],[-59.349,-38.04789],[-59.34696,-38.04959],[-59.34285,-38.05293],[-59.33842,-38.05581],[-59.32837,-38.06214],[-59.32337,-38.06523],[-59.32289,-38.06553],[-59.30441,-38.07712],[-59.30059,-38.07951],[-59.29778,-38.08127],[-59.29355,-38.08392],[-59.29189,-38.08505],[-59.28999,-38.08671],[-59.28846,-38.08819],[-59.28556,-38.09075],[-59.27324,-38.10185],[-59.26665,-38.10786],[-59.26477,-38.10953],[-59.25949,-38.1143],[-59.25743,-38.11615],[-59.256,-38.11746],[-59.25519,-38.11818],[-59.25427,-38.11902],[-59.25353,-38.11971],[-59.2522,-38.12137],[-59.25041,-38.12373],[-59.24373,-38.13252],[-59.2431,-38.13328],[-59.24264,-38.13377],[-59.24214,-38.13412],[-59.23811,-38.13672],[-59.2378,-38.13693],[-59.23543,-38.13843],[-59.23329,-38.13981],[-59.2328,-38.14014],[-59.2323,-38.1405],[-59.2319,-38.14086],[-59.23147,-38.14128],[-59.23096,-38.14195],[-59.23065,-38.14246],[-59.22222,-38.15814],[-59.22041,-38.16152],[-59.21946,-38.16326],[-59.21811,-38.16577],[-59.21677,-38.16827],[-59.21532,-38.17098],[-59.21343,-38.17448],[-59.21253,-38.17612],[-59.21153,-38.178],[-59.21025,-38.1804],[-59.20953,-38.1817],[-59.20921,-38.18224],[-59.20882,-38.18272],[-59.20814,-38.18341],[-59.2071,-38.1842],[-59.2061,-38.18472],[-59.20521,-38.18505],[-59.20306,-38.18586],[-59.20183,-38.18634],[-59.20012,-38.18699],[-59.19928,-38.18739],[-59.19863,-38.18777],[-59.19746,-38.18873],[-59.19684,-38.18952],[-59.19634,-38.19038],[-59.19604,-38.19098],[-59.19513,-38.19291],[-59.19401,-38.19519],[-59.19348,-38.19628],[-59.1921,-38.19914],[-59.19072,-38.20198],[-59.19016,-38.20311],[-59.18937,-38.2045],[-59.18873,-38.20539],[-59.18806,-38.20611],[-59.18743,-38.20671],[-59.18234,-38.21086],[-59.17906,-38.21353],[-59.16498,-38.22511],[-59.1574,-38.23125],[-59.14891,-38.23817],[-59.1447,-38.24163],[-59.14439,-38.24189],[-59.14416,-38.24208],[-59.14415,-38.24209],[-59.14281,-38.24319],[-59.13977,-38.24569],[-59.13893,-38.24638],[-59.13592,-38.24884],[-59.13413,-38.2503],[-59.13234,-38.25177],[-59.13062,-38.25316],[-59.12852,-38.25486],[-59.12684,-38.25626],[-59.12449,-38.25819],[-59.12234,-38.25995],[-59.11993,-38.26194],[-59.1179,-38.26375],[-59.11621,-38.26531],[-59.11423,-38.26705],[-59.11272,-38.26841],[-59.10702,-38.27353],[-59.09336,-38.28581],[-59.0884,-38.29022],[-59.08408,-38.29411],[-59.08004,-38.29774],[-59.07836,-38.29923],[-59.07775,-38.29976],[-59.07719,-38.30022],[-59.07669,-38.30061],[-59.07606,-38.30102],[-59.07534,-38.30142],[-59.07465,-38.30175],[-59.07299,-38.30244],[-59.07098,-38.30322],[-59.06879,-38.30407],[-59.06374,-38.30604],[-59.05798,-38.30832],[-59.05244,-38.3105],[-59.04978,-38.31154],[-59.04844,-38.31206],[-59.04286,-38.31426],[-59.0383,-38.31604],[-59.01658,-38.32457],[-59.01481,-38.32523],[-59.01369,-38.32568],[-59.01251,-38.32621],[-59.01137,-38.32685],[-59.0088,-38.32872],[-59.00558,-38.33123],[-59.00118,-38.33461],[-58.99986,-38.33562],[-58.99566,-38.33889],[-58.99286,-38.34103],[-58.99176,-38.34189],[-58.98873,-38.34422],[-58.98624,-38.34614],[-58.98305,-38.34863],[-58.98296,-38.34869],[-58.98049,-38.35058],[-58.97762,-38.35281],[-58.97486,-38.35492],[-58.97386,-38.35572],[-58.96982,-38.35887],[-58.96719,-38.36089],[-58.96268,-38.36439],[-58.96068,-38.36591],[-58.95781,-38.36814],[-58.9554,-38.37001],[-58.95301,-38.37184],[-58.9509,-38.37349],[-58.9478,-38.37585],[-58.94547,-38.37765],[-58.94326,-38.37937],[-58.93593,-38.38506],[-58.93345,-38.38695],[-58.93088,-38.38893],[-58.92638,-38.39245],[-58.92421,-38.39409],[-58.91883,-38.39823],[-58.91482,-38.40131],[-58.9102,-38.40489],[-58.90862,-38.40609],[-58.90507,-38.40884],[-58.90307,-38.41038],[-58.89633,-38.41564],[-58.89188,-38.419],[-58.89053,-38.42019],[-58.88881,-38.42212],[-58.88703,-38.42451],[-58.8855,-38.42572],[-58.88419,-38.42645],[-58.87951,-38.42866],[-58.87793,-38.42966],[-58.8733,-38.43319],[-58.86667,-38.43833],[-58.85498,-38.44742],[-58.84752,-38.45314],[-58.83702,-38.46131],[-58.82817,-38.46809],[-58.82701,-38.46898],[-58.81686,-38.47672],[-58.81175,-38.48071],[-58.81045,-38.4817],[-58.80674,-38.48454],[-58.80057,-38.48926],[-58.78832,-38.49879],[-58.7862,-38.50037],[-58.7795,-38.50552],[-58.77127,-38.51176],[-58.76699,-38.51492],[-58.76547,-38.51607],[-58.76384,-38.51719],[-58.75741,-38.52201]]]}},{"type":"Feature","properties":{"rtn":"88","typ":40,"rst":1,"hct":2,"fdc":"DVP Buenos Aires","sag":"IGN","tipo":"Ruta provincial","ign":"vial_provincial.3901"},"geometry":{"type":"MultiLineString","coordinates":[[[-58.68454,-38.54363],[-58.68447,-38.5434],[-58.68437,-38.54325],[-58.68406,-38.54298],[-58.68371,-38.5427],[-58.68355,-38.54256],[-58.68235,-38.54163],[-58.68127,-38.54074],[-58.67719,-38.53743],[-58.67552,-38.53608],[-58.67393,-38.53478],[-58.67388,-38.53473],[-58.67298,-38.534],[-58.67261,-38.5337],[-58.67217,-38.53332],[-58.67175,-38.53295],[-58.6712,-38.53247],[-58.67061,-38.53196],[-58.67026,-38.53164],[-58.67006,-38.53147]]]}},{"type":"Feature","properties":{"rtn":"80","typ":40,"rst":1,"hct":2,"fdc":"DVP Buenos Aires","sag":"IGN","tipo":"Ruta provincial","ign":"vial_provincial.4155"},"geometry":{"type":"MultiLineString","coordinates":[[[-59.25982,-38.01536],[-59.2591,-38.01869],[-59.2562,-38.0323],[-59.25237,-38.05035],[-59.24766,-38.07251],[-59.24719,-38.07477],[-59.24052,-38.10627],[-59.23608,-38.12691],[-59.23569,-38.1288],[-59.23564,-38.12998],[-59.23574,-38.13089],[-59.2359,-38.13179],[-59.23616,-38.13253],[-59.23806,-38.13645],[-59.23812,-38.13659],[-59.23811,-38.13672]]]}},{"type":"Feature","properties":{"rtn":"85","typ":40,"rst":2,"hct":2,"fdc":"DVP Buenos Aires","sag":"IGN","tipo":"Ruta provincial","ign":"vial_provincial.4385"},"geometry":{"type":"MultiLineString","coordinates":[[[-59.64587,-38.34501],[-59.6439,-38.34471],[-59.6429,-38.3446],[-59.64032,-38.34433],[-59.62948,-38.34305],[-59.62832,-38.34292],[-59.62417,-38.3424],[-59.62073,-38.34197],[-59.61815,-38.3417],[-59.61809,-38.34168],[-59.61806,-38.34166],[-59.61804,-38.34163],[-59.61804,-38.34159],[-59.61816,-38.34102],[-59.61816,-38.34097],[-59.61814,-38.34094],[-59.61811,-38.3409],[-59.61807,-38.34088],[-59.61792,-38.34084],[-59.61282,-38.34026],[-59.61046,-38.33999],[-59.60698,-38.33954],[-59.60692,-38.33954],[-59.60687,-38.33956],[-59.60684,-38.33958],[-59.60681,-38.33961],[-59.60669,-38.34023],[-59.60666,-38.34027],[-59.60663,-38.34029],[-59.60659,-38.3403],[-59.60651,-38.3403],[-59.60302,-38.33985],[-59.57564,-38.33654],[-59.56742,-38.33556],[-59.56271,-38.33495],[-59.55384,-38.33394],[-59.55253,-38.3337],[-59.55043,-38.33344],[-59.54913,-38.33335],[-59.54703,-38.33311],[-59.50426,-38.32794],[-59.48278,-38.32534],[-59.46676,-38.3234],[-59.46222,-38.32285],[-59.4599,-38.32248],[-59.45838,-38.32237],[-59.44835,-38.32116],[-59.43881,-38.32003],[-59.43838,-38.31994],[-59.43746,-38.31959],[-59.43705,-38.31947],[-59.43655,-38.31936],[-59.43612,-38.31932],[-59.43581,-38.31933],[-59.43539,-38.3194],[-59.43491,-38.31947],[-59.43437,-38.31947],[-59.43321,-38.31932],[-59.43197,-38.3191],[-59.43086,-38.31888],[-59.43012,-38.31869],[-59.42864,-38.31826],[-59.42654,-38.31749],[-59.42646,-38.31748],[-59.42638,-38.3175],[-59.42632,-38.31755],[-59.42629,-38.31764],[-59.42628,-38.31773],[-59.42626,-38.3178],[-59.42619,-38.31784],[-59.42611,-38.31785],[-59.426,-38.31785],[-59.417,-38.31415],[-59.41289,-38.31244],[-59.40969,-38.31115],[-59.39601,-38.30561],[-59.39311,-38.30456],[-59.39239,-38.30437],[-59.38702,-38.30226],[-59.38269,-38.30049],[-59.38244,-38.30036],[-59.38226,-38.3002],[-59.38219,-38.3001],[-59.38212,-38.3],[-59.38206,-38.2999],[-59.38189,-38.2998],[-59.37978,-38.29894],[-59.37746,-38.29822],[-59.37714,-38.29815],[-59.37667,-38.29805],[-59.37617,-38.29798],[-59.37493,-38.29789],[-59.37484,-38.29784],[-59.37481,-38.29779],[-59.37479,-38.29773],[-59.37477,-38.29762],[-59.37472,-38.2973],[-59.37469,-38.29722],[-59.37465,-38.29713],[-59.37458,-38.29701],[-59.37445,-38.29686],[-59.37436,-38.29679],[-59.37425,-38.29674],[-59.36816,-38.29422],[-59.36712,-38.29398],[-59.36581,-38.29346],[-59.36477,-38.29283],[-59.36404,-38.29255],[-59.36292,-38.29221],[-59.36174,-38.29198],[-59.36029,-38.29177],[-59.3591,-38.29171],[-59.35791,-38.29171],[-59.35673,-38.29182],[-59.35599,-38.29193],[-59.35526,-38.29205],[-59.35414,-38.29236],[-59.35341,-38.29259],[-59.3526,-38.29288],[-59.35138,-38.29339],[-59.35019,-38.29408],[-59.34927,-38.29451],[-59.34908,-38.29458],[-59.34724,-38.29533],[-59.34627,-38.29556],[-59.34318,-38.29672],[-59.34167,-38.29723],[-59.33979,-38.29773],[-59.33863,-38.298],[-59.33687,-38.2983],[-59.33597,-38.29835],[-59.33508,-38.29836],[-59.33448,-38.29835],[-59.33405,-38.29834],[-59.33302,-38.29828],[-59.33193,-38.29812],[-59.3309,-38.29793],[-59.32985,-38.29766],[-59.32889,-38.29735],[-59.32775,-38.29696],[-59.32669,-38.29684],[-59.32565,-38.29655],[-59.32465,-38.29611],[-59.32337,-38.29533],[-59.31841,-38.29363],[-59.31704,-38.29308],[-59.31487,-38.29237],[-59.31372,-38.2921],[-59.31235,-38.29187],[-59.31011,-38.29164],[-59.30796,-38.29154],[-59.30519,-38.29123],[-59.30217,-38.29111],[-59.3008,-38.29119],[-59.29973,-38.29135],[-59.29849,-38.29164],[-59.29754,-38.29195],[-59.29144,-38.29429],[-59.29123,-38.29428],[-59.29107,-38.2942],[-59.29095,-38.29402],[-59.29087,-38.29396],[-59.29077,-38.29394],[-59.2906,-38.29395],[-59.28881,-38.29459],[-59.28745,-38.29483],[-59.28621,-38.29494],[-59.28511,-38.29489],[-59.28425,-38.29479],[-59.28285,-38.29436],[-59.27944,-38.29299],[-59.2786,-38.2927],[-59.27744,-38.29246],[-59.27628,-38.29233],[-59.26183,-38.29241],[-59.26135,-38.29239],[-59.25982,-38.2922],[-59.25884,-38.29214],[-59.25812,-38.29216],[-59.25765,-38.29219],[-59.25654,-38.29247],[-59.25621,-38.2925],[-59.25392,-38.2925],[-59.25378,-38.29252],[-59.25364,-38.29259],[-59.25357,-38.29271],[-59.25352,-38.29278],[-59.25341,-38.29291],[-59.25331,-38.29297],[-59.25316,-38.29302],[-59.25294,-38.29305],[-59.24877,-38.29303],[-59.24809,-38.29297],[-59.24732,-38.29288],[-59.24584,-38.29257],[-59.24346,-38.29188],[-59.23648,-38.28974],[-59.21473,-38.2831],[-59.21216,-38.28234],[-59.21089,-38.28196],[-59.20956,-38.2816],[-59.20822,-38.2812],[-59.20692,-38.2808]]]}},{"type":"Feature","properties":{"rtn":"88","typ":40,"rst":1,"hct":2,"fdc":"DVP Buenos Aires","sag":"IGN","tipo":"Ruta provincial","ign":"vial_provincial.3902"},"geometry":{"type":"MultiLineString","coordinates":[[[-58.67006,-38.53147],[-58.66983,-38.53129],[-58.66527,-38.52757],[-58.64064,-38.50833],[-58.64005,-38.50788],[-58.6395,-38.50751],[-58.63888,-38.50715],[-58.63825,-38.50684],[-58.63737,-38.50647],[-58.62152,-38.4999],[-58.60795,-38.49428],[-58.60718,-38.49391],[-58.60655,-38.49356],[-58.57907,-38.47618],[-58.57827,-38.47574],[-58.57737,-38.4753],[-58.56458,-38.46969],[-58.56073,-38.468],[-58.53461,-38.45634],[-58.51599,-38.44888],[-58.48751,-38.43667],[-58.48595,-38.43603],[-58.48519,-38.43575],[-58.47161,-38.4314],[-58.46123,-38.42806],[-58.46094,-38.42796],[-58.46028,-38.42772],[-58.45965,-38.42748],[-58.45914,-38.42725],[-58.45872,-38.42701],[-58.45839,-38.42681],[-58.45814,-38.42666],[-58.45286,-38.4227],[-58.45214,-38.42209],[-58.44974,-38.41988],[-58.44909,-38.41933],[-58.43808,-38.41023],[-58.43227,-38.40553],[-58.43036,-38.40396],[-58.42951,-38.40328],[-58.42893,-38.40279],[-58.42821,-38.40214],[-58.42588,-38.39991],[-58.41717,-38.39164],[-58.41452,-38.38911],[-58.40765,-38.38262],[-58.40377,-38.37894],[-58.40102,-38.37633],[-58.39445,-38.37017],[-58.3931,-38.36889],[-58.39135,-38.36723],[-58.39019,-38.36593],[-58.38857,-38.36418],[-58.38826,-38.36386],[-58.38763,-38.36325],[-58.38687,-38.36259],[-58.38511,-38.36105],[-58.38093,-38.35749],[-58.37301,-38.35068],[-58.36872,-38.34699],[-58.36849,-38.3468],[-58.36619,-38.34484],[-58.36152,-38.3408],[-58.3526,-38.3332],[-58.35183,-38.33252],[-58.35026,-38.33117],[-58.34869,-38.32981],[-58.34829,-38.3295],[-58.34787,-38.32924],[-58.34752,-38.32906],[-58.34709,-38.32886],[-58.34668,-38.3287],[-58.346,-38.32846],[-58.34404,-38.32787],[-58.34201,-38.3272],[-58.31611,-38.31899],[-58.31003,-38.31704],[-58.30923,-38.3168],[-58.30863,-38.31663],[-58.308,-38.31646],[-58.30726,-38.31629],[-58.30551,-38.31594],[-58.29849,-38.31453],[-58.29408,-38.31364],[-58.29346,-38.3135],[-58.29281,-38.31333],[-58.29233,-38.31317],[-58.29069,-38.31264],[-58.28822,-38.31182],[-58.28797,-38.31173],[-58.26805,-38.30514],[-58.25673,-38.30138],[-58.25348,-38.3003],[-58.24849,-38.29865],[-58.2469,-38.29814],[-58.24665,-38.29806],[-58.23105,-38.29309],[-58.22474,-38.29104],[-58.21541,-38.28805],[-58.20413,-38.28444],[-58.18555,-38.27848],[-58.17064,-38.27386],[-58.16489,-38.2721],[-58.16087,-38.27085],[-58.15926,-38.27038],[-58.15822,-38.27005],[-58.15685,-38.26963],[-58.15663,-38.26956],[-58.15448,-38.26892],[-58.13667,-38.26374],[-58.13651,-38.26369],[-58.13579,-38.26349],[-58.13541,-38.26336],[-58.13496,-38.2632],[-58.13453,-38.26303],[-58.13228,-38.26214],[-58.12833,-38.26054],[-58.12753,-38.2602],[-58.12716,-38.26001],[-58.12676,-38.25977],[-58.12635,-38.25948],[-58.12507,-38.25859],[-58.1231,-38.25721],[-58.11947,-38.25465],[-58.1125,-38.24972],[-58.11163,-38.24909],[-58.10479,-38.24432],[-58.1046,-38.24418],[-58.10369,-38.24356],[-58.10313,-38.24316],[-58.10261,-38.24274],[-58.10215,-38.24236],[-58.10141,-38.24177],[-58.09714,-38.23827],[-58.09164,-38.23378],[-58.08827,-38.23105],[-58.08763,-38.23052],[-58.08756,-38.23046],[-58.08693,-38.22994],[-58.08391,-38.22749],[-58.08084,-38.22498],[-58.07349,-38.21896],[-58.073,-38.21859],[-58.07247,-38.21827],[-58.0718,-38.21795],[-58.07111,-38.21771],[-58.0642,-38.21523],[-58.06375,-38.21504],[-58.06339,-38.21486],[-58.06297,-38.21463],[-58.06254,-38.21433],[-58.05603,-38.20966],[-58.05236,-38.20702],[-58.05195,-38.20676],[-58.05174,-38.20662],[-58.04398,-38.20161],[-58.04341,-38.20126],[-58.043,-38.20104],[-58.04252,-38.20082],[-58.042,-38.20063],[-58.04144,-38.20048],[-58.04084,-38.20036],[-58.04031,-38.2003],[-58.03978,-38.20028],[-58.039,-38.20028],[-58.0288,-38.20055],[-58.02801,-38.20056],[-58.02753,-38.20055],[-58.02701,-38.20051],[-58.02649,-38.20043],[-58.02606,-38.20035],[-58.02563,-38.20023],[-58.02527,-38.2001],[-58.02485,-38.19993],[-58.02446,-38.19974],[-58.02402,-38.19947],[-58.02346,-38.19905],[-58.02003,-38.19623],[-58.00307,-38.18227],[-57.99717,-38.17742],[-57.99363,-38.1745],[-57.97727,-38.16105],[-57.97709,-38.1609],[-57.97615,-38.16012],[-57.97546,-38.15955],[-57.97338,-38.15785],[-57.97272,-38.15733],[-57.97223,-38.157],[-57.9722,-38.15697]]]}}]}
