{"type":"FeatureCollection","features":[{"type":"Feature","geometry":{"type":"Point","coordinates":[-58.7396,-38.55102]},"properties":{"nombre":"Cáritas Necochea, parroquia Santa María del Carmen","tipo":"Cáritas","nota":"Sede de Cáritas en la parroquia Santa María del Carmen. Punto aportado por un colaborador (28/09/2026)."}},{"type":"Feature","geometry":{"type":"Point","coordinates":[-58.74901,-38.56276]},"properties":{"nombre":"Cáritas de la parroquia Nuestra Señora de Nueva Pompeya","tipo":"Cáritas","nota":"Cáritas parroquial. Coordenada tomada de OpenStreetMap por un colaborador que conoce el lugar (28/09/2026)."}}]}
