{"type":"FeatureCollection","features":[{"type":"Feature","geometry":{"type":"Point","coordinates":[-58.71885,-38.57585]},"properties":{"nombre":"Polideportivo Municipal \"Edgardo Hugo Yelpo\"","tipo":"Polideportivo","uso":"Evacuación ante catástrofes","fuente":"Único refugio designado por Defensa Civil ante catástrofes, según Juan Sebastián Bértole (27/09/2026). No se encontró un documento público de la designación.","ref":"way/326255242","version_osm":3}},{"type":"Feature","geometry":{"type":"Point","coordinates":[-58.72244,-38.56883]},"properties":{"nombre":"Parroquia Nuestra Señora de la Medalla Milagrosa","tipo":"Parroquia","uso":"Personas en situación de calle","fuente":"Refugio para personas en situación de calle, según Juan Sebastián Bértole (27/09/2026). No depende de Defensa Civil ni es un lugar de evacuación. No se encontró un documento público que lo informe.","ref":"way/1272959264","version_osm":1}}]}
