{"type":"FeatureCollection","features":[{"type":"Feature","properties":{"fna":"Unidad Sanitaria La Dulce","gna":"Unidad Sanitaria","nam":"La Dulce","fdc":"IGN/OSM/SISA","sag":"IGN","tipo":"Edificio de salud","ign":"salud_020801.9544"},"geometry":{"type":"Point","coordinates":[-59.20173,-38.28651]}},{"type":"Feature","properties":{"fna":"Unidad Sanitaria Ramón Santamarina","gna":"Unidad Sanitaria","nam":"Ramón Santamarina","fdc":"IGN/SISA","sag":"IGN","tipo":"Edificio de salud","ign":"salud_020801.9548"},"geometry":{"type":"Point","coordinates":[-59.33249,-38.44913]}},{"type":"Feature","properties":{"fna":"Hospital Municipal Néstor Fernández Cattoni","gna":"Hospital Municipal","nam":"Néstor Fernández Cattoni","fdc":"IGN/SISA","sag":"IGN","tipo":"Edificio de salud","ign":"salud_020801.10699"},"geometry":{"type":"Point","coordinates":[-59.26113,-38.01092]}},{"type":"Feature","properties":{"fna":"Unidad Sanitaria Claraz","gna":"Unidad Sanitaria","nam":"Claraz","fdc":"IGN/SISA","sag":"IGN","tipo":"Edificio de salud","ign":"salud_020801.11403"},"geometry":{"type":"Point","coordinates":[-59.29114,-37.88897]}},{"type":"Feature","properties":{"fna":"Unidad Sanitaria Puerto Necochea-Quequén","gna":"Unidad Sanitaria","nam":"Puerto Necochea-Quequén","fdc":"IGN/SISA","sag":"IGN","tipo":"Edificio de salud","ign":"salud_020801.9545"},"geometry":{"type":"Point","coordinates":[-58.71682,-38.57316]}},{"type":"Feature","properties":{"fna":"Centro de Atención Primaria de la Salud Teresa de Calcuta","gna":"Centro de Atención Primaria de la Salud","nam":"Teresa de Calcuta","fdc":"IGN/SISA","sag":"IGN","tipo":"Edificio de salud","ign":"salud_020801.9546"},"geometry":{"type":"Point","coordinates":[-58.71986,-38.54352]}},{"type":"Feature","properties":{"fna":"Centro de Salud 6 Esquinas","gna":"Centro de Salud","nam":"6 Esquinas","fdc":"IGN/SISA","sag":"IGN","tipo":"Edificio de salud","ign":"salud_020801.9547"},"geometry":{"type":"Point","coordinates":[-58.70192,-38.56609]}},{"type":"Feature","properties":{"fna":"Centro de Salud Fomento de Quequén","gna":"Centro de Salud","nam":"Fomento de Quequén","fdc":"IGN/SISA","sag":"IGN","tipo":"Edificio de salud","ign":"salud_020801.10459"},"geometry":{"type":"Point","coordinates":[-58.71119,-38.56031]}},{"type":"Feature","properties":{"fna":"Centro de Salud Barrio Sur","gna":"Centro de Salud","nam":"Barrio Sur","fdc":"IGN/SISA","sag":"IGN","tipo":"Edificio de salud","ign":"salud_020801.10724"},"geometry":{"type":"Point","coordinates":[-58.74099,-38.56694]}},{"type":"Feature","properties":{"fna":"Centro Periférico Barrio Norte","gna":"Centro Periférico","nam":"Barrio Norte","fdc":"IGN/SISA","sag":"IGN","tipo":"Edificio de salud","ign":"salud_020801.10725"},"geometry":{"type":"Point","coordinates":[-58.73996,-38.54403]}},{"type":"Feature","properties":{"fna":"Consultorio Periférico N° 1 de Quequén","gna":"Consultorio Periférico","nam":"N° 1 de Quequén","fdc":"IGN/SISA","sag":"IGN","tipo":"Edificio de salud","ign":"salud_020801.10726"},"geometry":{"type":"Point","coordinates":[-58.71125,-38.56028]}},{"type":"Feature","properties":{"fna":"Sala de Primeros Auxilios Universidad","gna":"Sala de Primeros Auxilios","nam":"Universidad","fdc":"IGN/SISA","sag":"IGN","tipo":"Edificio de salud","ign":"salud_020801.10727"},"geometry":{"type":"Point","coordinates":[-58.69746,-38.57237]}},{"type":"Feature","properties":{"fna":"Unidad Sanitaria N° 36","gna":"Unidad Sanitaria","nam":"N° 36","fdc":"IGN/SISA","sag":"IGN","tipo":"Edificio de salud","ign":"salud_020801.11353"},"geometry":{"type":"Point","coordinates":[-58.73897,-38.55879]}},{"type":"Feature","properties":{"fna":"Hospital Municipal Doctor Emilio Ferreyra","gna":"Hospital Municipal","nam":"Doctor Emilio Ferreyra","fdc":"IGN/SISA","sag":"IGN","tipo":"Edificio de salud","ign":"salud_020801.11586"},"geometry":{"type":"Point","coordinates":[-58.76102,-38.53836]}},{"type":"Feature","properties":{"fna":"Centro de Atención Primaria de la Salud General San Martín","gna":"Centro de Atención Primaria de la Salud","nam":"General San Martín","fdc":"IGN/SISA","sag":"IGN","tipo":"Edificio de salud","ign":"salud_020801.11618"},"geometry":{"type":"Point","coordinates":[-58.76267,-38.55927]}},{"type":"Feature","properties":{"fna":"Centro de Salud Barrio 9 de Julio","gna":"Centro de Salud","nam":"Barrio 9 de Julio","fdc":"IGN/SISA","sag":"IGN","tipo":"Edificio de salud","ign":"salud_020801.11619"},"geometry":{"type":"Point","coordinates":[-58.76683,-38.54669]}},{"type":"Feature","properties":{"fna":"Consultorio Periférico Teodoro José María Rico","gna":"Consultorio Periférico","nam":"Teodoro José María Rico","fdc":"IGN/SISA","sag":"IGN","tipo":"Edificio de salud","ign":"salud_020801.11620"},"geometry":{"type":"Point","coordinates":[-58.71782,-38.5676]}},{"type":"Feature","properties":{"fna":"Hospital Subzonal Neuropsiquiátrico Doctor D. J. Taraborelli","gna":"Hospital Subzonal Neuropsiquiátrico","nam":"Doctor D. J. Taraborelli","fdc":"IGN/SISA","sag":"IGN","tipo":"Edificio de salud","ign":"salud_020801.11943"},"geometry":{"type":"Point","coordinates":[-58.72671,-38.55617]}},{"type":"Feature","properties":{"fna":"Hospital José Irurzun","gna":"Hospital","nam":"José Irurzun","fdc":"IGN/SISA","sag":"IGN","tipo":"Edificio de salud","ign":"salud_020801.15875"},"geometry":{"type":"Point","coordinates":[-58.71649,-38.54506]}},{"type":"Feature","properties":{"fna":"Centro de Salud Juan B. Flores","gna":"Centro de Salud","nam":"Juan B. Flores","fdc":"IGN/SISA","sag":"IGN","tipo":"Edificio de salud","ign":"salud_020801.15995"},"geometry":{"type":"Point","coordinates":[-58.75325,-38.55156]}},{"type":"Feature","properties":{"fna":"Centro de Salud Playa Doctor Carlos Fucile","gna":"Centro de Salud","nam":"Playa Doctor Carlos Fucile","fdc":"IGN/SISA","sag":"IGN","tipo":"Edificio de salud","ign":"salud_020801.15996"},"geometry":{"type":"Point","coordinates":[-58.72751,-38.57858]}},{"type":"Feature","properties":{"fna":"Unidad Sanitaria Daniel Diez","gna":"Unidad Sanitaria","nam":"Daniel Diez","fdc":"IGN/SISA","sag":"IGN","tipo":"Edificio de salud","ign":"salud_020801.15997"},"geometry":{"type":"Point","coordinates":[-58.74999,-38.56265]}}]}
