{"type":"FeatureCollection","features":[{"type":"Feature","geometry":{"type":"Point","coordinates":[-58.73123,-38.58438]},"properties":{"nombre":"Posta sanitaria de verano (avenida 2 y 87)","tipo":"Posta sanitaria","temporada":"verano","origen":"Mapa municipal \"Info Zona Playa - 2023\" (Área GIS de la Municipalidad de Necochea).","vigencia":"Posta sanitaria de verano que la Municipalidad de Necochea informó para la temporada 2026 (nota del 14/01/2026): enfermería y ambulancia, de 8 a 20.","url_vigencia":"https://necochea.gov.ar/postas-sanitarias-de-verano-la-municipalidad-refuerza-la-atencion-con-cobertura-de-8-a-20/"}},{"type":"Feature","geometry":{"type":"Point","coordinates":[-58.69595,-38.57592]},"properties":{"nombre":"Posta sanitaria de verano (playa de Quequén, escollera)","tipo":"Posta sanitaria","temporada":"verano","origen":"Mapa municipal \"Info Zona Playa - 2023\" (Área GIS de la Municipalidad de Necochea).","vigencia":"Posta sanitaria de verano que la Municipalidad de Necochea informó para la temporada 2026 (nota del 14/01/2026): enfermería y ambulancia, de 8 a 20.","url_vigencia":"https://necochea.gov.ar/postas-sanitarias-de-verano-la-municipalidad-refuerza-la-atencion-con-cobertura-de-8-a-20/"}},{"type":"Feature","geometry":{"type":"Point","coordinates":[-58.79635,-38.60265]},"properties":{"nombre":"Posta sanitaria de verano (Villa Zabala)","tipo":"Posta sanitaria","temporada":"verano","origen":"Mapa municipal \"Info Zona Playa - 2023\" (Área GIS de la Municipalidad de Necochea).","vigencia":"Posta sanitaria de verano que la Municipalidad de Necochea informó para la temporada 2026 (nota del 14/01/2026): enfermería y ambulancia, de 8 a 20.","url_vigencia":"https://necochea.gov.ar/postas-sanitarias-de-verano-la-municipalidad-refuerza-la-atencion-con-cobertura-de-8-a-20/"}},{"type":"Feature","geometry":{"type":"Point","coordinates":[-58.79669,-38.60277]},"properties":{"nombre":"Posta de seguridad (Villa Zabala)","tipo":"Posta de seguridad","temporada":"verano","origen":"Mapa municipal \"Info Zona Playa - 2023\" (Área GIS de la Municipalidad de Necochea).","nota":"Funciona con el Operativo Sol de cada verano.","vigencia":"Según un colaborador (05/10/2026), el lugar no cambia de una temporada a otra."}},{"type":"Feature","geometry":{"type":"Point","coordinates":[-58.70396,-38.57919]},"properties":{"nombre":"Puesto de verano de Prefectura Naval","tipo":"Prefectura Naval (puesto de verano)","temporada":"verano","origen":"Mapa municipal \"Info Zona Playa - 2023\" (Área GIS de la Municipalidad de Necochea).","nota":"Es un puesto de playa que funciona solo en verano, no la sede de la Prefectura Quequén (está en la capa \"Organismos de respuesta\").","vigencia":"Según un colaborador (05/10/2026), el lugar no cambia de una temporada a otra."}},{"type":"Feature","geometry":{"type":"Point","coordinates":[-58.62584,-38.5631]},"properties":{"nombre":"Guardavidas Costa Bonita","tipo":"Guardavidas","temporada":"verano","origen":"Mapa municipal \"Info Zona Playa - 2023\" (Área GIS de la Municipalidad de Necochea).","vigencia":"Puesto que la Municipalidad de Necochea informó para la temporada 2025-2026 (nota del 26/12/2025, servicio desde el 1/1/2026).","url_vigencia":"https://necochea.gov.ar/desde-enero-se-pone-en-marcha-la-cobertura-completa-del-servicio-de-guardavidas/"}},{"type":"Feature","geometry":{"type":"Point","coordinates":[-58.68891,-38.57429]},"properties":{"nombre":"Guardavidas Bajada Pública (502 y 531)","tipo":"Guardavidas","temporada":"verano","origen":"Mapa municipal \"Info Zona Playa - 2023\" (Área GIS de la Municipalidad de Necochea).","vigencia":"Puesto que la Municipalidad de Necochea informó para la temporada 2025-2026 (nota del 26/12/2025, servicio desde el 1/1/2026).","url_vigencia":"https://necochea.gov.ar/desde-enero-se-pone-en-marcha-la-cobertura-completa-del-servicio-de-guardavidas/"}},{"type":"Feature","geometry":{"type":"Point","coordinates":[-58.69571,-38.57728]},"properties":{"nombre":"Guardavidas Escollera Norte","tipo":"Guardavidas","temporada":"verano","origen":"Mapa municipal \"Info Zona Playa - 2023\" (Área GIS de la Municipalidad de Necochea).","vigencia":"Puesto que la Municipalidad de Necochea informó para la temporada 2025-2026 (nota del 26/12/2025, servicio desde el 1/1/2026).","url_vigencia":"https://necochea.gov.ar/desde-enero-se-pone-en-marcha-la-cobertura-completa-del-servicio-de-guardavidas/"}},{"type":"Feature","geometry":{"type":"Point","coordinates":[-58.688,-38.57411]},"properties":{"nombre":"Guardavidas La Hélice","tipo":"Guardavidas","temporada":"verano","origen":"Mapa municipal \"Info Zona Playa - 2023\" (Área GIS de la Municipalidad de Necochea).","vigencia":"Puesto del mapa municipal de 2023 que no nombra la nota de la temporada 2025-2026. Se mantiene porque, según un colaborador (05/10/2026), los puestos de guardavidas no se levantan: se van sumando según la cantidad de guardavidas de cada temporada.","url_vigencia":"https://necochea.gov.ar/desde-enero-se-pone-en-marcha-la-cobertura-completa-del-servicio-de-guardavidas/"}},{"type":"Feature","geometry":{"type":"Point","coordinates":[-58.69381,-38.57609]},"properties":{"nombre":"Guardavidas Puesto Casilla","tipo":"Guardavidas","temporada":"verano","origen":"Mapa municipal \"Info Zona Playa - 2023\" (Área GIS de la Municipalidad de Necochea).","vigencia":"Puesto que la Municipalidad de Necochea informó para la temporada 2025-2026 (nota del 26/12/2025, servicio desde el 1/1/2026).","url_vigencia":"https://necochea.gov.ar/desde-enero-se-pone-en-marcha-la-cobertura-completa-del-servicio-de-guardavidas/"}},{"type":"Feature","geometry":{"type":"Point","coordinates":[-58.69001,-38.57463]},"properties":{"nombre":"Guardavidas Monte Pasubio","tipo":"Guardavidas","temporada":"verano","origen":"Mapa municipal \"Info Zona Playa - 2023\" (Área GIS de la Municipalidad de Necochea).","vigencia":"Puesto que la Municipalidad de Necochea informó para la temporada 2025-2026 (nota del 26/12/2025, servicio desde el 1/1/2026).","url_vigencia":"https://necochea.gov.ar/desde-enero-se-pone-en-marcha-la-cobertura-completa-del-servicio-de-guardavidas/"}},{"type":"Feature","geometry":{"type":"Point","coordinates":[-58.69484,-38.57667]},"properties":{"nombre":"Guardavidas Puesto Medio (502 y 521)","tipo":"Guardavidas","temporada":"verano","origen":"Mapa municipal \"Info Zona Playa - 2023\" (Área GIS de la Municipalidad de Necochea).","vigencia":"Puesto que la Municipalidad de Necochea informó para la temporada 2025-2026 (nota del 26/12/2025, servicio desde el 1/1/2026).","url_vigencia":"https://necochea.gov.ar/desde-enero-se-pone-en-marcha-la-cobertura-completa-del-servicio-de-guardavidas/"}},{"type":"Feature","geometry":{"type":"Point","coordinates":[-58.70219,-38.58019]},"properties":{"nombre":"Guardavidas Los Patos","tipo":"Guardavidas","temporada":"verano","origen":"Mapa municipal \"Info Zona Playa - 2023\" (Área GIS de la Municipalidad de Necochea).","vigencia":"Puesto que la Municipalidad de Necochea informó para la temporada 2025-2026 (nota del 26/12/2025, servicio desde el 1/1/2026).","url_vigencia":"https://necochea.gov.ar/desde-enero-se-pone-en-marcha-la-cobertura-completa-del-servicio-de-guardavidas/"}},{"type":"Feature","geometry":{"type":"Point","coordinates":[-58.71216,-38.58199]},"properties":{"nombre":"Guardavidas Puesto 63","tipo":"Guardavidas","temporada":"verano","origen":"Mapa municipal \"Info Zona Playa - 2023\" (Área GIS de la Municipalidad de Necochea).","vigencia":"Puesto que la Municipalidad de Necochea informó para la temporada 2025-2026 (nota del 26/12/2025, servicio desde el 1/1/2026).","url_vigencia":"https://necochea.gov.ar/desde-enero-se-pone-en-marcha-la-cobertura-completa-del-servicio-de-guardavidas/"}},{"type":"Feature","geometry":{"type":"Point","coordinates":[-58.71653,-38.58277]},"properties":{"nombre":"Guardavidas Puesto 65","tipo":"Guardavidas","temporada":"verano","origen":"Mapa municipal \"Info Zona Playa - 2023\" (Área GIS de la Municipalidad de Necochea).","vigencia":"Puesto del mapa municipal de 2023 que no nombra la nota de la temporada 2025-2026. Se mantiene porque, según un colaborador (05/10/2026), los puestos de guardavidas no se levantan: se van sumando según la cantidad de guardavidas de cada temporada.","url_vigencia":"https://necochea.gov.ar/desde-enero-se-pone-en-marcha-la-cobertura-completa-del-servicio-de-guardavidas/"}},{"type":"Feature","geometry":{"type":"Point","coordinates":[-58.71838,-38.57942]},"properties":{"nombre":"Guardavidas Puesto 67","tipo":"Guardavidas","temporada":"verano","origen":"Cruce de la calle 67 y la avenida 2 en OpenStreetMap; el puesto está sobre la playa, al final de esa calle. Por la tarde, según la nota municipal.","ref":"node/1271626899","vigencia":"Puesto que la Municipalidad de Necochea informó para la temporada 2025-2026 (nota del 26/12/2025, servicio desde el 1/1/2026).","url_vigencia":"https://necochea.gov.ar/desde-enero-se-pone-en-marcha-la-cobertura-completa-del-servicio-de-guardavidas/"}},{"type":"Feature","geometry":{"type":"Point","coordinates":[-58.71761,-38.58293]},"properties":{"nombre":"Guardavidas Puesto 69","tipo":"Guardavidas","temporada":"verano","origen":"Mapa municipal \"Info Zona Playa - 2023\" (Área GIS de la Municipalidad de Necochea).","vigencia":"Puesto que la Municipalidad de Necochea informó para la temporada 2025-2026 (nota del 26/12/2025, servicio desde el 1/1/2026).","url_vigencia":"https://necochea.gov.ar/desde-enero-se-pone-en-marcha-la-cobertura-completa-del-servicio-de-guardavidas/"}},{"type":"Feature","geometry":{"type":"Point","coordinates":[-58.71914,-38.58298]},"properties":{"nombre":"Guardavidas Puesto 71","tipo":"Guardavidas","temporada":"verano","origen":"Mapa municipal \"Info Zona Playa - 2023\" (Área GIS de la Municipalidad de Necochea).","nota":"Por la tarde, según la nota municipal.","vigencia":"Puesto que la Municipalidad de Necochea informó para la temporada 2025-2026 (nota del 26/12/2025, servicio desde el 1/1/2026).","url_vigencia":"https://necochea.gov.ar/desde-enero-se-pone-en-marcha-la-cobertura-completa-del-servicio-de-guardavidas/"}},{"type":"Feature","geometry":{"type":"Point","coordinates":[-58.72183,-38.58354]},"properties":{"nombre":"Guardavidas Puesto 75","tipo":"Guardavidas","temporada":"verano","origen":"Mapa municipal \"Info Zona Playa - 2023\" (Área GIS de la Municipalidad de Necochea).","vigencia":"Puesto que la Municipalidad de Necochea informó para la temporada 2025-2026 (nota del 26/12/2025, servicio desde el 1/1/2026).","url_vigencia":"https://necochea.gov.ar/desde-enero-se-pone-en-marcha-la-cobertura-completa-del-servicio-de-guardavidas/"}},{"type":"Feature","geometry":{"type":"Point","coordinates":[-58.725,-38.58407]},"properties":{"nombre":"Guardavidas Puesto 79","tipo":"Guardavidas","temporada":"verano","origen":"Mapa municipal \"Info Zona Playa - 2023\" (Área GIS de la Municipalidad de Necochea).","vigencia":"Puesto que la Municipalidad de Necochea informó para la temporada 2025-2026 (nota del 26/12/2025, servicio desde el 1/1/2026).","url_vigencia":"https://necochea.gov.ar/desde-enero-se-pone-en-marcha-la-cobertura-completa-del-servicio-de-guardavidas/"}},{"type":"Feature","geometry":{"type":"Point","coordinates":[-58.72622,-38.58373]},"properties":{"nombre":"Guardavidas Playa Morena","tipo":"Guardavidas","temporada":"verano","origen":"Balneario Playa Morena en OpenStreetMap (punto central).","ref":"way/1547343582","vigencia":"Puesto que la Municipalidad de Necochea informó para la temporada 2025-2026 (nota del 26/12/2025, servicio desde el 1/1/2026).","url_vigencia":"https://necochea.gov.ar/desde-enero-se-pone-en-marcha-la-cobertura-completa-del-servicio-de-guardavidas/"}},{"type":"Feature","geometry":{"type":"Point","coordinates":[-58.72791,-38.58506]},"properties":{"nombre":"Guardavidas Rambla","tipo":"Guardavidas","temporada":"verano","origen":"Mapa municipal \"Info Zona Playa - 2023\" (Área GIS de la Municipalidad de Necochea).","vigencia":"Puesto que la Municipalidad de Necochea informó para la temporada 2025-2026 (nota del 26/12/2025, servicio desde el 1/1/2026).","url_vigencia":"https://necochea.gov.ar/desde-enero-se-pone-en-marcha-la-cobertura-completa-del-servicio-de-guardavidas/"}},{"type":"Feature","geometry":{"type":"Point","coordinates":[-58.72858,-38.58495]},"properties":{"nombre":"Guardavidas Tarsis","tipo":"Guardavidas","temporada":"verano","origen":"Mapa municipal \"Info Zona Playa - 2023\" (Área GIS de la Municipalidad de Necochea).","vigencia":"Puesto que la Municipalidad de Necochea informó para la temporada 2025-2026 (nota del 26/12/2025, servicio desde el 1/1/2026).","url_vigencia":"https://necochea.gov.ar/desde-enero-se-pone-en-marcha-la-cobertura-completa-del-servicio-de-guardavidas/"}},{"type":"Feature","geometry":{"type":"Point","coordinates":[-58.73072,-38.58556]},"properties":{"nombre":"Guardavidas Puesto 87","tipo":"Guardavidas","temporada":"verano","origen":"Mapa municipal \"Info Zona Playa - 2023\" (Área GIS de la Municipalidad de Necochea).","vigencia":"Puesto que la Municipalidad de Necochea informó para la temporada 2025-2026 (nota del 26/12/2025, servicio desde el 1/1/2026).","url_vigencia":"https://necochea.gov.ar/desde-enero-se-pone-en-marcha-la-cobertura-completa-del-servicio-de-guardavidas/"}},{"type":"Feature","geometry":{"type":"Point","coordinates":[-58.73277,-38.58646]},"properties":{"nombre":"Guardavidas Puesto 91","tipo":"Guardavidas","temporada":"verano","origen":"Mapa municipal \"Info Zona Playa - 2023\" (Área GIS de la Municipalidad de Necochea).","vigencia":"Puesto que la Municipalidad de Necochea informó para la temporada 2025-2026 (nota del 26/12/2025, servicio desde el 1/1/2026).","url_vigencia":"https://necochea.gov.ar/desde-enero-se-pone-en-marcha-la-cobertura-completa-del-servicio-de-guardavidas/"}},{"type":"Feature","geometry":{"type":"Point","coordinates":[-58.73453,-38.58694]},"properties":{"nombre":"Guardavidas Ex ACA","tipo":"Guardavidas","temporada":"verano","origen":"Mapa municipal \"Info Zona Playa - 2023\" (Área GIS de la Municipalidad de Necochea).","vigencia":"Puesto que la Municipalidad de Necochea informó para la temporada 2025-2026 (nota del 26/12/2025, servicio desde el 1/1/2026).","url_vigencia":"https://necochea.gov.ar/desde-enero-se-pone-en-marcha-la-cobertura-completa-del-servicio-de-guardavidas/"}},{"type":"Feature","geometry":{"type":"Point","coordinates":[-58.73838,-38.5884]},"properties":{"nombre":"Guardavidas Neptuno","tipo":"Guardavidas","temporada":"verano","origen":"Mapa municipal \"Info Zona Playa - 2023\" (Área GIS de la Municipalidad de Necochea).","vigencia":"Puesto que la Municipalidad de Necochea informó para la temporada 2025-2026 (nota del 26/12/2025, servicio desde el 1/1/2026).","url_vigencia":"https://necochea.gov.ar/desde-enero-se-pone-en-marcha-la-cobertura-completa-del-servicio-de-guardavidas/"}},{"type":"Feature","geometry":{"type":"Point","coordinates":[-58.74033,-38.58924]},"properties":{"nombre":"Guardavidas Letras de Necochea","tipo":"Guardavidas","temporada":"verano","origen":"Mapa municipal \"Info Zona Playa - 2023\" (Área GIS de la Municipalidad de Necochea).","nota":"En el mapa municipal de 2023 figura como \"Puesto Neco\"; está junto al cartel con el nombre de la ciudad.","vigencia":"Puesto que la Municipalidad de Necochea informó para la temporada 2025-2026 (nota del 26/12/2025, servicio desde el 1/1/2026).","url_vigencia":"https://necochea.gov.ar/desde-enero-se-pone-en-marcha-la-cobertura-completa-del-servicio-de-guardavidas/"}},{"type":"Feature","geometry":{"type":"Point","coordinates":[-58.74199,-38.58993]},"properties":{"nombre":"Guardavidas Sotavento","tipo":"Guardavidas","temporada":"verano","origen":"Mapa municipal \"Info Zona Playa - 2023\" (Área GIS de la Municipalidad de Necochea).","vigencia":"Puesto que la Municipalidad de Necochea informó para la temporada 2025-2026 (nota del 26/12/2025, servicio desde el 1/1/2026).","url_vigencia":"https://necochea.gov.ar/desde-enero-se-pone-en-marcha-la-cobertura-completa-del-servicio-de-guardavidas/"}},{"type":"Feature","geometry":{"type":"Point","coordinates":[-58.74315,-38.59042]},"properties":{"nombre":"Guardavidas Caño","tipo":"Guardavidas","temporada":"verano","origen":"Mapa municipal \"Info Zona Playa - 2023\" (Área GIS de la Municipalidad de Necochea).","vigencia":"Puesto que la Municipalidad de Necochea informó para la temporada 2025-2026 (nota del 26/12/2025, servicio desde el 1/1/2026).","url_vigencia":"https://necochea.gov.ar/desde-enero-se-pone-en-marcha-la-cobertura-completa-del-servicio-de-guardavidas/"}},{"type":"Feature","geometry":{"type":"Point","coordinates":[-58.74417,-38.59081]},"properties":{"nombre":"Guardavidas Cisnes","tipo":"Guardavidas","temporada":"verano","origen":"Mapa municipal \"Info Zona Playa - 2023\" (Área GIS de la Municipalidad de Necochea).","vigencia":"Puesto del mapa municipal de 2023 que no nombra la nota de la temporada 2025-2026. Se mantiene porque, según un colaborador (05/10/2026), los puestos de guardavidas no se levantan: se van sumando según la cantidad de guardavidas de cada temporada.","url_vigencia":"https://necochea.gov.ar/desde-enero-se-pone-en-marcha-la-cobertura-completa-del-servicio-de-guardavidas/"}},{"type":"Feature","geometry":{"type":"Point","coordinates":[-58.74594,-38.59142]},"properties":{"nombre":"Guardavidas Camping Miguel Lillo","tipo":"Guardavidas","temporada":"verano","origen":"Mapa municipal \"Info Zona Playa - 2023\" (Área GIS de la Municipalidad de Necochea).","vigencia":"Puesto que la Municipalidad de Necochea informó para la temporada 2025-2026 (nota del 26/12/2025, servicio desde el 1/1/2026).","url_vigencia":"https://necochea.gov.ar/desde-enero-se-pone-en-marcha-la-cobertura-completa-del-servicio-de-guardavidas/"}},{"type":"Feature","geometry":{"type":"Point","coordinates":[-58.74998,-38.59261]},"properties":{"nombre":"Guardavidas Kabryl","tipo":"Guardavidas","temporada":"verano","origen":"Mapa municipal \"Info Zona Playa - 2023\" (Área GIS de la Municipalidad de Necochea).","vigencia":"Puesto que la Municipalidad de Necochea informó para la temporada 2025-2026 (nota del 26/12/2025, servicio desde el 1/1/2026).","url_vigencia":"https://necochea.gov.ar/desde-enero-se-pone-en-marcha-la-cobertura-completa-del-servicio-de-guardavidas/"}},{"type":"Feature","geometry":{"type":"Point","coordinates":[-58.76092,-38.5974]},"properties":{"nombre":"Guardavidas Espigón (muelle de pescadores)","tipo":"Guardavidas","temporada":"verano","origen":"Muelle de OpenStreetMap (punto central); un colaborador indicó que el Espigón de la nota municipal es el muelle de pescadores (05/10/2026).","ref":"way/183802537","vigencia":"Puesto que la Municipalidad de Necochea informó para la temporada 2025-2026 (nota del 26/12/2025, servicio desde el 1/1/2026).","url_vigencia":"https://necochea.gov.ar/desde-enero-se-pone-en-marcha-la-cobertura-completa-del-servicio-de-guardavidas/"}},{"type":"Feature","geometry":{"type":"Point","coordinates":[-58.76706,-38.59896]},"properties":{"nombre":"Guardavidas Karamawi","tipo":"Guardavidas","temporada":"verano","origen":"Mapa municipal \"Info Zona Playa - 2023\" (Área GIS de la Municipalidad de Necochea).","vigencia":"Puesto que la Municipalidad de Necochea informó para la temporada 2025-2026 (nota del 26/12/2025, servicio desde el 1/1/2026).","url_vigencia":"https://necochea.gov.ar/desde-enero-se-pone-en-marcha-la-cobertura-completa-del-servicio-de-guardavidas/"}},{"type":"Feature","geometry":{"type":"Point","coordinates":[-58.77613,-38.60166]},"properties":{"nombre":"Guardavidas Bajada 4x4, puesto 1","tipo":"Guardavidas","temporada":"verano","origen":"Mapa municipal \"Info Zona Playa - 2023\" (Área GIS de la Municipalidad de Necochea).","vigencia":"Puesto que la Municipalidad de Necochea informó para la temporada 2025-2026 (nota del 26/12/2025, servicio desde el 1/1/2026).","url_vigencia":"https://necochea.gov.ar/desde-enero-se-pone-en-marcha-la-cobertura-completa-del-servicio-de-guardavidas/"}},{"type":"Feature","geometry":{"type":"Point","coordinates":[-58.78454,-38.60367]},"properties":{"nombre":"Guardavidas Bajada 4x4, puesto 2","tipo":"Guardavidas","temporada":"verano","origen":"Mapa municipal \"Info Zona Playa - 2023\" (Área GIS de la Municipalidad de Necochea).","vigencia":"Puesto que la Municipalidad de Necochea informó para la temporada 2025-2026 (nota del 26/12/2025, servicio desde el 1/1/2026).","url_vigencia":"https://necochea.gov.ar/desde-enero-se-pone-en-marcha-la-cobertura-completa-del-servicio-de-guardavidas/"}},{"type":"Feature","geometry":{"type":"Point","coordinates":[-58.79131,-38.60594]},"properties":{"nombre":"Guardavidas Bajada 4x4, puesto 3","tipo":"Guardavidas","temporada":"verano","origen":"Mapa municipal \"Info Zona Playa - 2023\" (Área GIS de la Municipalidad de Necochea).","vigencia":"Puesto que la Municipalidad de Necochea informó para la temporada 2025-2026 (nota del 26/12/2025, servicio desde el 1/1/2026).","url_vigencia":"https://necochea.gov.ar/desde-enero-se-pone-en-marcha-la-cobertura-completa-del-servicio-de-guardavidas/"}},{"type":"Feature","geometry":{"type":"Point","coordinates":[-58.71981,-38.56235]},"properties":{"nombre":"Guardavidas Puente Dardo Rocha","tipo":"Guardavidas","temporada":"verano","origen":"Puente Dardo Rocha en OpenStreetMap (punto medio del puente). Puesto sobre el río Quequén Grande.","ref":"way/111662520","vigencia":"Puesto que la Municipalidad de Necochea informó para la temporada 2025-2026 (nota del 26/12/2025, servicio desde el 1/1/2026).","url_vigencia":"https://necochea.gov.ar/desde-enero-se-pone-en-marcha-la-cobertura-completa-del-servicio-de-guardavidas/"}},{"type":"Feature","geometry":{"type":"Point","coordinates":[-58.76159,-38.46075]},"properties":{"nombre":"Guardavidas Puente Blanco","tipo":"Guardavidas","temporada":"verano","origen":"Extremo del Puente Blanco del lado del partido de Necochea, en OpenStreetMap. Puesto sobre el río Quequén Grande; en 2026 se cubrió hasta fines de marzo, según la nota municipal del 27/03/2026.","ref":"node/1764401041","vigencia":"Puesto que la Municipalidad de Necochea informó para la temporada 2025-2026 (nota del 26/12/2025, servicio desde el 1/1/2026).","url_vigencia":"https://necochea.gov.ar/desde-enero-se-pone-en-marcha-la-cobertura-completa-del-servicio-de-guardavidas/"}},{"type":"Feature","geometry":{"type":"Point","coordinates":[-58.76141,-38.45979]},"properties":{"nombre":"Guardavidas Las Cascadas","tipo":"Guardavidas","temporada":"verano","origen":"Paraje Las Cascadas en OpenStreetMap. Puesto sobre el río Quequén Grande; en 2026 se cubrió hasta fines de marzo, según la nota municipal del 27/03/2026.","ref":"node/1764401015","vigencia":"Puesto que la Municipalidad de Necochea informó para la temporada 2025-2026 (nota del 26/12/2025, servicio desde el 1/1/2026).","url_vigencia":"https://necochea.gov.ar/desde-enero-se-pone-en-marcha-la-cobertura-completa-del-servicio-de-guardavidas/"}}]}
