{"type":"FeatureCollection","features":[{"type":"Feature","geometry":{"type":"Point","coordinates":[-59.26018,-38.01514]},"properties":{"categoria":"Estaciones de servicio","registros":[{"categoria":"Estaciones de servicio","tipo":"Bocas de expendio (venta por menor)","detalle":"Combustibles líquidos únicamente","direccion":"RUTA PCIAL. 80 ACCESO","localidad":"Juan N. Fernández","fuente":"Padrón de operadores de combustibles líquidos (Res. SE 1102/2004)","punto":"Estación de servicio de OpenStreetMap, cuyo operador en OSM es el mismo titular del padrón, a 84 m de la Ruta 80."}]}},{"type":"Feature","geometry":{"type":"Point","coordinates":[-59.20839,-38.27919]},"properties":{"categoria":"Depósitos de combustible","registros":[{"categoria":"Depósitos de combustible","tipo":"Revendedor general (venta a granel mayorista, incluye tambores)","direccion":"28 1200","localidad":"La Dulce","fuente":"Padrón de operadores de combustibles líquidos (Res. SE 1102/2004)","punto":"Planta de silos de La Dulce (no es una vivienda), punto aportado por Juan Sebastián Bértole (28/09/2026)."}]}},{"type":"Feature","geometry":{"type":"Point","coordinates":[-59.20625,-38.2791]},"properties":{"categoria":"Depósitos de combustible","registros":[{"categoria":"Depósitos de combustible","tipo":"Revendedor general (venta a granel mayorista, incluye tambores)","direccion":"CALLE 28 ENTRE 35 Y 37.","localidad":"Nicanor Olivera","fuente":"Padrón de operadores de combustibles líquidos (Res. SE 1102/2004)","punto":"Mitad del tramo de la Calle 28 entre las calles 35 y 37 de La Dulce en OpenStreetMap, que declara el padrón."}]}},{"type":"Feature","geometry":{"type":"Point","coordinates":[-59.20541,-38.28053]},"properties":{"categoria":"Estaciones de servicio","registros":[{"categoria":"Estaciones de servicio","tipo":"Bocas de expendio (venta por menor)","detalle":"Combustibles líquidos únicamente","direccion":"CALLE 26 ESQ. 35","localidad":"La Dulce","fuente":"Padrón de operadores de combustibles líquidos (Res. SE 1102/2004)","punto":"Estación de servicio de OpenStreetMap, a 29 m de la esquina de Calle 26 y Calle 35 de La Dulce que declara el padrón."}]}},{"type":"Feature","geometry":{"type":"Point","coordinates":[-59.14398,-38.24293]},"properties":{"categoria":"Estaciones de servicio","registros":[{"categoria":"Estaciones de servicio","tipo":"Bocas de expendio (venta por menor)","detalle":"Combustibles líquidos únicamente","direccion":"RUTA 86 KM. 52 Y RUTA 85","localidad":"La Dulce","fuente":"Padrón de operadores de combustibles líquidos (Res. SE 1102/2004)","punto":"Estación de servicio de OpenStreetMap, a 90 m del cruce de las rutas 86 y 85 que declara el padrón."}]}},{"type":"Feature","geometry":{"type":"Point","coordinates":[-58.77611,-38.53167]},"properties":{"categoria":"Estaciones de servicio","registros":[{"categoria":"Estaciones de servicio","tipo":"Bocas de expendio (venta por menor)","detalle":"Combustibles líquidos únicamente","direccion":"RUTA NACIONAL 228 KM 2.5 (38º31'54\"S, 58º46'34\"W)","localidad":"Necochea","fuente":"Padrón de operadores de combustibles líquidos (Res. SE 1102/2004)","punto":"Coordenadas que declara el propio padrón; la estación de OSM de ese lugar está a 18 m."}]}},{"type":"Feature","geometry":{"type":"Point","coordinates":[-58.76809,-38.55296]},"properties":{"categoria":"Depósitos de combustible","registros":[{"categoria":"Depósitos de combustible","tipo":"Bocas de expendio para consumo propio (instalaciones fijas)","direccion":"CALLE 87 N° 4250","localidad":"Necochea","fuente":"Padrón de operadores de combustibles líquidos (Res. SE 1102/2004)","punto":"Predio donde se guardan los colectivos, punto aportado por Juan Sebastián Bértole (28/09/2026)."}]}},{"type":"Feature","geometry":{"type":"Point","coordinates":[-58.76579,-38.53388]},"properties":{"categoria":"Gas envasado (GLP)","registros":[{"categoria":"Gas envasado (GLP)","tipo":"Distribuidora de gas envasado (GLP)","detalle":"Envases de hasta 45 kg (categoría 3)","direccion":"AVENIDA 59 5336","localidad":"Necochea","fuente":"Registro de la industria del GLP (Res. SE 800/2004), distribuidoras","punto":"Coordenadas de la Secretaría de Energía, a 11 m de la Av. 59 en OpenStreetMap."}]}},{"type":"Feature","geometry":{"type":"Point","coordinates":[-58.75988,-38.5279]},"properties":{"categoria":"Estaciones de servicio","registros":[{"categoria":"Estaciones de servicio","tipo":"Bocas de expendio (venta por menor)","detalle":"Combustibles líquidos únicamente","direccion":"RUTA NAC. 228 KM. 1 Y AV. 43","localidad":"Necochea","fuente":"Padrón de operadores de combustibles líquidos (Res. SE 1102/2004)","punto":"Estación de servicio de OpenStreetMap, cuyo operador en OSM es el mismo titular del padrón, a 122 m del cruce de la Ruta 228 y la Av. 43."}]}},{"type":"Feature","geometry":{"type":"Point","coordinates":[-58.75891,-38.53977]},"properties":{"categoria":"Estaciones de servicio","registros":[{"categoria":"Estaciones de servicio","tipo":"Bocas de expendio (venta por menor)","detalle":"Duales (líquidos + GNC)","direccion":"AV. 59 N° 4591 ESQ. 98","localidad":"Necochea","fuente":"Padrón de operadores de combustibles líquidos (Res. SE 1102/2004)","punto":"Estación de servicio de OpenStreetMap, al final de la cuadra del 4500 de la Av. 59 según las direcciones de OSM."}]}},{"type":"Feature","geometry":{"type":"Point","coordinates":[-58.74993,-38.54587]},"properties":{"categoria":"Estaciones de servicio","registros":[{"categoria":"Estaciones de servicio","tipo":"Bocas de expendio (venta por menor)","detalle":"Combustibles líquidos únicamente","direccion":"AV. 59 N°3734 ESQ. 80","localidad":"Necochea","fuente":"Padrón de operadores de combustibles líquidos (Res. SE 1102/2004)","punto":"Estación de servicio de OpenStreetMap, a 33 m de la esquina de Av. 59 y Calle 80 que declara el padrón."}]}},{"type":"Feature","geometry":{"type":"Point","coordinates":[-58.74602,-38.52395]},"properties":{"categoria":"Gas envasado (GLP)","registros":[{"categoria":"Gas envasado (GLP)","tipo":"Distribuidora de gas envasado (GLP)","detalle":"Envases de hasta 45 kg (categoría 3)","direccion":"CALLE 25 4985","localidad":"Necochea","fuente":"Registro de la industria del GLP (Res. SE 800/2004), distribuidoras","punto":"Coordenadas de la Secretaría de Energía, a 36 m de la Calle 25 en OpenStreetMap."}]}},{"type":"Feature","geometry":{"type":"Point","coordinates":[-58.74546,-38.54975]},"properties":{"categoria":"Estaciones de servicio","registros":[{"categoria":"Estaciones de servicio","tipo":"Bocas de expendio (venta por menor)","detalle":"Combustibles líquidos únicamente","direccion":"AV. 59 Y CALLE 70 3210 (38°32'59,10'', 58°44'43,65'')","localidad":"Necochea","fuente":"Padrón de operadores de combustibles líquidos (Res. SE 1102/2004)","punto":"Coordenadas que declara el propio padrón, en la esquina de Av. 59 y Calle 70; hay dos estaciones de OSM a 30 y 40 m."}]}},{"type":"Feature","geometry":{"type":"Point","coordinates":[-58.7427,-38.53475]},"properties":{"categoria":"Gas envasado (GLP)","registros":[{"categoria":"Gas envasado (GLP)","tipo":"Distribuidora de gas envasado (GLP)","detalle":"Envases de hasta 45 kg (categoría 3)","direccion":"RUTA PROVINCIAL 86 4176 ENTRE CALLE 90 Y 86","localidad":"Necochea","fuente":"Registro de la industria del GLP (Res. SE 800/2004), distribuidoras","punto":"Coordenadas de la Secretaría de Energía, entre las calles 86 y 90, a 116 m de la Ruta 86 en OpenStreetMap."}]}},{"type":"Feature","geometry":{"type":"Point","coordinates":[-58.73884,-38.56671]},"properties":{"categoria":"Estaciones de servicio","registros":[{"categoria":"Estaciones de servicio","tipo":"Bocas de expendio (venta por menor)","detalle":"Combustibles líquidos únicamente","direccion":"75 1794 ESQUINA AV. 42","localidad":"Necochea","fuente":"Padrón de operadores de combustibles líquidos (Res. SE 1102/2004)","punto":"Estación de servicio de OpenStreetMap, a 15 m de la esquina de Av. 75 y Av. 42 que declara el padrón (en OSM figura otro operador)."}]}},{"type":"Feature","geometry":{"type":"Point","coordinates":[-58.73754,-38.53766]},"properties":{"categoria":"Depósitos de combustible","registros":[{"categoria":"Depósitos de combustible","tipo":"Revendedor general (venta a granel mayorista, incluye tambores)","direccion":"RUTA PROV. 86 Y CALLE 78 3589","localidad":"Necochea","fuente":"Padrón de operadores de combustibles líquidos (Res. SE 1102/2004)","punto":"Cruce de la Ruta 86 con la Calle 78 en OpenStreetMap, que declara el padrón."}]}},{"type":"Feature","geometry":{"type":"Point","coordinates":[-58.73476,-38.55058]},"properties":{"categoria":"Estaciones de servicio","registros":[{"categoria":"Estaciones de servicio","tipo":"Bocas de expendio (venta por menor)","detalle":"Duales (líquidos + GNC)","direccion":"AV. 58 N° 2414/20","localidad":"Necochea","fuente":"Padrón de operadores de combustibles líquidos (Res. SE 1102/2004)","punto":"Estación de servicio de OpenStreetMap, cuyo operador en OSM es el mismo titular del padrón, en la cuadra del 2400 de la Av. 58."}]}},{"type":"Feature","geometry":{"type":"Point","coordinates":[-58.73448,-38.55865]},"properties":{"categoria":"Estaciones de servicio","registros":[{"categoria":"Estaciones de servicio","tipo":"Bocas de expendio (venta por menor)","detalle":"Combustibles líquidos únicamente","direccion":"AV. 59 N° 2073","localidad":"Necochea","fuente":"Padrón de operadores de combustibles líquidos (Res. SE 1102/2004)","punto":"Estación de servicio de OpenStreetMap, al final de la cuadra del 2000 de la Av. 59 según las direcciones de OSM (en OSM figura otro operador)."}]}},{"type":"Feature","geometry":{"type":"Point","coordinates":[-58.73286,-38.55888]},"properties":{"categoria":"Estaciones de servicio","registros":[{"categoria":"Estaciones de servicio","tipo":"Bocas de expendio (venta por menor)","detalle":"Combustibles líquidos únicamente","direccion":"AV. 59 N° 2000 ESQ. CALLE 46","localidad":"Necochea","fuente":"Padrón de operadores de combustibles líquidos (Res. SE 1102/2004)","punto":"Estación de servicio de OpenStreetMap, cuyo operador en OSM es el mismo titular del padrón, a 34 m de la esquina de Av. 59 y Calle 46."}]}},{"type":"Feature","geometry":{"type":"Point","coordinates":[-58.73138,-38.56098]},"properties":{"categoria":"Estaciones de servicio","registros":[{"categoria":"Estaciones de servicio","tipo":"Bocas de expendio (venta por menor)","detalle":"Duales (líquidos + GNC)","direccion":"AV. 59 Nº 1755 ESQ. 42","localidad":"Necochea","fuente":"Padrón de operadores de combustibles líquidos (Res. SE 1102/2004)","punto":"Estación de servicio de OpenStreetMap, cuyo operador en OSM es el mismo titular del padrón, a 41 m de la esquina de Av. 59 y Av. 42."}]}},{"type":"Feature","geometry":{"type":"Point","coordinates":[-58.73,-38.55279]},"properties":{"categoria":"Estaciones de servicio","registros":[{"categoria":"Estaciones de servicio","tipo":"Bocas de expendio (venta por menor)","detalle":"Duales (líquidos + GNC)","direccion":"47 2255 ESQ. CALLE 50","localidad":"Necochea","fuente":"Padrón de operadores de combustibles líquidos (Res. SE 1102/2004)","punto":"Estación de servicio de OpenStreetMap, cuyo operador en OSM es el mismo titular del padrón, a 49 m de la esquina de Calle 47 y Calle 50."},{"categoria":"Estaciones de servicio","tipo":"Bocas de expendio (venta por menor)","detalle":"Sólo GNC","direccion":"CALLE 47 N° 2255","localidad":"Necochea","fuente":"Padrón de operadores de combustibles líquidos (Res. SE 1102/2004)","punto":"Estación de servicio de OpenStreetMap, cuyo operador en OSM es el mismo titular del padrón (misma dirección que la inscripción de GNC y líquidos)."}]}},{"type":"Feature","geometry":{"type":"Point","coordinates":[-58.72909,-38.57772]},"properties":{"categoria":"Estaciones de servicio","registros":[{"categoria":"Estaciones de servicio","tipo":"Bocas de expendio (venta por menor)","detalle":"Combustibles líquidos únicamente","direccion":"AV. 79 N° 399 Y AV. 10 N° 3903","localidad":"Necochea","fuente":"Padrón de operadores de combustibles líquidos (Res. SE 1102/2004)","punto":"Estación de servicio de OpenStreetMap, a 27 m de la esquina de Av. 79 y Av. 10 que declara el padrón (en OSM figura otro operador)."}]}},{"type":"Feature","geometry":{"type":"Point","coordinates":[-58.72741,-38.55475]},"properties":{"categoria":"Estaciones de servicio","registros":[{"categoria":"Estaciones de servicio","tipo":"Bocas de expendio (venta por menor)","detalle":"Sólo GNC","direccion":"CALLE 47 Nº1957","localidad":"Necochea","fuente":"Padrón de operadores de combustibles líquidos (Res. SE 1102/2004)","punto":"Estación de servicio de OpenStreetMap, cuyo operador en OSM es el mismo titular del padrón, en la cuadra del 1900 de la Calle 47."}]}},{"type":"Feature","geometry":{"type":"Point","coordinates":[-58.72375,-38.55032]},"properties":{"categoria":"Estaciones de servicio","registros":[{"categoria":"Estaciones de servicio","tipo":"Bocas de expendio (venta por menor)","detalle":"Combustibles líquidos únicamente","direccion":"574 Y AV. 519 N° 3598","localidad":"Quequén","fuente":"Padrón de operadores de combustibles líquidos (Res. SE 1102/2004)","punto":"Estación de servicio de OpenStreetMap, a 17 m de la esquina de Calle 574 y Calle 519 que declara el padrón."}]}},{"type":"Feature","geometry":{"type":"Point","coordinates":[-58.72318,-38.56633]},"properties":{"categoria":"Estaciones de servicio","registros":[{"categoria":"Estaciones de servicio","tipo":"Bocas de expendio (venta por menor)","detalle":"Duales (líquidos + GNC)","direccion":"AV. 59 N° 996 ESQ. CALLE 26","localidad":"Necochea","fuente":"Padrón de operadores de combustibles líquidos (Res. SE 1102/2004)","punto":"Estación de servicio de OpenStreetMap, cuyo operador en OSM es el mismo titular del padrón, a 37 m de la esquina de Av. 59 y Calle 26."}]}},{"type":"Feature","geometry":{"type":"Point","coordinates":[-58.71631,-38.5596]},"properties":{"categoria":"Estaciones de servicio","registros":[{"categoria":"Estaciones de servicio","tipo":"Bocas de expendio (venta por menor)","detalle":"Duales (líquidos + GNC)","direccion":"CALLE 515 2595 38º33'34.57\"S, 58º42'58.72\"W","localidad":"Quequén","fuente":"Padrón de operadores de combustibles líquidos (Res. SE 1102/2004)","punto":"Coordenadas que declara el propio padrón, a 35 m de la esquina de Calle 515 y Av. 554 de OSM."}]}},{"type":"Feature","geometry":{"type":"Point","coordinates":[-58.71618,-38.57149]},"properties":{"categoria":"Depósitos de combustible","registros":[{"categoria":"Depósitos de combustible","tipo":"Revendedor general (venta a granel mayorista, incluye tambores)","direccion":"AV. 59 Y BANQUINA PESCADORES","localidad":"Necochea","fuente":"Padrón de operadores de combustibles líquidos (Res. SE 1102/2004)","punto":"Depósito de gasoil en la banquina de pescadores, al final de la Av. 59, punto aportado por Juan Sebastián Bértole (28/09/2026)."}]}},{"type":"Feature","geometry":{"type":"Point","coordinates":[-58.71023,-38.57876]},"properties":{"categoria":"Depósitos de combustible","registros":[{"categoria":"Depósitos de combustible","tipo":"Bocas de expendio para consumo propio (instalaciones fijas)","direccion":"PUERTO QUEQUEN (CENTRAL ELÉCTRICA)","localidad":"Necochea","fuente":"Padrón de operadores de combustibles líquidos (Res. SE 1102/2004)","punto":"Centro del predio de la Central Termoeléctrica Necochea en OpenStreetMap."}]}},{"type":"Feature","geometry":{"type":"Point","coordinates":[-58.70785,-38.53455]},"properties":{"categoria":"Estaciones de servicio","registros":[{"categoria":"Estaciones de servicio","tipo":"Bocas de expendio (venta por menor)","detalle":"Combustibles líquidos únicamente","direccion":"AV. 578 Y AV. 565 (LINDA CON UN REVENDEDOR NO AUTORIZADO)","localidad":"Quequén","fuente":"Padrón de operadores de combustibles líquidos (Res. SE 1102/2004)","punto":"Estación de servicio de OpenStreetMap, cuyo operador en OSM es el mismo titular del padrón, a 40 m de la esquina de Av. 578 y Av. 565."}]}},{"type":"Feature","geometry":{"type":"Point","coordinates":[-58.70615,-38.56293]},"properties":{"categoria":"Plantas aceiteras","registros":[{"categoria":"Plantas aceiteras","tipo":"Planta aceitera","detalle":"Productora de aceite; Girasol; 1.350 toneladas por día","localidad":"Quequén","fuente":"Plantas productoras y refinadoras de aceite vegetal","punto":"Coordenadas de la Secretaría de Energía, que las georreferenció con datos de la Cámara de la Industria Aceitera (CIARA)."}]}},{"type":"Feature","geometry":{"type":"Point","coordinates":[-58.70504,-38.56379]},"properties":{"categoria":"Depósitos de combustible","registros":[{"categoria":"Depósitos de combustible","tipo":"Bocas de expendio para consumo propio (instalaciones fijas)","detalle":"Combustibles líquidos únicamente","direccion":"CALLE 536 997","localidad":"Quequén","fuente":"Padrón de operadores de combustibles líquidos (Res. SE 1102/2004)","punto":"Predio de la empresa en Quequén, punto aportado por Juan Sebastián Bértole (28/09/2026). Quequén no tiene direcciones cargadas en OpenStreetMap."}]}},{"type":"Feature","geometry":{"type":"Point","coordinates":[-58.7038,-38.54629]},"properties":{"categoria":"Depósitos de combustible","registros":[{"categoria":"Depósitos de combustible","tipo":"Bocas de expendio para consumo propio (instalaciones fijas)","direccion":"CALLE 558 Y 553 (RUTA 227 KM 6)","localidad":"Quequén","fuente":"Padrón de operadores de combustibles líquidos (Res. SE 1102/2004)","punto":"Esquina de Calle 558 y Calle 553 en OpenStreetMap, que declara el padrón."}]}},{"type":"Feature","geometry":{"type":"Point","coordinates":[-58.7028,-38.54862]},"properties":{"categoria":"Depósitos de combustible","registros":[{"categoria":"Depósitos de combustible","tipo":"Revendedor general (venta a granel mayorista, incluye tambores)","direccion":"AV. ALTE. BROWN Y CALLE 554","localidad":"Quequén","fuente":"Padrón de operadores de combustibles líquidos (Res. SE 1102/2004)","punto":"Esquina de Av. Almirante Brown y Calle 554 en OpenStreetMap, que declara el padrón."}]}},{"type":"Feature","geometry":{"type":"Point","coordinates":[-58.70272,-38.53057]},"properties":{"categoria":"Depósitos de combustible","registros":[{"categoria":"Estaciones de servicio","tipo":"Bocas de expendio (venta por menor)","detalle":"Combustibles líquidos únicamente","direccion":"CIRCUNVALACIÓN Y RUTA PROVINCIAL 227","localidad":"Quequén","fuente":"Padrón de operadores de combustibles líquidos (Res. SE 1102/2004)","punto":"Cruce de la Av. Circunvalación con la Ruta 227 en OpenStreetMap, que declara el padrón."},{"categoria":"Depósitos de combustible","tipo":"Bocas de expendio para consumo propio (instalaciones fijas)","direccion":"RUTA 227 KM 7.5 CRUCE CON AV. CIRCUNVALACIÒN","localidad":"Quequén","fuente":"Padrón de operadores de combustibles líquidos (Res. SE 1102/2004)","punto":"Cruce de la Av. Circunvalación con la Ruta 227 en OpenStreetMap, que declara el padrón."}]}},{"type":"Feature","geometry":{"type":"Point","coordinates":[-58.70249,-38.52602]},"properties":{"categoria":"Plantas aceiteras","registros":[{"categoria":"Plantas aceiteras","tipo":"Planta aceitera","detalle":"Productora de aceite; Girasol y Soja; 2.000 toneladas por día","localidad":"Quequén","fuente":"Plantas productoras y refinadoras de aceite vegetal","punto":"Coordenadas de la Secretaría de Energía, que las georreferenció con datos de la Cámara de la Industria Aceitera (CIARA)."}]}},{"type":"Feature","geometry":{"type":"Point","coordinates":[-58.70076,-38.56754]},"properties":{"categoria":"Depósitos de combustible","registros":[{"categoria":"Depósitos de combustible","tipo":"Bocas de expendio para consumo propio (instalaciones fijas)","direccion":"CALLE 528 N° 940","localidad":"Quequén","fuente":"Padrón de operadores de combustibles líquidos (Res. SE 1102/2004)","punto":"Planta de fertilizantes, punto aportado por Juan Sebastián Bértole (28/09/2026)."}]}},{"type":"Feature","geometry":{"type":"Point","coordinates":[-58.70052,-38.55634]},"properties":{"categoria":"Depósitos de combustible","registros":[{"categoria":"Depósitos de combustible","tipo":"Distribuidor (con camiones)","direccion":"AV. 542 E/ 541 Y 545 1770","localidad":"Quequén","fuente":"Padrón de operadores de combustibles líquidos (Res. SE 1102/2004)","punto":"Mitad del tramo de la Av. 542 entre las calles 541 y 545 en OpenStreetMap, que declara el padrón."}]}},{"type":"Feature","geometry":{"type":"Point","coordinates":[-58.69263,-38.54931]},"properties":{"categoria":"Depósitos de combustible","registros":[{"categoria":"Depósitos de combustible","tipo":"Bocas de expendio para consumo propio (instalaciones fijas)","detalle":"Combustibles líquidos únicamente","direccion":"542 2551","localidad":"Quequén","fuente":"Padrón de operadores de combustibles líquidos (Res. SE 1102/2004)","punto":"Predio de una cooperativa agropecuaria, punto aportado por Juan Sebastián Bértole (28/09/2026)."}]}},{"type":"Feature","geometry":{"type":"Point","coordinates":[-58.6919,-38.53901]},"properties":{"categoria":"Gas envasado (GLP)","registros":[{"categoria":"Gas envasado (GLP)","tipo":"Distribuidora de gas envasado (GLP)","detalle":"Envases de hasta 45 kg (categoría 3)","direccion":"CALLE 575 2669","localidad":"Quequén","fuente":"Registro de la industria del GLP (Res. SE 800/2004), distribuidoras","punto":"Predio de la distribuidora sobre la Av. Circunvalación (el tramo de la calle 575 se conoce por ese nombre), punto aportado por Juan Sebastián Bértole (28/09/2026)."}]}},{"type":"Feature","geometry":{"type":"Point","coordinates":[-58.68626,-38.5422]},"properties":{"categoria":"Depósitos de combustible","registros":[{"categoria":"Depósitos de combustible","tipo":"Revendedor general (venta a granel mayorista, incluye tambores)","direccion":"575 Nº 2090-CIC.14 SECC G - QTA. 24 PARC. 1B MZA. 24 2090","localidad":"Quequén","fuente":"Padrón de operadores de combustibles líquidos (Res. SE 1102/2004)","punto":"Predio donde se guardan fertilizantes, sobre la Av. Circunvalación (el tramo de la calle 575 se conoce por ese nombre), punto aportado por Juan Sebastián Bértole (28/09/2026)."},{"categoria":"Depósitos de combustible","tipo":"Distribuidor (con camiones)","direccion":"575 2090","localidad":"Quequén","fuente":"Padrón de operadores de combustibles líquidos (Res. SE 1102/2004)","punto":"Predio donde se guardan fertilizantes, sobre la Av. Circunvalación (el tramo de la calle 575 se conoce por ese nombre), punto aportado por Juan Sebastián Bértole (28/09/2026)."}]}},{"type":"Feature","geometry":{"type":"Point","coordinates":[-58.68127,-38.54147]},"properties":{"categoria":"Depósitos de combustible","registros":[{"categoria":"Depósitos de combustible","tipo":"Revendedor general (venta a granel mayorista, incluye tambores)","direccion":"RUTA 88 KM 125","localidad":"Quequén","fuente":"Padrón de operadores de combustibles líquidos (Res. SE 1102/2004)","punto":"Estación de servicio de OpenStreetMap, la del parador de la Ruta 88, que es la misma dirección del padrón."},{"categoria":"Estaciones de servicio","tipo":"Bocas de expendio (venta por menor)","detalle":"Combustibles líquidos únicamente","direccion":"RUTA 88 KM 125","localidad":"Quequén","fuente":"Padrón de operadores de combustibles líquidos (Res. SE 1102/2004)","punto":"Estación de servicio de OpenStreetMap, cuyo operador en OSM es el mismo titular del padrón, a 81 m de la Ruta 88."}]}}]}
